{"type":"FeatureCollection","features":[{"type":"Feature","properties":{"code":"1101559"},"geometry":{"type":"Polygon","coordinates":[[[-62.495,-11.027],[-62.409,-11.016],[-62.212,-11.005],[-62.156,-11.026],[-62.164,-11.001],[-62.123,-10.899],[-62.305,-10.835],[-62.352,-10.894],[-62.39,-10.942],[-62.495,-11.027]]]}},{"type":"Feature","properties":{"code":"1101609"},"geometry":{"type":"Polygon","coordinates":[[[-62.67,-10.288],[-62.558,-10.373],[-62.468,-10.282],[-62.456,-10.299],[-62.418,-10.301],[-62.363,-10.325],[-62.311,-10.282],[-62.27,-10.266],[-62.247,-10.248],[-62.202,-10.242],[-62.171,-10.224],[-62.135,-10.225],[-62.111,-10.194],[-62.063,-10.174],[-62.018,-10.123],[-61.979,-10.093],[-61.973,-10.068],[-61.993,-10.022],[-61.963,-9.985],[-61.954,-9.95],[-62.016,-9.949],[-62.028,-9.973],[-62.068,-9.988],[-62.108,-10.042],[-62.16,-10.055],[-62.212,-10.031],[-62.244,-10.0],[-62.25,-9.972],[-62.292,-9.93],[-62.36,-9.905],[-62.401,-9.91],[-62.405,-9.864],[-62.423,-9.806],[-62.446,-9.819],[-62.453,-9.906],[-62.468,-9.938],[-62.504,-9.965],[-62.534,-10.052],[-62.572,-10.067],[-62.597,-10.19],[-62.617,-10.195],[-62.67,-10.288]]]}},{"type":"Feature","properties":{"code":"1101435"},"geometry":{"type":"Polygon","coordinates":[[[-62.495,-11.027],[-62.39,-10.942],[-62.352,-10.894],[-62.525,-10.71],[-62.717,-10.878],[-62.603,-11.001],[-62.549,-11.066],[-62.495,-11.027]]]}},{"type":"Feature","properties":{"code":"1101401"},"geometry":{"type":"Polygon","coordinates":[[[-63.214,-10.492],[-63.235,-10.483],[-63.233,-10.439],[-63.254,-10.422],[-63.246,-10.4],[-63.261,-10.373],[-63.231,-10.284],[-63.234,-10.231],[-63.209,-10.167],[-63.191,-10.134],[-63.146,-10.096],[-63.113,-10.0],[-63.597,-10.0],[-63.583,-10.03],[-63.59,-10.059],[-63.577,-10.113],[-63.585,-10.16],[-63.584,-10.199],[-63.565,-10.241],[-63.524,-10.25],[-63.486,-10.27],[-63.461,-10.308],[-63.477,-10.337],[-63.459,-10.398],[-63.494,-10.415],[-63.497,-10.445],[-63.533,-10.465],[-63.53,-10.493],[-63.214,-10.492]]]}},{"type":"Feature","properties":{"code":"1101500"},"geometry":{"type":"Polygon","coordinates":[[[-63.129,-12.202],[-63.117,-12.161],[-63.127,-12.119],[-63.117,-12.079],[-63.085,-12.038],[-63.059,-12.028],[-63.014,-11.989],[-63.009,-11.971],[-62.952,-11.948],[-62.905,-11.942],[-62.892,-11.954],[-62.843,-11.907],[-62.81,-11.857],[-62.818,-11.827],[-62.807,-11.799],[-62.825,-11.766],[-62.806,-11.722],[-62.825,-11.664],[-62.87,-11.589],[-62.896,-11.569],[-62.923,-11.528],[-62.92,-11.506],[-62.944,-11.487],[-62.995,-11.47],[-63.023,-11.45],[-63.065,-11.46],[-63.088,-11.489],[-63.144,-11.483],[-63.157,-11.445],[-63.186,-11.486],[-63.233,-11.486],[-63.273,-11.499],[-63.285,-11.517],[-63.335,-11.533],[-63.376,-11.533],[-63.423,-11.556],[-63.464,-11.556],[-63.494,-11.542],[-63.54,-11.592],[-63.589,-11.609],[-63.605,-11.602],[-63.658,-11.609],[-63.68,-11.644],[-63.652,-11.69],[-63.547,-11.727],[-63.55,-11.758],[-63.585,-11.774],[-63.607,-11.8],[-63.581,-11.839],[-63.367,-11.839],[-63.385,-11.868],[-63.378,-11.886],[-63.331,-11.937],[-63.279,-11.956],[-63.257,-12.029],[-63.288,-12.073],[-63.293,-12.127],[-63.329,-12.219],[-63.328,-12.286],[-63.3,-12.309],[-63.276,-12.281],[-63.243,-12.3],[-63.236,-12.252],[-63.202,-12.23],[-63.174,-12.24],[-63.129,-12.202]]]}},{"type":"Feature","properties":{"code":"1101492"},"geometry":{"type":"Polygon","coordinates":[[[-62.892,-12.859],[-62.866,-12.879],[-62.843,-12.864],[-62.76,-12.873],[-62.734,-12.892],[-62.729,-12.926],[-62.694,-12.902],[-62.665,-12.906],[-62.623,-12.872],[-62.578,-12.81],[-62.518,-12.783],[-62.499,-12.755],[-62.463,-12.747],[-62.427,-12.71],[-62.4,-12.66],[-62.368,-12.621],[-62.36,-12.598],[-62.327,-12.574],[-62.268,-12.51],[-62.275,-12.473],[-62.259,-12.451],[-62.255,-12.39],[-62.291,-12.319],[-62.395,-12.344],[-62.418,-12.324],[-62.468,-12.299],[-62.576,-12.268],[-62.593,-12.249],[-62.621,-12.255],[-62.642,-12.237],[-62.731,-12.11],[-62.757,-12.143],[-62.766,-12.175],[-62.814,-12.202],[-62.856,-12.195],[-62.915,-12.197],[-62.954,-12.206],[-63.032,-12.195],[-63.106,-12.205],[-63.129,-12.202],[-63.174,-12.24],[-63.202,-12.23],[-63.236,-12.252],[-63.243,-12.3],[-63.276,-12.281],[-63.3,-12.309],[-63.328,-12.286],[-63.329,-12.219],[-63.293,-12.127],[-63.288,-12.073],[-63.257,-12.029],[-63.279,-11.956],[-63.331,-11.937],[-63.378,-11.886],[-63.385,-11.868],[-63.367,-11.839],[-63.581,-11.839],[-63.788,-11.839],[-63.819,-11.833],[-63.825,-11.871],[-63.848,-11.872],[-63.863,-11.894],[-63.858,-11.921],[-63.9,-11.966],[-63.947,-11.981],[-63.964,-12.011],[-63.991,-12.026],[-64.0,-12.061],[-63.995,-12.088],[-64.035,-12.152],[-64.086,-12.186],[-64.052,-12.219],[-64.031,-12.225],[-63.969,-12.215],[-63.937,-12.218],[-63.905,-12.185],[-63.851,-12.184],[-63.799,-12.199],[-63.75,-12.24],[-63.743,-12.292],[-63.714,-12.334],[-63.648,-12.334],[-63.651,-12.351],[-63.624,-12.404],[-63.651,-12.444],[-63.685,-12.453],[-63.621,-12.473],[-63.614,-12.485],[-63.55,-12.508],[-63.527,-12.546],[-63.502,-12.567],[-63.437,-12.564],[-63.429,-12.591],[-63.384,-12.653],[-63.349,-12.656],[-63.299,-12.682],[-63.242,-12.691],[-63.24,-12.671],[-63.163,-12.635],[-63.091,-12.636],[-63.095,-12.684],[-63.083,-12.712],[-63.055,-12.731],[-63.034,-12.781],[-63.009,-12.815],[-63.007,-12.84],[-62.943,-12.855],[-62.921,-12.841],[-62.892,-12.859]]]}},{"type":"Feature","properties":{"code":"1101484"},"geometry":{"type":"Polygon","coordinates":[[[-61.564,-11.856],[-61.531,-11.856],[-61.531,-12.089],[-61.473,-12.088],[-61.438,-12.075],[-61.417,-12.086],[-61.417,-11.942],[-61.378,-11.903],[-61.391,-11.889],[-61.392,-11.744],[-61.415,-11.744],[-61.535,-11.743],[-61.525,-11.787],[-61.564,-11.856]]]}},{"type":"Feature","properties":{"code":"1101476"},"geometry":{"type":"Polygon","coordinates":[[[-61.19,-12.001],[-61.208,-11.989],[-61.226,-11.908],[-61.244,-11.886],[-61.238,-11.841],[-61.193,-11.747],[-61.27,-11.747],[-61.264,-11.73],[-61.425,-11.73],[-61.415,-11.744],[-61.392,-11.744],[-61.391,-11.889],[-61.378,-11.903],[-61.417,-11.942],[-61.417,-12.086],[-61.398,-12.052],[-61.366,-12.036],[-61.333,-12.001],[-61.19,-12.001]]]}},{"type":"Feature","properties":{"code":"1101468"},"geometry":{"type":"Polygon","coordinates":[[[-62.115,-13.164],[-62.109,-13.219],[-62.116,-13.258],[-62.069,-13.296],[-62.003,-13.365],[-61.98,-13.366],[-61.962,-13.391],[-61.914,-13.434],[-61.887,-13.441],[-61.883,-13.497],[-61.869,-13.528],[-61.834,-13.539],[-61.817,-13.527],[-61.757,-13.541],[-61.694,-13.508],[-61.651,-13.519],[-61.586,-13.501],[-61.508,-13.548],[-61.47,-13.555],[-61.403,-13.538],[-61.39,-13.52],[-61.35,-13.521],[-61.329,-13.504],[-61.275,-13.506],[-61.248,-13.496],[-61.222,-13.53],[-61.171,-13.511],[-61.153,-13.527],[-61.103,-13.516],[-61.088,-13.492],[-61.041,-13.508],[-61.015,-13.488],[-61.006,-13.55],[-60.967,-13.537],[-60.951,-13.552],[-60.919,-13.548],[-60.893,-13.558],[-60.871,-13.547],[-60.833,-13.483],[-60.802,-13.447],[-60.769,-13.393],[-60.719,-13.392],[-60.705,-13.325],[-60.742,-13.325],[-60.951,-13.326],[-60.95,-13.248],[-61.038,-13.245],[-61.039,-13.362],[-61.354,-13.364],[-61.367,-13.294],[-61.361,-13.228],[-61.407,-13.232],[-61.437,-13.261],[-61.473,-13.256],[-61.497,-13.285],[-61.54,-13.281],[-61.592,-13.303],[-61.671,-13.293],[-61.696,-13.271],[-61.756,-13.262],[-61.772,-13.288],[-61.802,-13.299],[-61.854,-13.289],[-61.888,-13.293],[-61.906,-13.267],[-61.831,-13.205],[-61.786,-13.197],[-61.755,-13.209],[-61.72,-13.209],[-61.668,-13.182],[-61.636,-13.152],[-61.624,-13.095],[-61.64,-13.058],[-61.576,-13.023],[-61.524,-13.038],[-61.501,-13.004],[-61.516,-12.993],[-61.47,-12.897],[-61.461,-12.862],[-61.469,-12.844],[-61.442,-12.795],[-61.442,-12.767],[-61.425,-12.73],[-61.372,-12.715],[-61.386,-12.677],[-61.368,-12.671],[-61.338,-12.627],[-61.342,-12.626],[-61.369,-12.568],[-61.369,-12.533],[-61.386,-12.487],[-61.422,-12.508],[-61.476,-12.464],[-61.566,-12.467],[-61.528,-12.537],[-61.534,-12.568],[-61.526,-12.617],[-61.538,-12.661],[-61.562,-12.694],[-61.633,-12.729],[-61.681,-12.744],[-61.763,-12.808],[-61.815,-12.827],[-61.856,-12.862],[-61.881,-12.859],[-61.897,-12.883],[-61.9,-12.931],[-61.916,-12.969],[-61.959,-12.996],[-62.011,-13.081],[-62.02,-13.11],[-62.057,-13.149],[-62.115,-13.164]]]}},{"type":"Feature","properties":{"code":"1101450"},"geometry":{"type":"Polygon","coordinates":[[[-61.566,-12.467],[-61.476,-12.464],[-61.422,-12.508],[-61.386,-12.487],[-61.369,-12.533],[-61.369,-12.568],[-61.342,-12.626],[-61.278,-12.477],[-61.254,-12.443],[-61.215,-12.359],[-61.193,-12.344],[-61.181,-12.312],[-61.198,-12.22],[-61.181,-12.167],[-61.143,-12.1],[-61.151,-12.033],[-61.19,-12.001],[-61.333,-12.001],[-61.366,-12.036],[-61.398,-12.052],[-61.417,-12.086],[-61.438,-12.075],[-61.473,-12.088],[-61.531,-12.089],[-61.679,-12.09],[-61.676,-12.429],[-61.588,-12.472],[-61.566,-12.467]]]}},{"type":"Feature","properties":{"code":"1101807"},"geometry":{"type":"Polygon","coordinates":[[[-62.26,-10.477],[-62.216,-10.525],[-62.24,-10.615],[-62.101,-10.659],[-61.957,-10.164],[-61.911,-10.117],[-61.923,-10.095],[-61.973,-10.068],[-61.979,-10.093],[-62.018,-10.123],[-62.063,-10.174],[-62.111,-10.194],[-62.135,-10.225],[-62.146,-10.265],[-62.14,-10.327],[-62.122,-10.355],[-62.26,-10.477]]]}},{"type":"Feature","properties":{"code":"1101757"},"geometry":{"type":"Polygon","coordinates":[[[-62.423,-9.806],[-62.405,-9.864],[-62.401,-9.91],[-62.36,-9.905],[-62.292,-9.93],[-62.25,-9.972],[-62.244,-10.0],[-62.212,-10.031],[-62.16,-10.055],[-62.108,-10.042],[-62.068,-9.988],[-62.028,-9.973],[-62.016,-9.949],[-61.954,-9.95],[-61.937,-9.948],[-61.909,-9.989],[-61.873,-9.988],[-61.858,-9.972],[-61.877,-9.905],[-61.837,-9.853],[-61.838,-9.81],[-61.811,-9.803],[-61.794,-9.759],[-61.792,-9.72],[-61.712,-9.731],[-61.645,-9.707],[-61.61,-9.684],[-61.575,-9.718],[-61.532,-9.712],[-61.502,-9.683],[-61.477,-9.63],[-61.497,-9.624],[-61.496,-9.574],[-61.508,-9.54],[-61.549,-9.512],[-61.582,-9.459],[-61.557,-9.436],[-61.559,-9.386],[-61.628,-9.352],[-61.616,-9.327],[-61.633,-9.329],[-61.659,-9.39],[-61.684,-9.386],[-61.683,-9.439],[-61.701,-9.476],[-61.733,-9.5],[-61.83,-9.501],[-61.86,-9.568],[-61.918,-9.552],[-61.946,-9.66],[-61.921,-9.69],[-61.975,-9.787],[-62.015,-9.776],[-62.008,-9.745],[-61.988,-9.724],[-62.019,-9.706],[-62.017,-9.672],[-61.982,-9.659],[-61.983,-9.623],[-62.006,-9.602],[-62.017,-9.539],[-62.042,-9.541],[-62.067,-9.604],[-62.1,-9.62],[-62.125,-9.68],[-62.154,-9.705],[-62.19,-9.709],[-62.203,-9.74],[-62.246,-9.758],[-62.292,-9.736],[-62.317,-9.736],[-62.367,-9.76],[-62.423,-9.805],[-62.423,-9.806]]]}},{"type":"Feature","properties":{"code":"1101708"},"geometry":{"type":"Polygon","coordinates":[[[-62.691,-11.13],[-62.584,-11.225],[-62.445,-11.177],[-62.265,-11.172],[-62.239,-11.108],[-62.214,-11.091],[-62.195,-11.058],[-62.159,-11.068],[-62.144,-11.03],[-62.156,-11.026],[-62.212,-11.005],[-62.409,-11.016],[-62.495,-11.027],[-62.549,-11.066],[-62.573,-11.085],[-62.588,-11.063],[-62.618,-11.089],[-62.644,-11.075],[-62.667,-11.086],[-62.662,-11.109],[-62.691,-11.13]]]}},{"type":"Feature","properties":{"code":"1101005"},"geometry":{"type":"Polygon","coordinates":[[[-63.143,-11.071],[-63.143,-11.03],[-63.116,-10.998],[-63.083,-10.976],[-63.001,-10.941],[-63.0,-10.913],[-62.978,-10.892],[-62.932,-10.871],[-62.912,-10.827],[-62.865,-10.838],[-62.791,-10.778],[-62.79,-10.724],[-62.736,-10.7],[-62.711,-10.671],[-62.672,-10.671],[-62.625,-10.594],[-62.62,-10.556],[-62.581,-10.546],[-62.572,-10.517],[-62.588,-10.499],[-62.614,-10.519],[-62.664,-10.534],[-62.7,-10.523],[-62.735,-10.529],[-62.788,-10.492],[-63.0,-10.492],[-63.214,-10.492],[-63.53,-10.493],[-63.535,-10.53],[-63.557,-10.558],[-63.532,-10.596],[-63.562,-10.642],[-63.55,-10.699],[-63.555,-10.731],[-63.578,-10.732],[-63.583,-10.781],[-63.567,-10.802],[-63.577,-10.832],[-63.571,-10.876],[-63.604,-10.886],[-63.609,-10.913],[-63.583,-10.973],[-63.587,-11.004],[-63.627,-11.005],[-63.583,-11.011],[-63.555,-11.039],[-63.5,-11.043],[-63.481,-11.027],[-63.433,-11.03],[-63.335,-11.089],[-63.287,-11.153],[-63.255,-11.152],[-63.233,-11.127],[-63.196,-11.103],[-63.196,-11.083],[-63.18,-11.066],[-63.143,-11.071]]]}},{"type":"Feature","properties":{"code":"1101104"},"geometry":{"type":"Polygon","coordinates":[[[-63.1,-9.481],[-62.733,-9.39],[-62.736,-9.001],[-62.628,-9.001],[-62.642,-8.961],[-62.638,-8.934],[-62.661,-8.925],[-62.667,-8.888],[-62.688,-8.856],[-62.71,-8.854],[-62.73,-8.825],[-62.764,-8.798],[-62.793,-8.794],[-62.79,-8.825],[-62.811,-8.84],[-62.822,-8.892],[-62.864,-8.931],[-62.926,-8.922],[-62.953,-8.97],[-62.991,-9.0],[-63.21,-9.001],[-63.212,-8.967],[-63.263,-8.93],[-63.269,-8.893],[-63.298,-8.871],[-63.318,-8.896],[-63.303,-8.911],[-63.331,-8.936],[-63.325,-8.991],[-63.361,-9.045],[-63.356,-9.064],[-63.396,-9.095],[-63.446,-9.089],[-63.427,-9.058],[-63.449,-9.005],[-63.48,-9.02],[-63.513,-9.069],[-63.53,-9.081],[-63.514,-9.134],[-63.451,-9.156],[-63.458,-9.192],[-63.395,-9.197],[-63.405,-9.254],[-63.396,-9.275],[-63.355,-9.273],[-63.321,-9.29],[-63.309,-9.318],[-63.307,-9.401],[-63.326,-9.428],[-63.327,-9.433],[-63.101,-9.453],[-63.1,-9.481]]]}},{"type":"Feature","properties":{"code":"1100924"},"geometry":{"type":"Polygon","coordinates":[[[-60.613,-12.992],[-60.59,-12.935],[-60.596,-12.918],[-60.582,-12.865],[-60.586,-12.85],[-60.574,-12.793],[-60.562,-12.771],[-60.517,-12.793],[-60.444,-12.839],[-60.448,-12.539],[-60.635,-12.539],[-60.63,-12.445],[-60.81,-12.448],[-60.809,-12.376],[-60.755,-12.343],[-60.721,-12.334],[-60.685,-12.296],[-60.685,-12.261],[-60.65,-12.261],[-60.673,-12.253],[-60.713,-12.166],[-61.181,-12.167],[-61.198,-12.22],[-61.181,-12.312],[-61.193,-12.344],[-61.215,-12.359],[-61.254,-12.443],[-61.278,-12.477],[-61.342,-12.626],[-61.338,-12.627],[-61.345,-12.692],[-61.298,-12.721],[-61.234,-12.733],[-61.231,-12.746],[-61.168,-12.753],[-61.167,-12.732],[-61.125,-12.728],[-61.079,-12.702],[-61.056,-12.706],[-61.044,-12.748],[-61.018,-12.767],[-60.984,-12.75],[-60.967,-12.784],[-60.967,-12.823],[-60.985,-12.889],[-60.971,-12.938],[-60.937,-12.916],[-60.931,-12.89],[-60.9,-12.846],[-60.828,-12.807],[-60.791,-12.816],[-60.785,-12.847],[-60.73,-12.813],[-60.691,-12.832],[-60.66,-12.857],[-60.645,-12.903],[-60.643,-12.947],[-60.652,-12.981],[-60.629,-12.972],[-60.613,-12.992]]]}},{"type":"Feature","properties":{"code":"1100908"},"geometry":{"type":"Polygon","coordinates":[[[-62.086,-11.501],[-62.0,-11.5],[-62.001,-11.585],[-61.914,-11.585],[-61.614,-11.584],[-61.63,-11.561],[-61.684,-11.546],[-61.717,-11.511],[-61.739,-11.413],[-61.785,-11.409],[-61.796,-11.398],[-61.86,-11.369],[-61.918,-11.293],[-61.953,-11.29],[-61.994,-11.334],[-62.02,-11.374],[-62.041,-11.431],[-62.079,-11.459],[-62.086,-11.501]]]}},{"type":"Feature","properties":{"code":"1100940"},"geometry":{"type":"Polygon","coordinates":[[[-63.077,-9.525],[-62.754,-9.526],[-62.422,-9.525],[-62.427,-9.493],[-62.408,-9.415],[-62.386,-9.393],[-62.388,-9.37],[-62.36,-9.348],[-62.336,-9.351],[-62.315,-9.299],[-62.336,-9.216],[-62.328,-9.113],[-62.338,-9.068],[-62.338,-9.019],[-62.35,-8.992],[-62.33,-8.977],[-62.324,-8.944],[-62.345,-8.933],[-62.323,-8.872],[-62.297,-8.855],[-62.29,-8.828],[-62.343,-8.786],[-62.346,-8.756],[-62.369,-8.744],[-62.421,-8.735],[-62.44,-8.74],[-62.451,-8.769],[-62.472,-8.772],[-62.485,-8.738],[-62.503,-8.732],[-62.536,-8.752],[-62.559,-8.741],[-62.589,-8.755],[-62.626,-8.758],[-62.655,-8.776],[-62.663,-8.796],[-62.704,-8.813],[-62.727,-8.8],[-62.764,-8.798],[-62.73,-8.825],[-62.71,-8.854],[-62.688,-8.856],[-62.667,-8.888],[-62.661,-8.925],[-62.638,-8.934],[-62.642,-8.961],[-62.628,-9.001],[-62.736,-9.001],[-62.733,-9.39],[-63.1,-9.481],[-63.077,-9.525]]]}},{"type":"Feature","properties":{"code":"1101302"},"geometry":{"type":"Polygon","coordinates":[[[-62.691,-11.13],[-62.662,-11.109],[-62.667,-11.086],[-62.644,-11.075],[-62.618,-11.089],[-62.588,-11.063],[-62.573,-11.085],[-62.549,-11.066],[-62.603,-11.001],[-62.717,-10.878],[-62.891,-11.031],[-62.969,-11.031],[-63.043,-11.039],[-63.066,-11.06],[-63.093,-11.054],[-63.143,-11.071],[-63.18,-11.066],[-63.196,-11.083],[-63.155,-11.087],[-63.118,-11.162],[-63.112,-11.195],[-63.051,-11.181],[-63.022,-11.183],[-63.0,-11.201],[-62.888,-11.211],[-62.859,-11.193],[-62.837,-11.201],[-62.814,-11.187],[-62.772,-11.193],[-62.736,-11.165],[-62.722,-11.141],[-62.691,-11.13]]]}},{"type":"Feature","properties":{"code":"1101203"},"geometry":{"type":"Polygon","coordinates":[[[-61.742,-11.334],[-61.501,-11.334],[-61.501,-11.114],[-61.427,-11.114],[-61.429,-10.988],[-61.55,-10.986],[-61.632,-10.986],[-61.632,-11.118],[-61.667,-11.118],[-61.666,-11.24],[-61.704,-11.271],[-61.707,-11.295],[-61.742,-11.334]]]}},{"type":"Feature","properties":{"code":"1100502"},"geometry":{"type":"Polygon","coordinates":[[[-62.05,-11.867],[-62.038,-11.825],[-61.995,-11.77],[-61.973,-11.729],[-61.981,-11.678],[-61.959,-11.659],[-61.962,-11.631],[-61.927,-11.616],[-61.914,-11.585],[-62.001,-11.585],[-62.0,-11.5],[-62.086,-11.501],[-62.12,-11.527],[-62.14,-11.523],[-62.173,-11.547],[-62.172,-11.614],[-62.213,-11.717],[-62.19,-11.776],[-62.188,-11.812],[-62.207,-11.832],[-62.149,-11.86],[-62.092,-11.839],[-62.087,-11.871],[-62.05,-11.867]]]}},{"type":"Feature","properties":{"code":"1100601"},"geometry":{"type":"Polygon","coordinates":[[[-62.788,-10.492],[-62.671,-10.287],[-62.72,-10.251],[-62.742,-10.245],[-62.831,-10.175],[-62.833,-10.167],[-63.209,-10.167],[-63.234,-10.231],[-63.231,-10.284],[-63.261,-10.373],[-63.246,-10.4],[-63.254,-10.422],[-63.233,-10.439],[-63.235,-10.483],[-63.214,-10.492],[-63.0,-10.492],[-62.788,-10.492]]]}},{"type":"Feature","properties":{"code":"1100403"},"geometry":{"type":"Polygon","coordinates":[[[-63.597,-10.0],[-63.615,-9.966],[-63.616,-9.933],[-63.579,-9.877],[-63.581,-9.791],[-63.563,-9.745],[-63.567,-9.716],[-63.499,-9.714],[-63.499,-9.833],[-63.292,-9.833],[-63.288,-9.794],[-63.233,-9.787],[-63.09,-9.782],[-63.102,-9.753],[-63.12,-9.723],[-63.099,-9.668],[-63.075,-9.65],[-63.072,-9.615],[-63.077,-9.525],[-63.1,-9.481],[-63.101,-9.453],[-63.327,-9.433],[-63.326,-9.428],[-63.757,-9.395],[-63.736,-9.414],[-63.737,-9.443],[-63.711,-9.449],[-63.686,-9.419],[-63.66,-9.442],[-63.583,-9.411],[-63.562,-9.457],[-63.548,-9.506],[-63.562,-9.517],[-63.548,-9.551],[-63.614,-9.615],[-63.618,-9.652],[-63.663,-9.719],[-63.687,-9.8],[-63.685,-9.833],[-63.702,-9.86],[-63.738,-9.965],[-63.762,-10.0],[-63.597,-10.0]]]}},{"type":"Feature","properties":{"code":"1100379"},"geometry":{"type":"Polygon","coordinates":[[[-62.418,-13.119],[-62.352,-13.143],[-62.317,-13.134],[-62.299,-13.151],[-62.246,-13.145],[-62.245,-13.121],[-62.215,-13.111],[-62.191,-13.154],[-62.17,-13.134],[-62.143,-13.161],[-62.115,-13.164],[-62.057,-13.149],[-62.02,-13.11],[-62.011,-13.081],[-61.959,-12.996],[-61.916,-12.969],[-61.9,-12.931],[-61.897,-12.883],[-61.881,-12.859],[-61.856,-12.862],[-61.815,-12.827],[-61.763,-12.808],[-61.681,-12.744],[-61.633,-12.729],[-61.562,-12.694],[-61.538,-12.661],[-61.526,-12.617],[-61.534,-12.568],[-61.528,-12.537],[-61.566,-12.467],[-61.588,-12.472],[-61.676,-12.429],[-61.691,-12.399],[-61.717,-12.381],[-61.726,-12.332],[-61.753,-12.275],[-61.74,-12.252],[-61.748,-12.199],[-61.805,-12.098],[-61.836,-12.07],[-61.833,-12.021],[-61.843,-11.991],[-61.888,-11.966],[-61.93,-11.986],[-61.93,-12.088],[-61.968,-12.087],[-61.968,-12.134],[-62.008,-12.134],[-62.008,-12.269],[-62.001,-12.269],[-62.001,-12.792],[-62.019,-12.821],[-62.028,-12.889],[-62.041,-12.908],[-62.092,-12.915],[-62.104,-12.948],[-62.161,-12.98],[-62.166,-13.004],[-62.194,-13.029],[-62.238,-13.046],[-62.252,-13.078],[-62.321,-13.102],[-62.32,-13.08],[-62.357,-13.084],[-62.418,-13.119]]]}},{"type":"Feature","properties":{"code":"1100452"},"geometry":{"type":"Polygon","coordinates":[[[-64.209,-10.196],[-64.137,-10.209],[-64.111,-10.243],[-64.062,-10.251],[-64.038,-10.178],[-64.005,-10.17],[-64.002,-10.194],[-63.93,-10.26],[-63.932,-10.276],[-63.897,-10.295],[-63.901,-10.361],[-63.824,-10.352],[-63.813,-10.33],[-63.761,-10.323],[-63.762,-10.297],[-63.73,-10.278],[-63.729,-10.245],[-63.698,-10.249],[-63.524,-10.25],[-63.565,-10.241],[-63.584,-10.199],[-63.585,-10.16],[-63.577,-10.113],[-63.59,-10.059],[-63.583,-10.03],[-63.597,-10.0],[-63.762,-10.0],[-63.738,-9.965],[-63.702,-9.86],[-63.685,-9.833],[-64.136,-9.834],[-64.159,-9.822],[-64.187,-9.842],[-64.226,-9.848],[-64.26,-9.832],[-64.312,-9.851],[-64.327,-9.884],[-64.323,-9.926],[-64.344,-9.961],[-64.341,-10.0],[-64.265,-10.0],[-64.257,-10.036],[-64.232,-10.081],[-64.242,-10.097],[-64.228,-10.149],[-64.235,-10.168],[-64.209,-10.196]]]}},{"type":"Feature","properties":{"code":"1100809"},"geometry":{"type":"Polygon","coordinates":[[[-63.757,-9.395],[-63.326,-9.428],[-63.307,-9.401],[-63.309,-9.318],[-63.321,-9.29],[-63.355,-9.273],[-63.396,-9.275],[-63.405,-9.254],[-63.395,-9.197],[-63.458,-9.192],[-63.451,-9.156],[-63.514,-9.134],[-63.53,-9.081],[-63.513,-9.069],[-63.48,-9.02],[-63.449,-9.005],[-63.427,-9.058],[-63.446,-9.089],[-63.396,-9.095],[-63.356,-9.064],[-63.361,-9.045],[-63.325,-8.991],[-63.331,-8.936],[-63.303,-8.911],[-63.318,-8.896],[-63.298,-8.871],[-63.269,-8.893],[-63.263,-8.93],[-63.212,-8.967],[-63.21,-9.001],[-62.991,-9.0],[-62.953,-8.97],[-62.926,-8.922],[-62.864,-8.931],[-62.822,-8.892],[-62.811,-8.84],[-62.79,-8.825],[-62.793,-8.794],[-62.764,-8.798],[-62.768,-8.761],[-62.756,-8.684],[-62.733,-8.658],[-62.745,-8.613],[-62.814,-8.562],[-62.844,-8.508],[-62.822,-8.5],[-63.204,-8.501],[-63.45,-8.5],[-63.482,-8.559],[-63.452,-8.57],[-63.459,-8.596],[-63.512,-8.609],[-63.533,-8.646],[-63.592,-8.685],[-63.651,-8.706],[-63.687,-8.732],[-63.721,-8.777],[-63.7,-8.804],[-63.707,-8.821],[-63.744,-8.834],[-63.751,-8.872],[-63.744,-8.895],[-63.756,-8.982],[-63.787,-9.013],[-63.797,-9.047],[-63.777,-9.062],[-63.795,-9.129],[-63.777,-9.139],[-63.786,-9.18],[-63.772,-9.203],[-63.781,-9.248],[-63.767,-9.279],[-63.785,-9.334],[-63.776,-9.377],[-63.757,-9.395]]]}},{"type":"Feature","properties":{"code":"1100700"},"geometry":{"type":"Polygon","coordinates":[[[-63.577,-10.832],[-63.567,-10.802],[-63.583,-10.781],[-63.578,-10.732],[-63.555,-10.731],[-63.55,-10.699],[-63.562,-10.642],[-63.532,-10.596],[-63.557,-10.558],[-63.535,-10.53],[-63.53,-10.493],[-63.533,-10.465],[-63.497,-10.445],[-63.494,-10.415],[-63.459,-10.398],[-63.477,-10.337],[-63.461,-10.308],[-63.486,-10.27],[-63.524,-10.25],[-63.698,-10.249],[-63.729,-10.245],[-63.73,-10.278],[-63.762,-10.297],[-63.761,-10.323],[-63.813,-10.33],[-63.824,-10.352],[-63.901,-10.361],[-63.897,-10.295],[-63.932,-10.276],[-63.93,-10.26],[-64.002,-10.194],[-64.005,-10.17],[-64.038,-10.178],[-64.062,-10.251],[-64.111,-10.243],[-64.137,-10.209],[-64.209,-10.196],[-64.191,-10.271],[-64.225,-10.318],[-64.223,-10.348],[-64.134,-10.441],[-64.101,-10.448],[-64.063,-10.473],[-64.031,-10.465],[-63.978,-10.513],[-63.985,-10.537],[-64.015,-10.565],[-64.016,-10.587],[-63.977,-10.625],[-63.935,-10.632],[-63.933,-10.66],[-63.906,-10.691],[-63.899,-10.751],[-63.812,-10.802],[-63.787,-10.796],[-63.768,-10.817],[-63.707,-10.84],[-63.685,-10.833],[-63.624,-10.842],[-63.609,-10.826],[-63.577,-10.832]]]}},{"type":"Feature","properties":{"code":"1100031"},"geometry":{"type":"Polygon","coordinates":[[[-60.919,-13.548],[-60.909,-13.585],[-60.88,-13.617],[-60.829,-13.63],[-60.81,-13.655],[-60.77,-13.665],[-60.77,-13.684],[-60.709,-13.693],[-60.714,-13.676],[-60.686,-13.625],[-60.624,-13.569],[-60.578,-13.565],[-60.536,-13.537],[-60.511,-13.504],[-60.43,-13.482],[-60.388,-13.455],[-60.373,-13.412],[-60.38,-13.375],[-60.372,-13.319],[-60.705,-13.325],[-60.719,-13.392],[-60.769,-13.393],[-60.802,-13.447],[-60.833,-13.483],[-60.871,-13.547],[-60.893,-13.558],[-60.919,-13.548]]]}},{"type":"Feature","properties":{"code":"1100023"},"geometry":{"type":"Polygon","coordinates":[[[-63.209,-10.167],[-62.833,-10.167],[-62.831,-10.175],[-62.742,-10.245],[-62.72,-10.251],[-62.671,-10.287],[-62.67,-10.288],[-62.617,-10.195],[-62.597,-10.19],[-62.572,-10.067],[-62.534,-10.052],[-62.504,-9.965],[-62.468,-9.938],[-62.453,-9.906],[-62.446,-9.819],[-62.423,-9.806],[-62.423,-9.805],[-62.436,-9.78],[-62.496,-9.772],[-62.536,-9.732],[-62.555,-9.671],[-62.583,-9.723],[-62.61,-9.736],[-62.63,-9.769],[-62.657,-9.784],[-62.677,-9.843],[-62.748,-9.81],[-62.796,-9.8],[-62.837,-9.751],[-63.102,-9.753],[-63.09,-9.782],[-63.233,-9.787],[-63.288,-9.794],[-63.292,-9.833],[-63.499,-9.833],[-63.499,-9.714],[-63.567,-9.716],[-63.563,-9.745],[-63.581,-9.791],[-63.579,-9.877],[-63.616,-9.933],[-63.615,-9.966],[-63.597,-10.0],[-63.113,-10.0],[-63.146,-10.096],[-63.191,-10.134],[-63.209,-10.167]]]}},{"type":"Feature","properties":{"code":"1100015"},"geometry":{"type":"Polygon","coordinates":[[[-62.418,-13.119],[-62.357,-13.084],[-62.32,-13.08],[-62.321,-13.102],[-62.252,-13.078],[-62.238,-13.046],[-62.194,-13.029],[-62.166,-13.004],[-62.161,-12.98],[-62.104,-12.948],[-62.092,-12.915],[-62.041,-12.908],[-62.028,-12.889],[-62.019,-12.821],[-62.001,-12.792],[-62.001,-12.269],[-62.008,-12.269],[-62.008,-12.134],[-61.968,-12.134],[-61.968,-12.087],[-61.93,-12.088],[-61.93,-11.986],[-61.888,-11.966],[-61.891,-11.907],[-61.919,-11.891],[-61.933,-11.863],[-62.05,-11.867],[-62.087,-11.871],[-62.092,-11.839],[-62.149,-11.86],[-62.207,-11.832],[-62.233,-11.909],[-62.292,-11.899],[-62.399,-11.91],[-62.435,-11.941],[-62.453,-11.969],[-62.496,-12.008],[-62.513,-12.008],[-62.545,-12.048],[-62.611,-12.086],[-62.615,-12.12],[-62.603,-12.15],[-62.609,-12.194],[-62.642,-12.237],[-62.621,-12.255],[-62.593,-12.249],[-62.576,-12.268],[-62.468,-12.299],[-62.418,-12.324],[-62.395,-12.344],[-62.291,-12.319],[-62.255,-12.39],[-62.259,-12.451],[-62.275,-12.473],[-62.268,-12.51],[-62.327,-12.574],[-62.36,-12.598],[-62.368,-12.621],[-62.4,-12.66],[-62.427,-12.71],[-62.463,-12.747],[-62.499,-12.755],[-62.518,-12.783],[-62.578,-12.81],[-62.623,-12.872],[-62.665,-12.906],[-62.694,-12.902],[-62.729,-12.926],[-62.734,-12.892],[-62.76,-12.873],[-62.843,-12.864],[-62.866,-12.879],[-62.892,-12.859],[-62.87,-12.911],[-62.803,-12.945],[-62.809,-12.962],[-62.779,-13.01],[-62.734,-13.022],[-62.725,-13.001],[-62.699,-13.003],[-62.661,-12.97],[-62.629,-12.996],[-62.613,-13.041],[-62.547,-13.074],[-62.524,-13.066],[-62.503,-13.083],[-62.443,-13.08],[-62.418,-13.119]]]}},{"type":"Feature","properties":{"code":"1100098"},"geometry":{"type":"Polygon","coordinates":[[[-61.212,-11.529],[-60.925,-11.747],[-60.919,-11.726],[-60.843,-11.722],[-60.822,-11.698],[-60.761,-11.709],[-60.734,-11.695],[-60.672,-11.695],[-60.64,-11.65],[-60.59,-11.621],[-60.593,-11.589],[-60.543,-11.55],[-60.522,-11.495],[-60.463,-11.465],[-60.438,-11.447],[-60.443,-11.407],[-60.462,-11.37],[-60.497,-11.345],[-60.484,-11.293],[-60.528,-11.255],[-60.532,-11.183],[-60.52,-11.169],[-60.528,-11.117],[-60.513,-11.066],[-60.475,-11.046],[-60.46,-10.99],[-61.001,-10.988],[-61.001,-10.992],[-61.001,-11.398],[-61.019,-11.418],[-61.056,-11.425],[-61.11,-11.463],[-61.127,-11.493],[-61.19,-11.51],[-61.212,-11.529]]]}},{"type":"Feature","properties":{"code":"1100080"},"geometry":{"type":"Polygon","coordinates":[[[-64.595,-12.216],[-64.569,-12.22],[-64.552,-12.242],[-64.513,-12.223],[-64.493,-12.291],[-64.499,-12.367],[-64.462,-12.386],[-64.449,-12.407],[-64.406,-12.447],[-64.345,-12.46],[-64.295,-12.458],[-64.299,-12.491],[-64.284,-12.503],[-64.234,-12.456],[-64.171,-12.47],[-64.174,-12.501],[-64.115,-12.504],[-64.057,-12.492],[-64.04,-12.515],[-63.991,-12.505],[-63.963,-12.53],[-63.94,-12.527],[-63.898,-12.5],[-63.901,-12.483],[-63.873,-12.447],[-63.834,-12.463],[-63.786,-12.428],[-63.767,-12.441],[-63.734,-12.439],[-63.685,-12.453],[-63.651,-12.444],[-63.624,-12.404],[-63.651,-12.351],[-63.648,-12.334],[-63.714,-12.334],[-63.743,-12.292],[-63.75,-12.24],[-63.799,-12.199],[-63.851,-12.184],[-63.905,-12.185],[-63.937,-12.218],[-63.969,-12.215],[-64.031,-12.225],[-64.052,-12.219],[-64.086,-12.186],[-64.035,-12.152],[-63.995,-12.088],[-64.0,-12.061],[-63.991,-12.026],[-63.964,-12.011],[-63.947,-11.981],[-63.9,-11.966],[-63.858,-11.921],[-63.863,-11.894],[-63.848,-11.872],[-63.825,-11.871],[-63.819,-11.833],[-63.788,-11.839],[-63.581,-11.839],[-63.607,-11.8],[-63.585,-11.774],[-63.55,-11.758],[-63.547,-11.727],[-63.652,-11.69],[-63.68,-11.644],[-63.723,-11.641],[-63.762,-11.666],[-63.821,-11.674],[-63.881,-11.729],[-63.905,-11.72],[-63.954,-11.731],[-64.019,-11.764],[-64.025,-11.746],[-64.077,-11.77],[-64.11,-11.808],[-64.122,-11.849],[-64.16,-11.912],[-64.204,-11.91],[-64.258,-11.955],[-64.24,-11.974],[-64.259,-11.991],[-64.319,-12.008],[-64.373,-12.057],[-64.383,-12.109],[-64.423,-12.115],[-64.449,-12.15],[-64.447,-12.173],[-64.488,-12.209],[-64.539,-12.215],[-64.553,-12.181],[-64.587,-12.185],[-64.595,-12.216]]]}},{"type":"Feature","properties":{"code":"1100072"},"geometry":{"type":"Polygon","coordinates":[[[-61.501,-13.004],[-61.434,-13.012],[-61.379,-13.044],[-61.36,-13.041],[-61.255,-13.082],[-61.205,-13.088],[-61.181,-13.11],[-61.064,-13.124],[-61.036,-13.122],[-61.002,-13.105],[-60.963,-13.136],[-60.933,-13.122],[-60.875,-13.111],[-60.851,-13.097],[-60.763,-13.131],[-60.743,-13.122],[-60.729,-13.081],[-60.738,-13.043],[-60.71,-13.027],[-60.704,-12.995],[-60.652,-12.981],[-60.643,-12.947],[-60.645,-12.903],[-60.66,-12.857],[-60.691,-12.832],[-60.73,-12.813],[-60.785,-12.847],[-60.791,-12.816],[-60.828,-12.807],[-60.9,-12.846],[-60.931,-12.89],[-60.937,-12.916],[-60.971,-12.938],[-60.985,-12.889],[-60.967,-12.823],[-60.967,-12.784],[-60.984,-12.75],[-61.018,-12.767],[-61.044,-12.748],[-61.056,-12.706],[-61.079,-12.702],[-61.125,-12.728],[-61.167,-12.732],[-61.168,-12.753],[-61.231,-12.746],[-61.234,-12.733],[-61.298,-12.721],[-61.345,-12.692],[-61.338,-12.627],[-61.368,-12.671],[-61.386,-12.677],[-61.372,-12.715],[-61.425,-12.73],[-61.442,-12.767],[-61.442,-12.795],[-61.469,-12.844],[-61.461,-12.862],[-61.47,-12.897],[-61.516,-12.993],[-61.501,-13.004]]]}},{"type":"Feature","properties":{"code":"1100064"},"geometry":{"type":"Polygon","coordinates":[[[-60.372,-13.319],[-60.333,-13.258],[-60.357,-13.198],[-60.346,-13.123],[-60.416,-13.046],[-60.421,-13.015],[-60.473,-12.999],[-60.505,-12.968],[-60.552,-12.959],[-60.571,-12.987],[-60.592,-12.968],[-60.613,-12.992],[-60.629,-12.972],[-60.652,-12.981],[-60.704,-12.995],[-60.71,-13.027],[-60.738,-13.043],[-60.729,-13.081],[-60.743,-13.122],[-60.726,-13.14],[-60.739,-13.214],[-60.726,-13.248],[-60.718,-13.316],[-60.742,-13.325],[-60.705,-13.325],[-60.372,-13.319]]]}},{"type":"Feature","properties":{"code":"1100056"},"geometry":{"type":"Polygon","coordinates":[[[-61.501,-13.004],[-61.524,-13.038],[-61.576,-13.023],[-61.64,-13.058],[-61.624,-13.095],[-61.636,-13.152],[-61.668,-13.182],[-61.72,-13.209],[-61.755,-13.209],[-61.786,-13.197],[-61.831,-13.205],[-61.906,-13.267],[-61.888,-13.293],[-61.854,-13.289],[-61.802,-13.299],[-61.772,-13.288],[-61.756,-13.262],[-61.696,-13.271],[-61.671,-13.293],[-61.592,-13.303],[-61.54,-13.281],[-61.497,-13.285],[-61.473,-13.256],[-61.437,-13.261],[-61.407,-13.232],[-61.361,-13.228],[-61.367,-13.294],[-61.354,-13.364],[-61.039,-13.362],[-61.038,-13.245],[-60.95,-13.248],[-60.951,-13.326],[-60.742,-13.325],[-60.718,-13.316],[-60.726,-13.248],[-60.739,-13.214],[-60.726,-13.14],[-60.743,-13.122],[-60.763,-13.131],[-60.851,-13.097],[-60.875,-13.111],[-60.933,-13.122],[-60.963,-13.136],[-61.002,-13.105],[-61.036,-13.122],[-61.064,-13.124],[-61.181,-13.11],[-61.205,-13.088],[-61.255,-13.082],[-61.36,-13.041],[-61.379,-13.044],[-61.434,-13.012],[-61.501,-13.004]]]}},{"type":"Feature","properties":{"code":"1100049"},"geometry":{"type":"Polygon","coordinates":[[[-61.212,-11.529],[-61.19,-11.51],[-61.127,-11.493],[-61.11,-11.463],[-61.056,-11.425],[-61.019,-11.418],[-61.001,-11.398],[-61.001,-10.992],[-61.429,-10.988],[-61.427,-11.114],[-61.501,-11.114],[-61.501,-11.334],[-61.742,-11.334],[-61.755,-11.378],[-61.796,-11.398],[-61.785,-11.409],[-61.739,-11.413],[-61.717,-11.511],[-61.684,-11.546],[-61.63,-11.561],[-61.614,-11.584],[-61.567,-11.603],[-61.549,-11.619],[-61.353,-11.617],[-61.369,-11.583],[-61.371,-11.51],[-61.315,-11.508],[-61.294,-11.498],[-61.24,-11.528],[-61.212,-11.529]]]}},{"type":"Feature","properties":{"code":"1100288"},"geometry":{"type":"Polygon","coordinates":[[[-61.891,-11.907],[-61.883,-11.885],[-61.832,-11.857],[-61.564,-11.856],[-61.525,-11.787],[-61.535,-11.743],[-61.564,-11.694],[-61.549,-11.619],[-61.567,-11.603],[-61.614,-11.584],[-61.914,-11.585],[-61.927,-11.616],[-61.962,-11.631],[-61.959,-11.659],[-61.981,-11.678],[-61.973,-11.729],[-61.995,-11.77],[-62.038,-11.825],[-62.05,-11.867],[-61.933,-11.863],[-61.919,-11.891],[-61.891,-11.907]]]}},{"type":"Feature","properties":{"code":"1100262"},"geometry":{"type":"Polygon","coordinates":[[[-63.102,-9.753],[-62.837,-9.751],[-62.796,-9.8],[-62.748,-9.81],[-62.677,-9.843],[-62.657,-9.784],[-62.63,-9.769],[-62.61,-9.736],[-62.583,-9.723],[-62.555,-9.671],[-62.52,-9.673],[-62.503,-9.631],[-62.459,-9.598],[-62.455,-9.566],[-62.422,-9.525],[-62.754,-9.526],[-63.077,-9.525],[-63.072,-9.615],[-63.075,-9.65],[-63.099,-9.668],[-63.12,-9.723],[-63.102,-9.753]]]}},{"type":"Feature","properties":{"code":"1100254"},"geometry":{"type":"Polygon","coordinates":[[[-61.796,-11.398],[-61.755,-11.378],[-61.742,-11.334],[-61.707,-11.295],[-61.704,-11.271],[-61.666,-11.24],[-61.667,-11.118],[-61.632,-11.118],[-61.632,-10.986],[-61.942,-10.987],[-61.958,-11.016],[-61.944,-11.058],[-61.951,-11.086],[-62.015,-11.128],[-62.02,-11.174],[-62.051,-11.166],[-62.044,-11.134],[-62.096,-11.045],[-62.093,-11.008],[-62.118,-11.002],[-62.144,-11.03],[-62.159,-11.068],[-62.164,-11.098],[-62.146,-11.115],[-62.15,-11.151],[-62.121,-11.198],[-62.165,-11.239],[-62.183,-11.283],[-62.111,-11.283],[-62.093,-11.296],[-62.054,-11.306],[-62.02,-11.305],[-62.001,-11.289],[-61.968,-11.3],[-61.953,-11.29],[-61.918,-11.293],[-61.86,-11.369],[-61.796,-11.398]]]}},{"type":"Feature","properties":{"code":"1100346"},"geometry":{"type":"Polygon","coordinates":[[[-62.478,-11.575],[-62.465,-11.6],[-62.437,-11.611],[-62.411,-11.566],[-62.381,-11.561],[-62.37,-11.537],[-62.322,-11.497],[-62.291,-11.448],[-62.24,-11.429],[-62.183,-11.433],[-62.12,-11.369],[-62.105,-11.304],[-62.093,-11.296],[-62.111,-11.283],[-62.183,-11.283],[-62.165,-11.239],[-62.121,-11.198],[-62.15,-11.151],[-62.146,-11.115],[-62.164,-11.098],[-62.159,-11.068],[-62.195,-11.058],[-62.214,-11.091],[-62.239,-11.108],[-62.265,-11.172],[-62.445,-11.177],[-62.584,-11.225],[-62.691,-11.13],[-62.722,-11.141],[-62.736,-11.165],[-62.772,-11.193],[-62.814,-11.187],[-62.837,-11.201],[-62.859,-11.193],[-62.888,-11.211],[-63.0,-11.201],[-63.022,-11.183],[-63.051,-11.181],[-63.112,-11.195],[-63.118,-11.162],[-63.155,-11.087],[-63.196,-11.083],[-63.196,-11.103],[-63.139,-11.129],[-63.15,-11.16],[-63.141,-11.197],[-63.114,-11.213],[-63.118,-11.257],[-63.096,-11.312],[-63.102,-11.333],[-63.085,-11.357],[-63.045,-11.338],[-62.972,-11.346],[-62.94,-11.355],[-62.903,-11.32],[-62.838,-11.303],[-62.825,-11.335],[-62.776,-11.386],[-62.733,-11.394],[-62.728,-11.413],[-62.755,-11.44],[-62.713,-11.447],[-62.694,-11.433],[-62.64,-11.444],[-62.6,-11.485],[-62.555,-11.469],[-62.527,-11.477],[-62.49,-11.536],[-62.478,-11.575]]]}},{"type":"Feature","properties":{"code":"1100338"},"geometry":{"type":"Polygon","coordinates":[[[-63.707,-10.84],[-63.768,-10.817],[-63.787,-10.796],[-63.812,-10.802],[-63.899,-10.751],[-63.906,-10.691],[-63.933,-10.66],[-63.935,-10.632],[-63.977,-10.625],[-64.016,-10.587],[-64.015,-10.565],[-63.985,-10.537],[-63.978,-10.513],[-64.031,-10.465],[-64.063,-10.473],[-64.101,-10.448],[-64.134,-10.441],[-64.223,-10.348],[-64.225,-10.318],[-64.191,-10.271],[-64.209,-10.196],[-64.235,-10.168],[-64.228,-10.149],[-64.242,-10.097],[-64.232,-10.081],[-64.257,-10.036],[-64.265,-10.0],[-64.341,-10.0],[-64.705,-10.0],[-65.167,-10.0],[-65.194,-9.962],[-65.23,-9.969],[-65.276,-9.963],[-65.317,-9.937],[-65.333,-9.944],[-65.321,-10.003],[-65.329,-10.043],[-65.32,-10.079],[-65.301,-10.101],[-65.307,-10.165],[-65.289,-10.22],[-65.327,-10.305],[-65.392,-10.374],[-65.382,-10.429],[-65.355,-10.432],[-65.331,-10.478],[-65.315,-10.488],[-65.298,-10.542],[-65.276,-10.551],[-65.22,-10.553],[-65.183,-10.539],[-65.138,-10.54],[-65.089,-10.525],[-65.062,-10.529],[-64.973,-10.513],[-64.935,-10.523],[-64.901,-10.543],[-64.791,-10.478],[-64.743,-10.457],[-64.659,-10.761],[-64.64,-10.788],[-64.593,-10.81],[-64.545,-10.792],[-64.525,-10.817],[-64.494,-10.831],[-64.448,-10.835],[-64.41,-10.823],[-64.409,-10.793],[-64.344,-10.758],[-64.299,-10.76],[-64.253,-10.753],[-64.222,-10.76],[-64.18,-10.816],[-64.137,-10.86],[-64.084,-10.86],[-64.048,-10.872],[-64.014,-10.861],[-63.986,-10.836],[-63.931,-10.873],[-63.707,-10.84]]]}},{"type":"Feature","properties":{"code":"1100320"},"geometry":{"type":"Polygon","coordinates":[[[-63.605,-11.602],[-63.589,-11.609],[-63.54,-11.592],[-63.494,-11.542],[-63.464,-11.556],[-63.423,-11.556],[-63.376,-11.533],[-63.335,-11.533],[-63.285,-11.517],[-63.273,-11.499],[-63.233,-11.486],[-63.186,-11.486],[-63.157,-11.445],[-63.144,-11.483],[-63.088,-11.489],[-63.065,-11.46],[-63.023,-11.45],[-62.995,-11.47],[-62.944,-11.487],[-62.92,-11.506],[-62.923,-11.528],[-62.896,-11.569],[-62.87,-11.589],[-62.825,-11.664],[-62.806,-11.722],[-62.825,-11.766],[-62.807,-11.799],[-62.818,-11.827],[-62.81,-11.857],[-62.843,-11.907],[-62.892,-11.954],[-62.905,-11.942],[-62.952,-11.948],[-63.009,-11.971],[-63.014,-11.989],[-63.059,-12.028],[-63.085,-12.038],[-63.117,-12.079],[-63.127,-12.119],[-63.117,-12.161],[-63.129,-12.202],[-63.106,-12.205],[-63.032,-12.195],[-62.954,-12.206],[-62.915,-12.197],[-62.856,-12.195],[-62.814,-12.202],[-62.766,-12.175],[-62.757,-12.143],[-62.731,-12.11],[-62.642,-12.237],[-62.609,-12.194],[-62.603,-12.15],[-62.615,-12.12],[-62.611,-12.086],[-62.545,-12.048],[-62.513,-12.008],[-62.496,-12.008],[-62.453,-11.969],[-62.465,-11.959],[-62.465,-11.864],[-62.479,-11.86],[-62.48,-11.742],[-62.476,-11.655],[-62.478,-11.575],[-62.49,-11.536],[-62.527,-11.477],[-62.555,-11.469],[-62.6,-11.485],[-62.64,-11.444],[-62.694,-11.433],[-62.713,-11.447],[-62.755,-11.44],[-62.728,-11.413],[-62.733,-11.394],[-62.776,-11.386],[-62.825,-11.335],[-62.838,-11.303],[-62.903,-11.32],[-62.94,-11.355],[-62.972,-11.346],[-63.045,-11.338],[-63.085,-11.357],[-63.102,-11.333],[-63.096,-11.312],[-63.118,-11.257],[-63.114,-11.213],[-63.141,-11.197],[-63.15,-11.16],[-63.139,-11.129],[-63.196,-11.103],[-63.233,-11.127],[-63.255,-11.152],[-63.287,-11.153],[-63.335,-11.089],[-63.433,-11.03],[-63.481,-11.027],[-63.5,-11.043],[-63.555,-11.039],[-63.583,-11.011],[-63.627,-11.005],[-63.581,-11.031],[-63.582,-11.069],[-63.603,-11.143],[-63.588,-11.181],[-63.584,-11.227],[-63.594,-11.259],[-63.529,-11.338],[-63.522,-11.358],[-63.566,-11.412],[-63.594,-11.416],[-63.609,-11.483],[-63.594,-11.505],[-63.616,-11.542],[-63.605,-11.602]]]}},{"type":"Feature","properties":{"code":"1100304"},"geometry":{"type":"Polygon","coordinates":[[[-60.333,-13.258],[-60.304,-13.178],[-60.269,-13.145],[-60.284,-13.085],[-60.214,-13.007],[-60.183,-12.968],[-60.117,-12.96],[-60.102,-12.913],[-60.079,-12.881],[-60.083,-12.853],[-60.066,-12.811],[-60.062,-12.757],[-60.075,-12.735],[-60.056,-12.705],[-60.06,-12.664],[-60.029,-12.619],[-59.982,-12.592],[-59.948,-12.599],[-59.896,-12.536],[-59.898,-12.502],[-59.844,-12.467],[-59.843,-12.425],[-59.819,-12.379],[-59.779,-12.341],[-59.887,-12.245],[-59.911,-12.187],[-59.9,-12.166],[-59.9,-12.117],[-59.929,-12.079],[-59.962,-12.056],[-59.97,-12.033],[-59.971,-11.97],[-59.987,-11.96],[-59.984,-11.915],[-60.007,-11.895],[-60.066,-11.891],[-60.089,-11.863],[-60.103,-11.819],[-60.097,-11.795],[-60.112,-11.759],[-60.122,-11.682],[-60.11,-11.616],[-60.115,-11.591],[-60.094,-11.563],[-60.057,-11.542],[-60.031,-11.497],[-59.985,-11.469],[-59.976,-11.439],[-59.934,-11.424],[-59.921,-11.398],[-59.917,-11.338],[-59.927,-11.311],[-59.959,-11.295],[-59.98,-11.239],[-59.981,-11.204],[-59.995,-11.148],[-59.977,-11.122],[-60.032,-11.128],[-60.066,-11.121],[-60.075,-11.105],[-60.176,-11.099],[-60.191,-11.114],[-60.241,-11.097],[-60.281,-11.091],[-60.301,-11.057],[-60.342,-11.083],[-60.35,-11.108],[-60.392,-11.094],[-60.411,-11.047],[-60.43,-11.037],[-60.46,-10.99],[-60.475,-11.046],[-60.513,-11.066],[-60.528,-11.117],[-60.52,-11.169],[-60.532,-11.183],[-60.528,-11.255],[-60.484,-11.293],[-60.497,-11.345],[-60.462,-11.37],[-60.443,-11.407],[-60.438,-11.447],[-60.463,-11.465],[-60.469,-11.487],[-60.439,-11.496],[-60.449,-11.56],[-60.437,-11.611],[-60.454,-11.627],[-60.45,-11.691],[-60.432,-11.71],[-60.463,-11.782],[-60.426,-11.811],[-60.386,-11.87],[-60.375,-11.933],[-60.353,-11.947],[-60.387,-11.989],[-60.365,-12.071],[-60.334,-12.1],[-60.311,-12.15],[-60.302,-12.258],[-60.65,-12.261],[-60.685,-12.261],[-60.685,-12.296],[-60.721,-12.334],[-60.755,-12.343],[-60.809,-12.376],[-60.81,-12.448],[-60.63,-12.445],[-60.635,-12.539],[-60.448,-12.539],[-60.444,-12.839],[-60.517,-12.793],[-60.562,-12.771],[-60.574,-12.793],[-60.586,-12.85],[-60.582,-12.865],[-60.596,-12.918],[-60.59,-12.935],[-60.613,-12.992],[-60.592,-12.968],[-60.571,-12.987],[-60.552,-12.959],[-60.505,-12.968],[-60.473,-12.999],[-60.421,-13.015],[-60.416,-13.046],[-60.346,-13.123],[-60.357,-13.198],[-60.333,-13.258]]]}},{"type":"Feature","properties":{"code":"1100296"},"geometry":{"type":"Polygon","coordinates":[[[-61.676,-12.429],[-61.679,-12.09],[-61.531,-12.089],[-61.531,-11.856],[-61.564,-11.856],[-61.832,-11.857],[-61.883,-11.885],[-61.891,-11.907],[-61.888,-11.966],[-61.843,-11.991],[-61.833,-12.021],[-61.836,-12.07],[-61.805,-12.098],[-61.748,-12.199],[-61.74,-12.252],[-61.753,-12.275],[-61.726,-12.332],[-61.717,-12.381],[-61.691,-12.399],[-61.676,-12.429]]]}},{"type":"Feature","properties":{"code":"1100155"},"geometry":{"type":"Polygon","coordinates":[[[-62.123,-10.899],[-61.961,-10.498],[-61.926,-10.484],[-61.912,-10.454],[-61.915,-10.425],[-61.899,-10.381],[-61.904,-10.34],[-61.856,-10.305],[-61.828,-10.303],[-61.866,-10.206],[-61.916,-10.166],[-61.911,-10.117],[-61.957,-10.164],[-62.101,-10.659],[-62.24,-10.615],[-62.216,-10.525],[-62.26,-10.477],[-62.525,-10.71],[-62.352,-10.894],[-62.305,-10.835],[-62.123,-10.899]]]}},{"type":"Feature","properties":{"code":"1100148"},"geometry":{"type":"Polygon","coordinates":[[[-62.207,-11.832],[-62.188,-11.812],[-62.19,-11.776],[-62.213,-11.717],[-62.172,-11.614],[-62.173,-11.547],[-62.14,-11.523],[-62.12,-11.527],[-62.086,-11.501],[-62.079,-11.459],[-62.041,-11.431],[-62.02,-11.374],[-61.994,-11.334],[-61.953,-11.29],[-61.968,-11.3],[-62.001,-11.289],[-62.02,-11.305],[-62.054,-11.306],[-62.093,-11.296],[-62.105,-11.304],[-62.12,-11.369],[-62.183,-11.433],[-62.24,-11.429],[-62.291,-11.448],[-62.322,-11.497],[-62.37,-11.537],[-62.381,-11.561],[-62.411,-11.566],[-62.437,-11.611],[-62.465,-11.6],[-62.478,-11.575],[-62.476,-11.655],[-62.48,-11.742],[-62.479,-11.86],[-62.465,-11.864],[-62.465,-11.959],[-62.453,-11.969],[-62.435,-11.941],[-62.399,-11.91],[-62.292,-11.899],[-62.233,-11.909],[-62.207,-11.832]]]}},{"type":"Feature","properties":{"code":"1100130"},"geometry":{"type":"Polygon","coordinates":[[[-62.423,-9.805],[-62.367,-9.76],[-62.317,-9.736],[-62.292,-9.736],[-62.246,-9.758],[-62.203,-9.74],[-62.19,-9.709],[-62.154,-9.705],[-62.125,-9.68],[-62.1,-9.62],[-62.067,-9.604],[-62.042,-9.541],[-62.017,-9.539],[-62.006,-9.602],[-61.983,-9.623],[-61.982,-9.659],[-62.017,-9.672],[-62.019,-9.706],[-61.988,-9.724],[-62.008,-9.745],[-62.015,-9.776],[-61.975,-9.787],[-61.921,-9.69],[-61.946,-9.66],[-61.918,-9.552],[-61.86,-9.568],[-61.83,-9.501],[-61.733,-9.5],[-61.701,-9.476],[-61.683,-9.439],[-61.684,-9.386],[-61.659,-9.39],[-61.633,-9.329],[-61.616,-9.327],[-61.612,-9.281],[-61.6,-9.256],[-61.568,-9.237],[-61.525,-9.243],[-61.524,-9.179],[-61.555,-9.132],[-61.556,-9.092],[-61.506,-8.966],[-61.469,-8.92],[-61.513,-8.861],[-61.514,-8.837],[-61.583,-8.799],[-61.606,-8.795],[-61.63,-8.753],[-61.627,-8.729],[-61.674,-8.705],[-61.705,-8.707],[-61.713,-8.688],[-61.742,-8.695],[-61.749,-8.724],[-61.775,-8.748],[-61.841,-8.739],[-61.843,-8.779],[-61.861,-8.804],[-61.86,-8.853],[-61.902,-8.863],[-61.938,-8.881],[-61.979,-8.873],[-62.004,-8.83],[-62.031,-8.8],[-62.074,-8.799],[-62.098,-8.809],[-62.125,-8.802],[-62.155,-8.74],[-62.149,-8.718],[-62.165,-8.679],[-62.2,-8.644],[-62.175,-8.628],[-62.184,-8.599],[-62.266,-8.577],[-62.239,-8.622],[-62.246,-8.68],[-62.277,-8.703],[-62.331,-8.709],[-62.348,-8.677],[-62.366,-8.672],[-62.369,-8.744],[-62.346,-8.756],[-62.343,-8.786],[-62.29,-8.828],[-62.297,-8.855],[-62.323,-8.872],[-62.345,-8.933],[-62.324,-8.944],[-62.33,-8.977],[-62.35,-8.992],[-62.338,-9.019],[-62.338,-9.068],[-62.328,-9.113],[-62.336,-9.216],[-62.315,-9.299],[-62.336,-9.351],[-62.36,-9.348],[-62.388,-9.37],[-62.386,-9.393],[-62.408,-9.415],[-62.427,-9.493],[-62.422,-9.525],[-62.455,-9.566],[-62.459,-9.598],[-62.503,-9.631],[-62.52,-9.673],[-62.555,-9.671],[-62.536,-9.732],[-62.496,-9.772],[-62.436,-9.78],[-62.423,-9.805]]]}},{"type":"Feature","properties":{"code":"1100122"},"geometry":{"type":"Polygon","coordinates":[[[-62.144,-11.03],[-62.118,-11.002],[-62.093,-11.008],[-62.096,-11.045],[-62.044,-11.134],[-62.051,-11.166],[-62.02,-11.174],[-62.015,-11.128],[-61.951,-11.086],[-61.944,-11.058],[-61.958,-11.016],[-61.942,-10.987],[-61.632,-10.986],[-61.55,-10.986],[-61.53,-10.979],[-61.52,-10.919],[-61.525,-10.856],[-61.509,-10.832],[-61.505,-10.785],[-61.48,-10.788],[-61.476,-10.723],[-61.499,-10.699],[-61.484,-10.674],[-61.476,-10.608],[-61.481,-10.488],[-61.462,-10.42],[-61.503,-10.376],[-61.502,-10.354],[-61.53,-10.333],[-61.577,-10.249],[-61.574,-10.209],[-61.558,-10.182],[-61.601,-10.15],[-61.572,-10.046],[-61.556,-10.039],[-61.54,-10.0],[-61.523,-9.947],[-61.525,-9.907],[-61.508,-9.861],[-61.525,-9.796],[-61.546,-9.785],[-61.532,-9.74],[-61.575,-9.718],[-61.61,-9.684],[-61.645,-9.707],[-61.712,-9.731],[-61.792,-9.72],[-61.794,-9.759],[-61.811,-9.803],[-61.838,-9.81],[-61.837,-9.853],[-61.877,-9.905],[-61.858,-9.972],[-61.873,-9.988],[-61.909,-9.989],[-61.937,-9.948],[-61.954,-9.95],[-61.963,-9.985],[-61.993,-10.022],[-61.973,-10.068],[-61.923,-10.095],[-61.911,-10.117],[-61.916,-10.166],[-61.866,-10.206],[-61.828,-10.303],[-61.856,-10.305],[-61.904,-10.34],[-61.899,-10.381],[-61.915,-10.425],[-61.912,-10.454],[-61.926,-10.484],[-61.961,-10.498],[-62.123,-10.899],[-62.164,-11.001],[-62.156,-11.026],[-62.144,-11.03]]]}},{"type":"Feature","properties":{"code":"1100114"},"geometry":{"type":"Polygon","coordinates":[[[-63.143,-11.071],[-63.093,-11.054],[-63.066,-11.06],[-63.043,-11.039],[-62.969,-11.031],[-62.891,-11.031],[-62.717,-10.878],[-62.525,-10.71],[-62.26,-10.477],[-62.122,-10.355],[-62.14,-10.327],[-62.146,-10.265],[-62.135,-10.225],[-62.171,-10.224],[-62.202,-10.242],[-62.247,-10.248],[-62.27,-10.266],[-62.311,-10.282],[-62.363,-10.325],[-62.418,-10.301],[-62.456,-10.299],[-62.468,-10.282],[-62.558,-10.373],[-62.67,-10.288],[-62.671,-10.287],[-62.788,-10.492],[-62.735,-10.529],[-62.7,-10.523],[-62.664,-10.534],[-62.614,-10.519],[-62.588,-10.499],[-62.572,-10.517],[-62.581,-10.546],[-62.62,-10.556],[-62.625,-10.594],[-62.672,-10.671],[-62.711,-10.671],[-62.736,-10.7],[-62.79,-10.724],[-62.791,-10.778],[-62.865,-10.838],[-62.912,-10.827],[-62.932,-10.871],[-62.978,-10.892],[-63.0,-10.913],[-63.001,-10.941],[-63.083,-10.976],[-63.116,-10.998],[-63.143,-11.03],[-63.143,-11.071]]]}},{"type":"Feature","properties":{"code":"1100106"},"geometry":{"type":"Polygon","coordinates":[[[-64.595,-12.216],[-64.587,-12.185],[-64.553,-12.181],[-64.539,-12.215],[-64.488,-12.209],[-64.447,-12.173],[-64.449,-12.15],[-64.423,-12.115],[-64.383,-12.109],[-64.373,-12.057],[-64.319,-12.008],[-64.259,-11.991],[-64.24,-11.974],[-64.258,-11.955],[-64.204,-11.91],[-64.16,-11.912],[-64.122,-11.849],[-64.11,-11.808],[-64.077,-11.77],[-64.025,-11.746],[-64.019,-11.764],[-63.954,-11.731],[-63.905,-11.72],[-63.881,-11.729],[-63.821,-11.674],[-63.762,-11.666],[-63.723,-11.641],[-63.68,-11.644],[-63.658,-11.609],[-63.605,-11.602],[-63.616,-11.542],[-63.594,-11.505],[-63.609,-11.483],[-63.594,-11.416],[-63.566,-11.412],[-63.522,-11.358],[-63.529,-11.338],[-63.594,-11.259],[-63.584,-11.227],[-63.588,-11.181],[-63.603,-11.143],[-63.582,-11.069],[-63.581,-11.031],[-63.627,-11.005],[-63.587,-11.004],[-63.583,-10.973],[-63.609,-10.913],[-63.604,-10.886],[-63.571,-10.876],[-63.577,-10.832],[-63.609,-10.826],[-63.624,-10.842],[-63.685,-10.833],[-63.707,-10.84],[-63.931,-10.873],[-63.986,-10.836],[-64.014,-10.861],[-64.048,-10.872],[-64.084,-10.86],[-64.137,-10.86],[-64.18,-10.816],[-64.222,-10.76],[-64.253,-10.753],[-64.299,-10.76],[-64.344,-10.758],[-64.409,-10.793],[-64.41,-10.823],[-64.448,-10.835],[-64.494,-10.831],[-64.525,-10.817],[-64.545,-10.792],[-64.593,-10.81],[-64.64,-10.788],[-64.659,-10.761],[-64.743,-10.457],[-64.791,-10.478],[-64.901,-10.543],[-64.935,-10.523],[-64.973,-10.513],[-65.062,-10.529],[-65.089,-10.525],[-65.138,-10.54],[-65.183,-10.539],[-65.22,-10.553],[-65.276,-10.551],[-65.298,-10.542],[-65.315,-10.488],[-65.331,-10.478],[-65.355,-10.432],[-65.382,-10.429],[-65.405,-10.464],[-65.43,-10.481],[-65.411,-10.513],[-65.418,-10.54],[-65.398,-10.581],[-65.416,-10.617],[-65.405,-10.641],[-65.358,-10.657],[-65.344,-10.7],[-65.348,-10.778],[-65.362,-10.802],[-65.317,-10.825],[-65.276,-10.871],[-65.267,-10.922],[-65.286,-10.923],[-65.251,-10.985],[-65.297,-11.026],[-65.283,-11.059],[-65.289,-11.094],[-65.352,-11.122],[-65.364,-11.147],[-65.351,-11.186],[-65.326,-11.212],[-65.361,-11.223],[-65.36,-11.258],[-65.34,-11.312],[-65.301,-11.316],[-65.335,-11.357],[-65.305,-11.502],[-65.229,-11.516],[-65.212,-11.53],[-65.235,-11.577],[-65.23,-11.623],[-65.218,-11.652],[-65.257,-11.696],[-65.251,-11.721],[-65.205,-11.749],[-65.174,-11.753],[-65.183,-11.722],[-65.128,-11.72],[-65.091,-11.708],[-65.06,-11.791],[-65.071,-11.856],[-65.06,-11.883],[-65.019,-11.892],[-65.029,-11.998],[-65.001,-11.993],[-64.981,-12.017],[-64.948,-11.993],[-64.917,-12.028],[-64.884,-12.014],[-64.84,-12.011],[-64.813,-12.045],[-64.81,-12.065],[-64.76,-12.102],[-64.769,-12.146],[-64.742,-12.151],[-64.739,-12.1],[-64.698,-12.104],[-64.718,-12.143],[-64.713,-12.174],[-64.616,-12.215],[-64.595,-12.216]]]}},{"type":"Feature","properties":{"code":"1100205"},"geometry":{"type":"Polygon","coordinates":[[[-65.333,-9.944],[-65.317,-9.937],[-65.276,-9.963],[-65.23,-9.969],[-65.194,-9.962],[-65.167,-10.0],[-64.705,-10.0],[-64.341,-10.0],[-64.344,-9.961],[-64.323,-9.926],[-64.327,-9.884],[-64.312,-9.851],[-64.26,-9.832],[-64.226,-9.848],[-64.187,-9.842],[-64.159,-9.822],[-64.136,-9.834],[-63.685,-9.833],[-63.687,-9.8],[-63.663,-9.719],[-63.618,-9.652],[-63.614,-9.615],[-63.548,-9.551],[-63.562,-9.517],[-63.548,-9.506],[-63.562,-9.457],[-63.583,-9.411],[-63.66,-9.442],[-63.686,-9.419],[-63.711,-9.449],[-63.737,-9.443],[-63.736,-9.414],[-63.757,-9.395],[-63.776,-9.377],[-63.785,-9.334],[-63.767,-9.279],[-63.781,-9.248],[-63.772,-9.203],[-63.786,-9.18],[-63.777,-9.139],[-63.795,-9.129],[-63.777,-9.062],[-63.797,-9.047],[-63.787,-9.013],[-63.756,-8.982],[-63.744,-8.895],[-63.751,-8.872],[-63.744,-8.834],[-63.707,-8.821],[-63.7,-8.804],[-63.721,-8.777],[-63.687,-8.732],[-63.651,-8.706],[-63.592,-8.685],[-63.533,-8.646],[-63.512,-8.609],[-63.459,-8.596],[-63.452,-8.57],[-63.482,-8.559],[-63.45,-8.5],[-63.204,-8.501],[-62.822,-8.5],[-62.844,-8.508],[-62.814,-8.562],[-62.745,-8.613],[-62.733,-8.658],[-62.756,-8.684],[-62.768,-8.761],[-62.764,-8.798],[-62.727,-8.8],[-62.704,-8.813],[-62.663,-8.796],[-62.655,-8.776],[-62.626,-8.758],[-62.589,-8.755],[-62.559,-8.741],[-62.536,-8.752],[-62.503,-8.732],[-62.485,-8.738],[-62.472,-8.772],[-62.451,-8.769],[-62.44,-8.74],[-62.421,-8.735],[-62.369,-8.744],[-62.366,-8.672],[-62.348,-8.677],[-62.331,-8.709],[-62.277,-8.703],[-62.246,-8.68],[-62.239,-8.622],[-62.266,-8.577],[-62.289,-8.589],[-62.289,-8.639],[-62.336,-8.61],[-62.326,-8.564],[-62.337,-8.517],[-62.366,-8.494],[-62.369,-8.446],[-62.361,-8.399],[-62.384,-8.378],[-62.425,-8.375],[-62.465,-8.34],[-62.519,-8.385],[-62.548,-8.348],[-62.557,-8.286],[-62.6,-8.271],[-62.655,-8.23],[-62.661,-8.197],[-62.688,-8.173],[-62.671,-8.142],[-62.707,-8.086],[-62.752,-8.04],[-62.812,-8.024],[-62.841,-7.988],[-62.877,-7.976],[-63.118,-7.977],[-63.62,-7.976],[-63.622,-8.03],[-63.667,-8.082],[-63.662,-8.101],[-63.693,-8.158],[-63.742,-8.19],[-63.749,-8.208],[-63.723,-8.249],[-63.747,-8.27],[-63.773,-8.321],[-63.791,-8.333],[-63.825,-8.306],[-63.871,-8.289],[-63.895,-8.302],[-63.911,-8.329],[-63.944,-8.331],[-63.945,-8.388],[-63.977,-8.41],[-63.941,-8.452],[-63.973,-8.478],[-63.971,-8.499],[-63.944,-8.527],[-63.946,-8.55],[-63.925,-8.575],[-63.946,-8.61],[-63.986,-8.586],[-64.016,-8.668],[-64.035,-8.694],[-64.095,-8.728],[-64.125,-8.717],[-64.143,-8.743],[-64.145,-8.776],[-64.129,-8.805],[-64.158,-8.843],[-64.142,-8.945],[-64.233,-8.992],[-64.257,-8.988],[-64.311,-8.996],[-64.326,-8.98],[-64.31,-8.934],[-64.323,-8.929],[-64.38,-8.947],[-64.447,-8.977],[-64.541,-8.977],[-64.588,-9.009],[-64.611,-9.017],[-64.641,-9.007],[-64.671,-9.015],[-64.683,-8.994],[-64.714,-8.994],[-64.731,-9.012],[-64.761,-9.021],[-64.778,-8.995],[-64.808,-8.986],[-64.871,-9.012],[-64.894,-9.044],[-64.917,-9.043],[-64.916,-9.075],[-64.94,-9.125],[-64.92,-9.22],[-64.963,-9.293],[-65.001,-9.305],[-65.053,-9.402],[-65.078,-9.401],[-65.089,-9.425],[-65.143,-9.447],[-65.186,-9.427],[-65.174,-9.385],[-65.196,-9.375],[-65.188,-9.345],[-65.209,-9.31],[-65.212,-9.279],[-65.247,-9.258],[-65.27,-9.264],[-65.307,-9.291],[-65.377,-9.324],[-65.44,-9.312],[-65.447,-9.379],[-65.457,-9.401],[-65.432,-9.459],[-65.457,-9.47],[-65.503,-9.47],[-65.548,-9.426],[-65.588,-9.414],[-65.679,-9.451],[-65.681,-9.5],[-65.696,-9.508],[-65.73,-9.563],[-65.8,-9.585],[-65.818,-9.562],[-65.825,-9.53],[-65.848,-9.532],[-65.881,-9.488],[-65.918,-9.478],[-65.932,-9.448],[-65.97,-9.413],[-66.042,-9.402],[-66.06,-9.418],[-66.124,-9.409],[-66.174,-9.434],[-66.205,-9.426],[-66.243,-9.429],[-66.26,-9.411],[-66.375,-9.426],[-66.409,-9.407],[-66.389,-9.464],[-66.392,-9.501],[-66.429,-9.533],[-66.439,-9.554],[-66.495,-9.602],[-66.501,-9.634],[-66.537,-9.643],[-66.586,-9.674],[-66.624,-9.681],[-66.685,-9.715],[-66.692,-9.734],[-66.725,-9.756],[-66.775,-9.753],[-66.781,-9.791],[-66.81,-9.818],[-66.627,-9.898],[-66.588,-9.9],[-66.559,-9.881],[-66.534,-9.885],[-66.473,-9.868],[-66.465,-9.876],[-66.403,-9.864],[-66.358,-9.864],[-66.355,-9.848],[-66.313,-9.833],[-66.286,-9.845],[-66.238,-9.815],[-66.215,-9.833],[-66.195,-9.806],[-66.152,-9.786],[-66.033,-9.789],[-65.985,-9.806],[-65.974,-9.777],[-65.919,-9.753],[-65.904,-9.767],[-65.871,-9.753],[-65.871,-9.791],[-65.854,-9.794],[-65.822,-9.767],[-65.806,-9.788],[-65.784,-9.786],[-65.773,-9.758],[-65.746,-9.781],[-65.734,-9.763],[-65.685,-9.749],[-65.71,-9.807],[-65.695,-9.812],[-65.671,-9.781],[-65.624,-9.836],[-65.568,-9.839],[-65.553,-9.804],[-65.513,-9.793],[-65.501,-9.73],[-65.444,-9.693],[-65.443,-9.669],[-65.392,-9.688],[-65.357,-9.72],[-65.327,-9.784],[-65.322,-9.811],[-65.287,-9.84],[-65.289,-9.866],[-65.329,-9.921],[-65.333,-9.944]]]}},{"type":"Feature","properties":{"code":"1100189"},"geometry":{"type":"Polygon","coordinates":[[[-61.181,-12.167],[-60.713,-12.166],[-60.673,-12.253],[-60.65,-12.261],[-60.302,-12.258],[-60.311,-12.15],[-60.334,-12.1],[-60.365,-12.071],[-60.387,-11.989],[-60.353,-11.947],[-60.375,-11.933],[-60.386,-11.87],[-60.426,-11.811],[-60.463,-11.782],[-60.432,-11.71],[-60.45,-11.691],[-60.454,-11.627],[-60.437,-11.611],[-60.449,-11.56],[-60.439,-11.496],[-60.469,-11.487],[-60.463,-11.465],[-60.522,-11.495],[-60.543,-11.55],[-60.593,-11.589],[-60.59,-11.621],[-60.64,-11.65],[-60.672,-11.695],[-60.734,-11.695],[-60.761,-11.709],[-60.822,-11.698],[-60.843,-11.722],[-60.919,-11.726],[-60.925,-11.747],[-61.212,-11.529],[-61.24,-11.528],[-61.294,-11.498],[-61.315,-11.508],[-61.371,-11.51],[-61.369,-11.583],[-61.353,-11.617],[-61.549,-11.619],[-61.564,-11.694],[-61.535,-11.743],[-61.415,-11.744],[-61.425,-11.73],[-61.264,-11.73],[-61.27,-11.747],[-61.193,-11.747],[-61.238,-11.841],[-61.244,-11.886],[-61.226,-11.908],[-61.208,-11.989],[-61.19,-12.001],[-61.151,-12.033],[-61.143,-12.1],[-61.181,-12.167]]]}}]}