{"type":"FeatureCollection","features":[{"type":"Feature","properties":{"code":"1200807"},"geometry":{"type":"Polygon","coordinates":[[[-67.482,-9.927],[-67.451,-9.918],[-67.438,-9.881],[-67.438,-9.836],[-67.408,-9.805],[-67.369,-9.783],[-67.333,-9.722],[-67.337,-9.684],[-67.326,-9.662],[-67.339,-9.625],[-67.326,-9.592],[-67.517,-9.561],[-67.977,-9.353],[-68.043,-9.352],[-68.059,-9.392],[-68.056,-9.412],[-68.018,-9.459],[-68.028,-9.492],[-68.073,-9.523],[-68.09,-9.558],[-67.91,-9.669],[-67.922,-9.694],[-67.906,-9.712],[-67.876,-9.72],[-67.865,-9.741],[-67.796,-9.762],[-67.743,-9.74],[-67.703,-9.787],[-67.718,-9.806],[-67.71,-9.836],[-67.685,-9.834],[-67.653,-9.863],[-67.612,-9.859],[-67.582,-9.837],[-67.568,-9.85],[-67.527,-9.859],[-67.517,-9.906],[-67.482,-9.927]]]}},{"type":"Feature","properties":{"code":"1200385"},"geometry":{"type":"Polygon","coordinates":[[[-67.567,-10.509],[-67.546,-10.495],[-67.436,-10.448],[-67.411,-10.419],[-67.424,-10.391],[-67.401,-10.372],[-67.381,-10.381],[-67.32,-10.382],[-67.316,-10.319],[-67.268,-10.33],[-67.226,-10.317],[-67.178,-10.339],[-67.134,-10.316],[-67.126,-10.29],[-67.085,-10.29],[-67.051,-10.267],[-67.01,-10.252],[-67.002,-10.23],[-67.002,-10.202],[-67.076,-10.202],[-67.076,-10.088],[-67.1,-10.104],[-67.125,-9.97],[-67.165,-9.985],[-67.252,-10.028],[-67.3,-10.062],[-67.347,-10.062],[-67.428,-10.096],[-67.441,-10.16],[-67.46,-10.178],[-67.505,-10.264],[-67.623,-10.319],[-67.638,-10.369],[-67.659,-10.399],[-67.687,-10.411],[-67.712,-10.442],[-67.681,-10.476],[-67.62,-10.481],[-67.61,-10.504],[-67.567,-10.509]]]}},{"type":"Feature","properties":{"code":"1200351"},"geometry":{"type":"Polygon","coordinates":[[[-73.13,-8.773],[-73.117,-8.781],[-73.11,-8.822],[-73.08,-8.855],[-73.058,-8.907],[-72.999,-8.915],[-72.945,-9.029],[-72.939,-9.072],[-72.952,-9.138],[-73.014,-9.175],[-73.0,-9.195],[-73.011,-9.223],[-73.036,-9.236],[-73.065,-9.231],[-73.111,-9.286],[-73.103,-9.309],[-73.133,-9.32],[-73.151,-9.354],[-73.189,-9.363],[-73.191,-9.398],[-73.213,-9.412],[-72.716,-9.412],[-72.71,-9.43],[-72.662,-9.448],[-72.622,-9.445],[-72.529,-9.484],[-72.48,-9.487],[-72.406,-9.481],[-72.367,-9.49],[-72.34,-9.509],[-72.304,-9.508],[-72.273,-9.487],[-72.249,-9.444],[-72.223,-9.415],[-72.183,-9.389],[-72.161,-9.394],[-72.12,-9.319],[-72.098,-9.293],[-72.044,-9.198],[-72.068,-9.175],[-72.052,-9.143],[-72.032,-9.069],[-72.043,-9.029],[-72.029,-9.002],[-72.036,-8.945],[-72.054,-8.934],[-72.044,-8.9],[-72.078,-8.868],[-72.125,-8.829],[-72.144,-8.712],[-72.214,-8.701],[-72.257,-8.724],[-72.303,-8.761],[-72.358,-8.781],[-72.418,-8.75],[-72.496,-8.777],[-72.576,-8.766],[-72.631,-8.775],[-72.663,-8.751],[-72.667,-8.722],[-72.705,-8.688],[-72.72,-8.689],[-72.774,-8.727],[-72.847,-8.73],[-72.866,-8.751],[-72.891,-8.747],[-72.922,-8.761],[-72.955,-8.745],[-73.062,-8.764],[-73.091,-8.752],[-73.13,-8.773]]]}},{"type":"Feature","properties":{"code":"1200336"},"geometry":{"type":"Polygon","coordinates":[[[-72.86,-7.674],[-72.855,-7.658],[-72.783,-7.66],[-72.843,-7.607],[-72.889,-7.544],[-72.9,-7.438],[-73.293,-7.296],[-73.748,-7.131],[-73.798,-7.113],[-73.787,-7.148],[-73.767,-7.155],[-73.756,-7.196],[-73.71,-7.248],[-73.718,-7.272],[-73.696,-7.309],[-73.723,-7.336],[-73.822,-7.338],[-73.848,-7.354],[-73.863,-7.385],[-73.891,-7.386],[-73.927,-7.361],[-73.954,-7.375],[-73.922,-7.419],[-73.919,-7.458],[-73.935,-7.526],[-73.983,-7.533],[-73.976,-7.571],[-73.957,-7.567],[-73.931,-7.604],[-73.877,-7.632],[-73.883,-7.652],[-73.834,-7.682],[-73.826,-7.713],[-73.749,-7.731],[-73.714,-7.76],[-73.691,-7.766],[-73.675,-7.74],[-73.531,-7.717],[-73.455,-7.77],[-73.391,-7.746],[-73.362,-7.729],[-73.304,-7.76],[-73.308,-7.778],[-73.251,-7.793],[-73.175,-7.726],[-73.041,-7.669],[-72.978,-7.679],[-72.948,-7.692],[-72.914,-7.664],[-72.86,-7.674]]]}},{"type":"Feature","properties":{"code":"1200328"},"geometry":{"type":"Polygon","coordinates":[[[-72.153,-9.797],[-72.111,-9.763],[-72.035,-9.743],[-72.008,-9.754],[-71.992,-9.717],[-71.929,-9.722],[-71.92,-9.686],[-71.884,-9.667],[-71.87,-9.637],[-71.836,-9.622],[-71.84,-9.603],[-71.806,-9.563],[-71.808,-9.53],[-71.792,-9.483],[-71.779,-9.482],[-71.731,-9.442],[-71.723,-9.411],[-71.725,-9.347],[-71.701,-9.269],[-71.651,-9.236],[-71.624,-9.184],[-71.626,-9.141],[-71.607,-9.115],[-71.594,-9.063],[-71.596,-9.013],[-71.57,-8.975],[-71.563,-8.947],[-71.536,-8.936],[-71.528,-8.909],[-71.482,-8.884],[-71.522,-8.874],[-71.553,-8.851],[-71.617,-8.858],[-71.618,-8.821],[-71.598,-8.805],[-71.573,-8.755],[-71.542,-8.736],[-71.559,-8.686],[-71.56,-8.654],[-71.612,-8.665],[-71.658,-8.706],[-71.683,-8.707],[-71.716,-8.743],[-71.756,-8.765],[-71.764,-8.798],[-71.795,-8.818],[-71.828,-8.823],[-71.871,-8.817],[-71.936,-8.786],[-71.985,-8.786],[-72.027,-8.812],[-72.05,-8.837],[-72.078,-8.848],[-72.078,-8.868],[-72.044,-8.9],[-72.054,-8.934],[-72.036,-8.945],[-72.029,-9.002],[-72.043,-9.029],[-72.032,-9.069],[-72.052,-9.143],[-72.068,-9.175],[-72.044,-9.198],[-72.098,-9.293],[-72.12,-9.319],[-72.161,-9.394],[-72.183,-9.389],[-72.223,-9.415],[-72.249,-9.444],[-72.273,-9.487],[-72.304,-9.508],[-72.34,-9.509],[-72.323,-9.541],[-72.281,-9.547],[-72.289,-9.602],[-72.269,-9.62],[-72.252,-9.683],[-72.257,-9.752],[-72.201,-9.78],[-72.17,-9.777],[-72.153,-9.797]]]}},{"type":"Feature","properties":{"code":"1200450"},"geometry":{"type":"Polygon","coordinates":[[[-67.805,-10.198],[-67.785,-10.213],[-67.78,-10.241],[-67.756,-10.271],[-67.717,-10.291],[-67.685,-10.357],[-67.638,-10.369],[-67.623,-10.319],[-67.505,-10.264],[-67.46,-10.178],[-67.441,-10.16],[-67.428,-10.096],[-67.347,-10.062],[-67.3,-10.062],[-67.252,-10.028],[-67.165,-9.985],[-67.125,-9.97],[-67.09,-9.957],[-67.185,-9.71],[-67.188,-9.692],[-67.135,-9.676],[-67.326,-9.592],[-67.339,-9.625],[-67.326,-9.662],[-67.337,-9.684],[-67.333,-9.722],[-67.369,-9.783],[-67.408,-9.805],[-67.438,-9.836],[-67.438,-9.881],[-67.451,-9.918],[-67.482,-9.927],[-67.496,-9.976],[-67.492,-10.001],[-67.527,-10.021],[-67.581,-10.069],[-67.61,-10.048],[-67.638,-10.06],[-67.671,-10.102],[-67.774,-10.108],[-67.815,-10.088],[-67.829,-10.12],[-67.805,-10.198]]]}},{"type":"Feature","properties":{"code":"1200427"},"geometry":{"type":"Polygon","coordinates":[[[-73.63,-8.059],[-73.4,-8.03],[-73.38,-7.992],[-73.342,-7.986],[-73.297,-7.989],[-73.267,-7.954],[-73.237,-7.942],[-73.2,-7.906],[-73.093,-7.887],[-73.115,-7.934],[-73.077,-7.946],[-73.009,-7.934],[-72.953,-7.948],[-72.91,-7.927],[-72.891,-7.929],[-72.853,-7.91],[-72.785,-7.897],[-72.769,-7.878],[-72.682,-7.826],[-72.642,-7.823],[-72.638,-7.767],[-72.655,-7.695],[-72.741,-7.725],[-72.794,-7.689],[-72.86,-7.674],[-72.914,-7.664],[-72.948,-7.692],[-72.978,-7.679],[-73.041,-7.669],[-73.175,-7.726],[-73.251,-7.793],[-73.308,-7.778],[-73.304,-7.76],[-73.362,-7.729],[-73.391,-7.746],[-73.455,-7.77],[-73.531,-7.717],[-73.675,-7.74],[-73.691,-7.766],[-73.677,-7.8],[-73.686,-7.843],[-73.709,-7.875],[-73.734,-7.875],[-73.756,-7.857],[-73.778,-7.889],[-73.746,-7.949],[-73.681,-7.985],[-73.669,-8.012],[-73.635,-8.01],[-73.616,-8.039],[-73.63,-8.059]]]}},{"type":"Feature","properties":{"code":"1200401"},"geometry":{"type":"Polygon","coordinates":[[[-69.132,-10.385],[-68.717,-10.385],[-68.682,-10.351],[-68.675,-10.329],[-68.637,-10.304],[-68.617,-10.306],[-68.564,-10.273],[-68.554,-10.28],[-68.493,-10.25],[-68.49,-10.229],[-68.454,-10.215],[-68.45,-10.253],[-68.417,-10.266],[-68.416,-10.307],[-68.376,-10.312],[-68.351,-10.332],[-68.355,-10.358],[-68.388,-10.38],[-68.325,-10.394],[-68.314,-10.418],[-68.272,-10.389],[-68.235,-10.387],[-68.201,-10.374],[-68.123,-10.375],[-68.092,-10.364],[-68.069,-10.384],[-68.041,-10.389],[-68.038,-10.352],[-67.997,-10.316],[-67.96,-10.314],[-67.946,-10.287],[-67.846,-10.288],[-67.816,-10.234],[-67.805,-10.198],[-67.829,-10.12],[-67.815,-10.088],[-67.774,-10.108],[-67.671,-10.102],[-67.638,-10.06],[-67.61,-10.048],[-67.581,-10.069],[-67.527,-10.021],[-67.492,-10.001],[-67.496,-9.976],[-67.482,-9.927],[-67.517,-9.906],[-67.527,-9.859],[-67.568,-9.85],[-67.582,-9.837],[-67.612,-9.859],[-67.653,-9.863],[-67.685,-9.834],[-67.71,-9.836],[-67.718,-9.806],[-67.703,-9.787],[-67.743,-9.74],[-67.796,-9.762],[-67.823,-9.775],[-67.834,-9.833],[-67.95,-9.854],[-67.991,-9.854],[-68.045,-9.892],[-68.068,-9.895],[-68.099,-9.93],[-68.135,-9.934],[-68.153,-9.961],[-68.268,-9.823],[-68.3,-9.795],[-68.367,-9.78],[-68.39,-9.789],[-68.454,-9.844],[-68.422,-9.692],[-68.44,-9.642],[-68.456,-9.625],[-68.427,-9.599],[-68.418,-9.546],[-68.467,-9.546],[-68.514,-9.589],[-68.584,-9.539],[-68.608,-9.505],[-68.633,-9.516],[-68.673,-9.56],[-68.7,-9.679],[-68.693,-9.75],[-68.666,-9.841],[-68.694,-9.887],[-68.801,-9.962],[-68.885,-10.063],[-69.037,-10.164],[-69.121,-10.269],[-69.172,-10.287],[-69.311,-10.364],[-69.342,-10.403],[-69.364,-10.463],[-69.342,-10.485],[-69.322,-10.472],[-69.288,-10.47],[-69.249,-10.455],[-69.219,-10.415],[-69.132,-10.385]]]}},{"type":"Feature","properties":{"code":"1200393"},"geometry":{"type":"Polygon","coordinates":[[[-72.214,-8.701],[-72.23,-8.597],[-72.201,-8.552],[-72.228,-8.517],[-72.232,-8.41],[-72.266,-8.391],[-72.226,-8.281],[-72.266,-8.261],[-72.283,-8.21],[-72.319,-8.229],[-72.396,-8.254],[-72.417,-8.254],[-72.461,-8.232],[-72.507,-8.233],[-72.565,-8.188],[-72.634,-8.185],[-72.674,-8.223],[-72.703,-8.213],[-72.732,-8.218],[-72.793,-8.185],[-72.812,-8.124],[-72.894,-8.185],[-72.942,-8.211],[-73.004,-8.225],[-73.038,-8.282],[-73.08,-8.295],[-73.101,-8.338],[-73.177,-8.374],[-73.203,-8.379],[-73.332,-8.476],[-73.328,-8.522],[-73.344,-8.602],[-73.316,-8.624],[-73.284,-8.669],[-73.247,-8.689],[-73.224,-8.679],[-73.166,-8.699],[-73.14,-8.732],[-73.13,-8.773],[-73.091,-8.752],[-73.062,-8.764],[-72.955,-8.745],[-72.922,-8.761],[-72.891,-8.747],[-72.866,-8.751],[-72.847,-8.73],[-72.774,-8.727],[-72.72,-8.689],[-72.705,-8.688],[-72.667,-8.722],[-72.663,-8.751],[-72.631,-8.775],[-72.576,-8.766],[-72.496,-8.777],[-72.418,-8.75],[-72.358,-8.781],[-72.303,-8.761],[-72.257,-8.724],[-72.214,-8.701]]]}},{"type":"Feature","properties":{"code":"1200252"},"geometry":{"type":"Polygon","coordinates":[[[-68.749,-11.019],[-68.766,-11.064],[-68.742,-11.097],[-68.721,-11.103],[-68.716,-11.146],[-68.543,-11.111],[-68.487,-11.051],[-68.445,-11.046],[-68.406,-11.054],[-68.388,-11.041],[-68.409,-10.994],[-68.405,-10.957],[-68.423,-10.932],[-68.402,-10.894],[-68.408,-10.856],[-68.434,-10.827],[-68.459,-10.816],[-68.479,-10.836],[-68.507,-10.809],[-68.543,-10.794],[-68.562,-10.77],[-68.537,-10.741],[-68.552,-10.717],[-68.606,-10.658],[-68.644,-10.655],[-68.65,-10.619],[-68.7,-10.632],[-68.754,-10.671],[-68.806,-10.671],[-68.805,-10.716],[-68.835,-10.739],[-68.786,-10.833],[-68.784,-10.869],[-68.733,-10.899],[-68.687,-10.937],[-68.688,-10.968],[-68.749,-11.019]]]}},{"type":"Feature","properties":{"code":"1200203"},"geometry":{"type":"Polygon","coordinates":[[[-72.86,-7.674],[-72.794,-7.689],[-72.741,-7.725],[-72.655,-7.695],[-72.638,-7.767],[-72.642,-7.823],[-72.682,-7.826],[-72.769,-7.878],[-72.785,-7.897],[-72.853,-7.91],[-72.891,-7.929],[-72.91,-7.927],[-72.953,-7.948],[-73.009,-7.934],[-73.077,-7.946],[-73.115,-7.934],[-73.093,-7.887],[-73.2,-7.906],[-73.237,-7.942],[-73.267,-7.954],[-73.297,-7.989],[-73.342,-7.986],[-73.38,-7.992],[-73.4,-8.03],[-73.63,-8.059],[-73.588,-8.112],[-73.596,-8.207],[-73.543,-8.256],[-73.526,-8.312],[-73.539,-8.342],[-73.518,-8.37],[-73.481,-8.395],[-73.418,-8.409],[-73.384,-8.474],[-73.332,-8.476],[-73.203,-8.379],[-73.177,-8.374],[-73.101,-8.338],[-73.08,-8.295],[-73.038,-8.282],[-73.004,-8.225],[-72.942,-8.211],[-72.894,-8.185],[-72.812,-8.124],[-72.793,-8.185],[-72.732,-8.218],[-72.703,-8.213],[-72.674,-8.223],[-72.634,-8.185],[-72.565,-8.188],[-72.507,-8.233],[-72.461,-8.232],[-72.417,-8.254],[-72.396,-8.254],[-72.319,-8.229],[-72.283,-8.21],[-72.266,-8.261],[-72.258,-8.072],[-72.247,-8.036],[-72.226,-8.02],[-72.215,-7.975],[-72.183,-7.947],[-72.156,-7.937],[-72.109,-7.894],[-72.087,-7.862],[-72.001,-7.808],[-71.945,-7.627],[-72.17,-7.601],[-72.585,-7.552],[-72.9,-7.438],[-72.889,-7.544],[-72.843,-7.607],[-72.783,-7.66],[-72.855,-7.658],[-72.86,-7.674]]]}},{"type":"Feature","properties":{"code":"1200302"},"geometry":{"type":"Polygon","coordinates":[[[-72.153,-9.797],[-72.16,-9.825],[-72.144,-9.892],[-72.168,-9.933],[-72.155,-9.971],[-72.178,-9.999],[-71.719,-10.0],[-71.377,-10.0],[-71.351,-9.97],[-71.303,-9.989],[-71.254,-9.963],[-71.208,-9.953],[-71.163,-9.871],[-71.123,-9.846],[-71.116,-9.827],[-71.078,-9.828],[-71.1,-9.816],[-71.089,-9.779],[-71.079,-9.7],[-71.046,-9.642],[-70.957,-9.586],[-70.951,-9.536],[-70.903,-9.508],[-70.856,-9.449],[-70.791,-9.449],[-70.77,-9.422],[-70.735,-9.416],[-70.694,-9.372],[-70.631,-9.377],[-70.64,-9.313],[-70.627,-9.27],[-70.572,-9.213],[-70.528,-9.138],[-70.499,-9.107],[-70.453,-9.104],[-70.437,-9.086],[-70.403,-9.018],[-70.365,-8.982],[-70.319,-8.964],[-70.09,-8.974],[-69.865,-8.957],[-69.84,-8.944],[-69.795,-8.84],[-69.763,-8.785],[-69.726,-8.764],[-69.659,-8.682],[-69.628,-8.681],[-69.572,-8.644],[-69.567,-8.613],[-69.543,-8.548],[-69.512,-8.496],[-69.505,-8.454],[-69.45,-8.396],[-69.444,-8.367],[-69.802,-8.061],[-70.055,-7.845],[-70.515,-7.792],[-70.578,-7.842],[-70.584,-7.873],[-70.643,-7.929],[-70.632,-7.984],[-70.589,-7.993],[-70.569,-8.049],[-70.578,-8.055],[-70.578,-8.111],[-70.556,-8.155],[-70.58,-8.197],[-70.587,-8.233],[-70.633,-8.311],[-70.625,-8.341],[-70.68,-8.383],[-70.676,-8.438],[-70.653,-8.466],[-70.703,-8.477],[-70.688,-8.523],[-70.727,-8.57],[-70.742,-8.609],[-70.768,-8.611],[-70.784,-8.64],[-70.837,-8.646],[-70.858,-8.67],[-70.874,-8.641],[-70.892,-8.64],[-70.916,-8.604],[-70.981,-8.649],[-71.026,-8.717],[-71.064,-8.753],[-71.122,-8.771],[-71.161,-8.798],[-71.222,-8.821],[-71.231,-8.841],[-71.343,-8.869],[-71.371,-8.893],[-71.397,-8.877],[-71.424,-8.885],[-71.467,-8.868],[-71.482,-8.884],[-71.528,-8.909],[-71.536,-8.936],[-71.563,-8.947],[-71.57,-8.975],[-71.596,-9.013],[-71.594,-9.063],[-71.607,-9.115],[-71.626,-9.141],[-71.624,-9.184],[-71.651,-9.236],[-71.701,-9.269],[-71.725,-9.347],[-71.723,-9.411],[-71.731,-9.442],[-71.779,-9.482],[-71.792,-9.483],[-71.808,-9.53],[-71.806,-9.563],[-71.84,-9.603],[-71.836,-9.622],[-71.87,-9.637],[-71.884,-9.667],[-71.92,-9.686],[-71.929,-9.722],[-71.992,-9.717],[-72.008,-9.754],[-72.035,-9.743],[-72.111,-9.763],[-72.153,-9.797]]]}},{"type":"Feature","properties":{"code":"1200609"},"geometry":{"type":"Polygon","coordinates":[[[-71.482,-8.884],[-71.467,-8.868],[-71.424,-8.885],[-71.397,-8.877],[-71.371,-8.893],[-71.343,-8.869],[-71.231,-8.841],[-71.222,-8.821],[-71.161,-8.798],[-71.122,-8.771],[-71.064,-8.753],[-71.026,-8.717],[-70.981,-8.649],[-70.916,-8.604],[-70.892,-8.64],[-70.874,-8.641],[-70.858,-8.67],[-70.837,-8.646],[-70.784,-8.64],[-70.768,-8.611],[-70.742,-8.609],[-70.727,-8.57],[-70.688,-8.523],[-70.703,-8.477],[-70.653,-8.466],[-70.676,-8.438],[-70.68,-8.383],[-70.625,-8.341],[-70.633,-8.311],[-70.587,-8.233],[-70.58,-8.197],[-70.556,-8.155],[-70.578,-8.111],[-70.578,-8.055],[-70.569,-8.049],[-70.589,-7.993],[-70.632,-7.984],[-70.643,-7.929],[-70.584,-7.873],[-70.578,-7.842],[-70.515,-7.792],[-71.088,-7.726],[-71.381,-7.692],[-71.646,-7.662],[-71.945,-7.627],[-72.001,-7.808],[-72.087,-7.862],[-72.109,-7.894],[-72.156,-7.937],[-72.183,-7.947],[-72.215,-7.975],[-72.226,-8.02],[-72.247,-8.036],[-72.258,-8.072],[-72.266,-8.261],[-72.226,-8.281],[-72.266,-8.391],[-72.232,-8.41],[-72.228,-8.517],[-72.201,-8.552],[-72.23,-8.597],[-72.214,-8.701],[-72.144,-8.712],[-72.125,-8.829],[-72.078,-8.868],[-72.078,-8.848],[-72.05,-8.837],[-72.027,-8.812],[-71.985,-8.786],[-71.936,-8.786],[-71.871,-8.817],[-71.828,-8.823],[-71.795,-8.818],[-71.764,-8.798],[-71.756,-8.765],[-71.716,-8.743],[-71.683,-8.707],[-71.658,-8.706],[-71.612,-8.665],[-71.56,-8.654],[-71.559,-8.686],[-71.542,-8.736],[-71.573,-8.755],[-71.598,-8.805],[-71.618,-8.821],[-71.617,-8.858],[-71.553,-8.851],[-71.522,-8.874],[-71.482,-8.884]]]}},{"type":"Feature","properties":{"code":"1200708"},"geometry":{"type":"Polygon","coordinates":[[[-68.388,-11.041],[-68.385,-11.018],[-68.306,-10.992],[-68.279,-10.989],[-68.239,-10.958],[-68.229,-10.921],[-68.206,-10.881],[-68.154,-10.821],[-68.104,-10.773],[-68.105,-10.715],[-68.076,-10.685],[-68.002,-10.648],[-68.011,-10.61],[-67.986,-10.591],[-68.013,-10.57],[-68.028,-10.542],[-68.043,-10.473],[-68.064,-10.425],[-68.041,-10.389],[-68.069,-10.384],[-68.092,-10.364],[-68.123,-10.375],[-68.201,-10.374],[-68.235,-10.387],[-68.272,-10.389],[-68.314,-10.418],[-68.325,-10.394],[-68.388,-10.38],[-68.355,-10.358],[-68.351,-10.332],[-68.376,-10.312],[-68.416,-10.307],[-68.417,-10.266],[-68.45,-10.253],[-68.454,-10.215],[-68.49,-10.229],[-68.493,-10.25],[-68.554,-10.28],[-68.564,-10.273],[-68.617,-10.306],[-68.637,-10.304],[-68.675,-10.329],[-68.682,-10.351],[-68.717,-10.385],[-69.132,-10.385],[-69.129,-10.399],[-69.158,-10.467],[-69.158,-10.513],[-69.134,-10.515],[-69.088,-10.558],[-69.067,-10.59],[-68.917,-10.577],[-68.908,-10.604],[-68.914,-10.638],[-68.949,-10.713],[-68.98,-10.754],[-68.976,-10.771],[-68.9,-10.775],[-68.853,-10.758],[-68.835,-10.739],[-68.805,-10.716],[-68.806,-10.671],[-68.754,-10.671],[-68.7,-10.632],[-68.65,-10.619],[-68.644,-10.655],[-68.606,-10.658],[-68.552,-10.717],[-68.537,-10.741],[-68.562,-10.77],[-68.543,-10.794],[-68.507,-10.809],[-68.479,-10.836],[-68.459,-10.816],[-68.434,-10.827],[-68.408,-10.856],[-68.402,-10.894],[-68.423,-10.932],[-68.405,-10.957],[-68.409,-10.994],[-68.388,-11.041]]]}},{"type":"Feature","properties":{"code":"1200104"},"geometry":{"type":"Polygon","coordinates":[[[-69.424,-10.927],[-69.389,-10.94],[-69.353,-10.936],[-69.328,-10.949],[-69.292,-10.95],[-69.233,-10.94],[-69.157,-10.963],[-69.084,-10.97],[-69.044,-10.981],[-69.001,-11.009],[-68.966,-10.988],[-68.948,-11.012],[-68.912,-11.022],[-68.895,-11.006],[-68.86,-11.016],[-68.811,-10.994],[-68.749,-11.019],[-68.688,-10.968],[-68.687,-10.937],[-68.733,-10.899],[-68.784,-10.869],[-68.786,-10.833],[-68.835,-10.739],[-68.853,-10.758],[-68.9,-10.775],[-68.976,-10.771],[-68.98,-10.754],[-68.949,-10.713],[-68.914,-10.638],[-68.908,-10.604],[-68.917,-10.577],[-69.067,-10.59],[-69.088,-10.558],[-69.134,-10.515],[-69.158,-10.513],[-69.158,-10.467],[-69.129,-10.399],[-69.132,-10.385],[-69.219,-10.415],[-69.249,-10.455],[-69.288,-10.47],[-69.322,-10.472],[-69.342,-10.485],[-69.508,-10.505],[-69.511,-10.556],[-69.551,-10.616],[-69.652,-10.69],[-69.671,-10.731],[-69.756,-10.741],[-69.778,-10.782],[-69.725,-10.828],[-69.686,-10.828],[-69.653,-10.857],[-69.638,-10.846],[-69.552,-10.869],[-69.521,-10.848],[-69.485,-10.794],[-69.498,-10.749],[-69.498,-10.7],[-69.474,-10.711],[-69.435,-10.703],[-69.393,-10.732],[-69.39,-10.826],[-69.424,-10.927]]]}},{"type":"Feature","properties":{"code":"1200179"},"geometry":{"type":"Polygon","coordinates":[[[-68.002,-10.648],[-67.932,-10.656],[-67.876,-10.645],[-67.828,-10.651],[-67.73,-10.713],[-67.704,-10.7],[-67.676,-10.605],[-67.66,-10.615],[-67.635,-10.58],[-67.61,-10.562],[-67.605,-10.534],[-67.567,-10.509],[-67.61,-10.504],[-67.62,-10.481],[-67.681,-10.476],[-67.712,-10.442],[-67.687,-10.411],[-67.659,-10.399],[-67.638,-10.369],[-67.685,-10.357],[-67.717,-10.291],[-67.756,-10.271],[-67.78,-10.241],[-67.785,-10.213],[-67.805,-10.198],[-67.816,-10.234],[-67.846,-10.288],[-67.946,-10.287],[-67.96,-10.314],[-67.997,-10.316],[-68.038,-10.352],[-68.041,-10.389],[-68.064,-10.425],[-68.043,-10.473],[-68.028,-10.542],[-68.013,-10.57],[-67.986,-10.591],[-68.011,-10.61],[-68.002,-10.648]]]}},{"type":"Feature","properties":{"code":"1200138"},"geometry":{"type":"Polygon","coordinates":[[[-68.418,-9.546],[-68.427,-9.599],[-68.456,-9.625],[-68.44,-9.642],[-68.422,-9.692],[-68.454,-9.844],[-68.39,-9.789],[-68.367,-9.78],[-68.3,-9.795],[-68.268,-9.823],[-68.153,-9.961],[-68.135,-9.934],[-68.099,-9.93],[-68.068,-9.895],[-68.045,-9.892],[-67.991,-9.854],[-67.95,-9.854],[-67.834,-9.833],[-67.823,-9.775],[-67.796,-9.762],[-67.865,-9.741],[-67.876,-9.72],[-67.906,-9.712],[-67.922,-9.694],[-67.91,-9.669],[-68.09,-9.558],[-68.073,-9.523],[-68.028,-9.492],[-68.018,-9.459],[-68.056,-9.412],[-68.059,-9.392],[-68.043,-9.352],[-67.977,-9.353],[-68.22,-9.243],[-68.246,-9.264],[-68.316,-9.295],[-68.367,-9.3],[-68.401,-9.324],[-68.331,-9.44],[-68.356,-9.491],[-68.397,-9.502],[-68.418,-9.546]]]}},{"type":"Feature","properties":{"code":"1200013"},"geometry":{"type":"Polygon","coordinates":[[[-67.125,-9.97],[-67.1,-10.104],[-67.076,-10.088],[-67.076,-10.202],[-67.002,-10.202],[-67.002,-10.23],[-66.983,-10.197],[-66.951,-10.187],[-66.947,-10.16],[-66.911,-10.146],[-66.871,-10.081],[-66.808,-10.05],[-66.79,-10.022],[-66.719,-9.974],[-66.675,-9.967],[-66.656,-9.936],[-66.636,-9.943],[-66.627,-9.898],[-66.81,-9.818],[-67.135,-9.676],[-67.188,-9.692],[-67.185,-9.71],[-67.09,-9.957],[-67.125,-9.97]]]}},{"type":"Feature","properties":{"code":"1200435"},"geometry":{"type":"Polygon","coordinates":[[[-71.078,-9.828],[-71.05,-9.816],[-71.0,-9.818],[-70.97,-9.756],[-70.925,-9.742],[-70.868,-9.665],[-70.835,-9.646],[-70.798,-9.641],[-70.786,-9.614],[-70.755,-9.596],[-70.747,-9.563],[-70.673,-9.53],[-70.635,-9.494],[-70.632,-9.479],[-70.564,-9.431],[-70.505,-9.422],[-70.521,-9.456],[-70.52,-9.504],[-70.543,-9.512],[-70.583,-9.569],[-70.596,-9.613],[-70.563,-9.669],[-70.543,-9.681],[-70.528,-9.726],[-70.537,-9.766],[-70.558,-9.789],[-70.579,-9.779],[-70.617,-9.829],[-70.617,-10.072],[-70.568,-10.019],[-70.531,-10.008],[-70.502,-9.965],[-70.462,-9.954],[-70.437,-9.913],[-70.402,-9.887],[-70.334,-9.808],[-70.324,-9.759],[-70.296,-9.743],[-70.262,-9.688],[-70.244,-9.682],[-70.186,-9.619],[-70.175,-9.585],[-70.155,-9.562],[-70.064,-9.525],[-70.035,-9.505],[-70.155,-9.472],[-70.204,-9.438],[-70.271,-9.42],[-70.33,-9.396],[-70.272,-9.341],[-70.261,-9.315],[-70.189,-9.271],[-70.152,-9.271],[-70.122,-9.288],[-70.083,-9.281],[-70.036,-9.286],[-70.012,-9.254],[-69.988,-9.263],[-69.966,-9.239],[-69.913,-9.243],[-69.908,-9.229],[-69.851,-9.187],[-69.792,-9.111],[-69.819,-9.078],[-69.83,-9.028],[-69.843,-9.015],[-69.865,-8.957],[-70.09,-8.974],[-70.319,-8.964],[-70.365,-8.982],[-70.403,-9.018],[-70.437,-9.086],[-70.453,-9.104],[-70.499,-9.107],[-70.528,-9.138],[-70.572,-9.213],[-70.627,-9.27],[-70.64,-9.313],[-70.631,-9.377],[-70.694,-9.372],[-70.735,-9.416],[-70.77,-9.422],[-70.791,-9.449],[-70.856,-9.449],[-70.903,-9.508],[-70.951,-9.536],[-70.957,-9.586],[-71.046,-9.642],[-71.079,-9.7],[-71.089,-9.779],[-71.1,-9.816],[-71.078,-9.828]]]}},{"type":"Feature","properties":{"code":"1200500"},"geometry":{"type":"Polygon","coordinates":[[[-70.609,-10.425],[-70.617,-10.425],[-70.617,-10.713],[-70.556,-10.688],[-70.531,-10.716],[-70.502,-10.724],[-70.419,-10.711],[-70.401,-10.726],[-70.342,-10.705],[-70.25,-10.697],[-70.219,-10.685],[-70.179,-10.691],[-70.175,-10.673],[-70.136,-10.663],[-70.12,-10.639],[-70.091,-10.652],[-70.07,-10.616],[-69.98,-10.585],[-69.941,-10.568],[-69.926,-10.549],[-69.876,-10.554],[-69.833,-10.541],[-69.83,-10.508],[-69.785,-10.461],[-69.723,-10.453],[-69.71,-10.438],[-69.636,-10.412],[-69.631,-10.396],[-69.588,-10.371],[-69.54,-10.422],[-69.545,-10.447],[-69.533,-10.485],[-69.508,-10.505],[-69.342,-10.485],[-69.364,-10.463],[-69.342,-10.403],[-69.311,-10.364],[-69.172,-10.287],[-69.121,-10.269],[-69.037,-10.164],[-68.885,-10.063],[-68.801,-9.962],[-68.694,-9.887],[-68.666,-9.841],[-68.693,-9.75],[-68.7,-9.679],[-68.673,-9.56],[-68.633,-9.516],[-68.608,-9.505],[-68.584,-9.539],[-68.514,-9.589],[-68.467,-9.546],[-68.418,-9.546],[-68.397,-9.502],[-68.356,-9.491],[-68.331,-9.44],[-68.401,-9.324],[-68.367,-9.3],[-68.316,-9.295],[-68.246,-9.264],[-68.22,-9.243],[-68.647,-9.049],[-68.921,-8.814],[-68.933,-8.831],[-68.971,-8.841],[-69.023,-8.886],[-69.07,-8.895],[-69.084,-8.93],[-69.111,-8.956],[-69.177,-8.942],[-69.201,-8.956],[-69.223,-8.995],[-69.234,-9.04],[-69.256,-9.046],[-69.35,-9.047],[-69.387,-9.093],[-69.432,-9.118],[-69.459,-9.145],[-69.558,-9.179],[-69.588,-9.179],[-69.612,-9.209],[-69.668,-9.236],[-69.691,-9.229],[-69.77,-9.339],[-69.797,-9.334],[-69.784,-9.38],[-69.818,-9.424],[-69.847,-9.424],[-69.868,-9.467],[-69.869,-9.521],[-69.879,-9.542],[-69.931,-9.611],[-69.927,-9.629],[-69.946,-9.675],[-69.978,-9.725],[-69.977,-9.782],[-70.021,-9.832],[-70.039,-9.866],[-70.032,-9.893],[-70.044,-9.931],[-70.043,-9.99],[-70.112,-10.151],[-70.162,-10.229],[-70.227,-10.292],[-70.219,-10.312],[-70.24,-10.342],[-70.255,-10.395],[-70.256,-10.425],[-70.609,-10.425]]]}},{"type":"Feature","properties":{"code":"1200054"},"geometry":{"type":"Polygon","coordinates":[[[-70.617,-10.713],[-70.618,-10.999],[-70.527,-10.935],[-70.484,-10.967],[-70.448,-11.004],[-70.427,-11.038],[-70.386,-11.048],[-70.373,-11.061],[-70.308,-11.071],[-70.245,-11.05],[-70.201,-11.055],[-70.131,-11.023],[-70.095,-10.987],[-70.063,-10.993],[-70.037,-10.971],[-69.975,-10.949],[-69.948,-10.925],[-69.902,-10.92],[-69.823,-10.933],[-69.807,-10.926],[-69.76,-10.939],[-69.719,-10.976],[-69.659,-10.953],[-69.637,-10.958],[-69.574,-10.942],[-69.548,-10.954],[-69.521,-10.936],[-69.479,-10.955],[-69.424,-10.927],[-69.39,-10.826],[-69.393,-10.732],[-69.435,-10.703],[-69.474,-10.711],[-69.498,-10.7],[-69.498,-10.749],[-69.485,-10.794],[-69.521,-10.848],[-69.552,-10.869],[-69.638,-10.846],[-69.653,-10.857],[-69.686,-10.828],[-69.725,-10.828],[-69.778,-10.782],[-69.756,-10.741],[-69.671,-10.731],[-69.652,-10.69],[-69.551,-10.616],[-69.511,-10.556],[-69.508,-10.505],[-69.533,-10.485],[-69.545,-10.447],[-69.54,-10.422],[-69.588,-10.371],[-69.631,-10.396],[-69.636,-10.412],[-69.71,-10.438],[-69.723,-10.453],[-69.785,-10.461],[-69.83,-10.508],[-69.833,-10.541],[-69.876,-10.554],[-69.926,-10.549],[-69.941,-10.568],[-69.98,-10.585],[-70.07,-10.616],[-70.091,-10.652],[-70.12,-10.639],[-70.136,-10.663],[-70.175,-10.673],[-70.179,-10.691],[-70.219,-10.685],[-70.25,-10.697],[-70.342,-10.705],[-70.401,-10.726],[-70.419,-10.711],[-70.502,-10.724],[-70.531,-10.716],[-70.556,-10.688],[-70.617,-10.713]]]}},{"type":"Feature","properties":{"code":"1200344"},"geometry":{"type":"Polygon","coordinates":[[[-70.617,-10.072],[-70.617,-10.425],[-70.609,-10.425],[-70.256,-10.425],[-70.255,-10.395],[-70.24,-10.342],[-70.219,-10.312],[-70.227,-10.292],[-70.162,-10.229],[-70.112,-10.151],[-70.043,-9.99],[-70.044,-9.931],[-70.032,-9.893],[-70.039,-9.866],[-70.021,-9.832],[-69.977,-9.782],[-69.978,-9.725],[-69.946,-9.675],[-69.927,-9.629],[-69.931,-9.611],[-69.879,-9.542],[-69.869,-9.521],[-69.868,-9.467],[-69.847,-9.424],[-69.818,-9.424],[-69.784,-9.38],[-69.797,-9.334],[-69.77,-9.339],[-69.691,-9.229],[-69.668,-9.236],[-69.612,-9.209],[-69.588,-9.179],[-69.558,-9.179],[-69.459,-9.145],[-69.432,-9.118],[-69.387,-9.093],[-69.35,-9.047],[-69.256,-9.046],[-69.234,-9.04],[-69.223,-8.995],[-69.201,-8.956],[-69.177,-8.942],[-69.111,-8.956],[-69.084,-8.93],[-69.07,-8.895],[-69.023,-8.886],[-68.971,-8.841],[-68.933,-8.831],[-68.921,-8.814],[-69.213,-8.565],[-69.444,-8.367],[-69.45,-8.396],[-69.505,-8.454],[-69.512,-8.496],[-69.543,-8.548],[-69.567,-8.613],[-69.572,-8.644],[-69.628,-8.681],[-69.659,-8.682],[-69.726,-8.764],[-69.763,-8.785],[-69.795,-8.84],[-69.84,-8.944],[-69.865,-8.957],[-69.843,-9.015],[-69.83,-9.028],[-69.819,-9.078],[-69.792,-9.111],[-69.851,-9.187],[-69.908,-9.229],[-69.913,-9.243],[-69.966,-9.239],[-69.988,-9.263],[-70.012,-9.254],[-70.036,-9.286],[-70.083,-9.281],[-70.122,-9.288],[-70.152,-9.271],[-70.189,-9.271],[-70.261,-9.315],[-70.272,-9.341],[-70.33,-9.396],[-70.271,-9.42],[-70.204,-9.438],[-70.155,-9.472],[-70.035,-9.505],[-70.064,-9.525],[-70.155,-9.562],[-70.175,-9.585],[-70.186,-9.619],[-70.244,-9.682],[-70.262,-9.688],[-70.296,-9.743],[-70.324,-9.759],[-70.334,-9.808],[-70.402,-9.887],[-70.437,-9.913],[-70.462,-9.954],[-70.502,-9.965],[-70.531,-10.008],[-70.568,-10.019],[-70.617,-10.072]]]}}]}