{"type":"FeatureCollection","features":[{"type":"Feature","properties":{"code":"1400605"},"geometry":{"type":"Polygon","coordinates":[[[-60.153,0.564],[-60.069,0.612],[-60.081,0.672],[-60.066,0.695],[-60.049,0.8],[-60.062,0.837],[-60.05,0.899],[-60.029,0.916],[-60.019,0.959],[-59.989,0.965],[-59.981,1.0],[-59.982,1.135],[-59.997,1.123],[-60.039,1.122],[-60.09,1.101],[-60.132,1.103],[-60.215,1.129],[-60.267,1.128],[-60.306,1.041],[-60.403,1.002],[-60.278,0.976],[-60.274,0.955],[-60.202,0.88],[-60.296,0.776],[-60.264,0.742],[-60.256,0.673],[-60.223,0.629],[-60.239,0.605],[-60.224,0.566],[-60.189,0.571],[-60.153,0.564]]]}},{"type":"Feature","properties":{"code":"1400407"},"geometry":{"type":"Polygon","coordinates":[[[-60.321,3.369],[-60.295,3.387],[-60.197,3.407],[-60.178,3.443],[-60.083,3.494],[-60.052,3.527],[-59.958,3.573],[-59.936,3.559],[-59.906,3.586],[-59.873,3.564],[-59.849,3.605],[-59.788,3.617],[-59.753,3.652],[-59.723,3.664],[-59.705,3.689],[-59.669,3.703],[-59.674,3.761],[-59.666,3.781],[-59.596,3.794],[-59.578,3.833],[-59.594,3.86],[-59.59,3.889],[-59.569,3.89],[-59.516,3.946],[-59.527,3.969],[-59.554,3.979],[-59.654,4.069],[-59.621,4.131],[-59.644,4.145],[-59.684,4.147],[-59.709,4.162],[-59.795,4.18],[-59.766,4.212],[-59.814,4.213],[-59.89,4.225],[-59.935,4.243],[-59.983,4.281],[-60.0,4.281],[-60.045,4.303],[-60.08,4.26],[-60.12,4.261],[-60.14,4.222],[-60.202,4.181],[-60.238,4.188],[-60.272,4.168],[-60.3,4.174],[-60.33,4.16],[-60.384,4.195],[-60.47,4.206],[-60.487,4.214],[-60.517,4.201],[-60.54,4.21],[-60.534,4.167],[-60.471,4.127],[-60.447,4.084],[-60.439,4.036],[-60.461,3.991],[-60.461,3.952],[-60.493,3.938],[-60.489,3.903],[-60.5,3.875],[-60.482,3.854],[-60.48,3.775],[-60.487,3.743],[-60.475,3.701],[-60.432,3.649],[-60.41,3.58],[-60.324,3.532],[-60.286,3.45],[-60.326,3.396],[-60.321,3.369]]]}},{"type":"Feature","properties":{"code":"1400506"},"geometry":{"type":"Polygon","coordinates":[[[-60.038,0.264],[-59.857,0.264],[-59.434,0.264],[-59.437,0.29],[-59.471,0.345],[-59.454,0.384],[-59.464,0.428],[-59.505,0.437],[-59.523,0.49],[-59.546,0.521],[-59.589,0.545],[-59.594,0.564],[-59.65,0.571],[-59.687,0.54],[-59.743,0.542],[-59.815,0.618],[-59.779,0.82],[-59.76,0.905],[-59.752,1.001],[-59.739,1.076],[-59.753,1.19],[-59.779,1.276],[-59.824,1.256],[-59.841,1.203],[-59.867,1.188],[-59.89,1.197],[-59.961,1.178],[-59.982,1.135],[-59.981,1.0],[-59.989,0.965],[-60.019,0.959],[-60.029,0.916],[-60.05,0.899],[-60.062,0.837],[-60.049,0.8],[-60.066,0.695],[-60.081,0.672],[-60.069,0.612],[-60.153,0.564],[-60.132,0.525],[-60.119,0.457],[-60.096,0.435],[-60.083,0.401],[-60.105,0.358],[-60.037,0.315],[-60.004,0.309],[-60.038,0.264]]]}},{"type":"Feature","properties":{"code":"1400472"},"geometry":{"type":"Polygon","coordinates":[[[-61.475,-1.579],[-61.473,-1.528],[-61.524,-1.491],[-61.548,-1.429],[-61.619,-1.395],[-61.582,-1.353],[-61.586,-1.339],[-61.627,-1.294],[-61.607,-1.274],[-61.608,-1.252],[-61.587,-1.194],[-61.581,-1.157],[-61.566,-1.129],[-61.579,-1.114],[-61.573,-1.076],[-61.543,-1.062],[-61.544,-1.004],[-61.551,-0.983],[-61.581,-0.978],[-61.577,-0.911],[-61.552,-0.889],[-61.557,-0.865],[-61.547,-0.795],[-61.536,-0.754],[-61.485,-0.717],[-61.458,-0.655],[-61.429,-0.649],[-61.359,-0.597],[-61.329,-0.597],[-61.309,-0.579],[-61.234,-0.562],[-61.214,-0.499],[-61.171,-0.515],[-61.133,-0.497],[-61.096,-0.499],[-61.07,-0.513],[-61.064,-0.536],[-60.984,-0.562],[-60.932,-0.549],[-60.922,-0.582],[-60.928,-0.607],[-60.893,-0.645],[-60.87,-0.639],[-60.856,-0.685],[-60.807,-0.697],[-60.805,-0.74],[-60.772,-0.758],[-60.787,-0.785],[-60.763,-0.813],[-60.764,-0.831],[-60.75,-0.855],[-60.685,-0.866],[-60.664,-0.881],[-60.619,-0.851],[-60.587,-0.843],[-60.536,-0.869],[-60.502,-0.84],[-60.498,-0.781],[-60.475,-0.762],[-60.426,-0.771],[-60.373,-0.731],[-60.347,-0.74],[-60.304,-0.7],[-60.31,-0.658],[-60.361,-0.597],[-60.379,-0.589],[-60.383,-0.554],[-60.4,-0.517],[-60.385,-0.464],[-60.347,-0.438],[-60.344,-0.396],[-60.325,-0.378],[-60.325,-0.333],[-60.292,-0.294],[-60.302,-0.271],[-60.294,-0.23],[-60.259,-0.173],[-60.224,-0.138],[-60.23,-0.12],[-60.237,-0.109],[-60.211,-0.063],[-60.204,-0.03],[-60.14,0.027],[-60.121,0.088],[-60.134,0.103],[-60.059,0.163],[-60.038,0.264],[-60.004,0.309],[-60.037,0.315],[-60.105,0.358],[-60.083,0.401],[-60.096,0.435],[-60.119,0.457],[-60.132,0.525],[-60.153,0.564],[-60.189,0.571],[-60.224,0.566],[-60.239,0.605],[-60.223,0.629],[-60.256,0.673],[-60.264,0.742],[-60.296,0.776],[-60.202,0.88],[-60.274,0.955],[-60.278,0.976],[-60.403,1.002],[-60.306,1.041],[-60.267,1.128],[-60.292,1.115],[-60.318,1.142],[-60.342,1.133],[-60.376,1.139],[-60.4,1.132],[-60.464,1.083],[-60.484,1.045],[-60.505,1.034],[-60.514,0.99],[-60.534,0.993],[-60.561,0.939],[-60.584,0.932],[-60.62,0.897],[-60.651,0.903],[-60.669,0.879],[-60.714,0.867],[-60.732,0.883],[-60.734,0.933],[-60.775,0.941],[-60.823,1.006],[-60.821,1.064],[-60.852,1.103],[-60.885,1.13],[-60.924,1.073],[-60.961,1.089],[-60.995,1.083],[-61.013,1.098],[-61.064,1.038],[-61.068,1.009],[-61.106,0.991],[-61.128,0.944],[-61.174,0.962],[-61.198,0.959],[-61.219,1.0],[-61.251,0.972],[-61.289,0.979],[-61.318,0.995],[-61.346,0.98],[-61.376,0.925],[-61.424,0.87],[-61.429,0.842],[-61.454,0.785],[-61.501,0.724],[-61.559,0.679],[-61.617,0.602],[-61.633,0.547],[-61.65,0.515],[-61.684,0.49],[-61.711,0.436],[-61.731,0.36],[-61.759,0.31],[-61.77,0.243],[-61.778,0.168],[-61.77,0.097],[-61.78,0.039],[-61.816,-0.038],[-61.791,-0.106],[-61.808,-0.146],[-61.838,-0.272],[-61.83,-0.318],[-61.846,-0.363],[-61.845,-0.389],[-61.802,-0.45],[-61.802,-0.474],[-61.825,-0.526],[-61.813,-0.559],[-61.81,-0.608],[-61.868,-0.724],[-61.848,-0.822],[-61.875,-0.86],[-61.884,-0.894],[-61.87,-0.932],[-61.89,-1.0],[-61.859,-1.057],[-61.881,-1.118],[-61.846,-1.217],[-61.84,-1.265],[-61.873,-1.33],[-61.869,-1.356],[-61.84,-1.401],[-61.798,-1.381],[-61.741,-1.392],[-61.718,-1.41],[-61.605,-1.448],[-61.56,-1.495],[-61.545,-1.526],[-61.483,-1.581],[-61.475,-1.579]]]}},{"type":"Feature","properties":{"code":"1400456"},"geometry":{"type":"Polygon","coordinates":[[[-60.606,3.449],[-60.554,3.478],[-60.528,3.554],[-60.492,3.581],[-60.483,3.606],[-60.451,3.58],[-60.41,3.58],[-60.432,3.649],[-60.475,3.701],[-60.487,3.743],[-60.48,3.775],[-60.482,3.854],[-60.5,3.875],[-60.489,3.903],[-60.493,3.938],[-60.461,3.952],[-60.461,3.991],[-60.439,4.036],[-60.447,4.084],[-60.471,4.127],[-60.534,4.167],[-60.54,4.21],[-60.51,4.239],[-60.568,4.279],[-60.556,4.308],[-60.599,4.389],[-60.644,4.394],[-60.656,4.419],[-60.636,4.476],[-60.64,4.494],[-60.612,4.546],[-60.64,4.617],[-60.632,4.657],[-60.645,4.671],[-60.639,4.72],[-60.646,4.735],[-60.638,4.806],[-60.614,4.843],[-60.652,4.884],[-60.65,4.861],[-60.721,4.777],[-60.757,4.754],[-60.81,4.744],[-60.816,4.728],[-60.853,4.703],[-60.899,4.718],[-60.92,4.663],[-60.948,4.655],[-60.933,4.617],[-60.934,4.585],[-60.956,4.582],[-60.958,4.545],[-60.998,4.516],[-61.047,4.524],[-61.126,4.506],[-61.147,4.481],[-61.176,4.511],[-61.257,4.536],[-61.325,4.532],[-61.328,4.516],[-61.278,4.468],[-61.309,4.458],[-61.32,4.43],[-61.344,4.418],[-61.373,4.427],[-61.44,4.424],[-61.462,4.435],[-61.486,4.411],[-61.511,4.406],[-61.522,4.369],[-61.508,4.322],[-61.348,4.325],[-61.303,4.298],[-61.301,4.274],[-61.258,4.234],[-61.247,4.212],[-61.254,4.161],[-61.243,4.153],[-61.24,4.082],[-61.198,4.05],[-61.141,4.021],[-61.06,4.004],[-61.017,4.044],[-60.956,4.022],[-60.93,3.986],[-60.934,3.939],[-60.909,3.909],[-60.904,3.883],[-60.878,3.843],[-60.871,3.807],[-60.889,3.738],[-60.85,3.632],[-60.806,3.615],[-60.812,3.595],[-60.769,3.567],[-60.752,3.575],[-60.712,3.553],[-60.632,3.53],[-60.609,3.501],[-60.622,3.467],[-60.606,3.449]]]}},{"type":"Feature","properties":{"code":"1400704"},"geometry":{"type":"Polygon","coordinates":[[[-60.54,4.21],[-60.517,4.201],[-60.487,4.214],[-60.47,4.206],[-60.384,4.195],[-60.33,4.16],[-60.3,4.174],[-60.272,4.168],[-60.238,4.188],[-60.202,4.181],[-60.14,4.222],[-60.12,4.261],[-60.08,4.26],[-60.045,4.303],[-60.0,4.281],[-59.983,4.281],[-59.935,4.243],[-59.89,4.225],[-59.814,4.213],[-59.766,4.212],[-59.795,4.18],[-59.709,4.162],[-59.738,4.21],[-59.739,4.235],[-59.716,4.264],[-59.732,4.286],[-59.69,4.335],[-59.679,4.369],[-59.755,4.424],[-59.803,4.467],[-59.813,4.446],[-59.863,4.472],[-59.898,4.479],[-59.966,4.508],[-59.975,4.488],[-60.063,4.495],[-60.067,4.524],[-60.091,4.533],[-60.118,4.502],[-60.161,4.518],[-60.131,4.596],[-60.071,4.617],[-60.076,4.655],[-60.025,4.707],[-60.023,4.784],[-60.036,4.791],[-60.014,4.842],[-59.993,4.934],[-59.99,5.001],[-59.978,5.019],[-59.972,5.075],[-60.016,5.089],[-60.068,5.138],[-60.086,5.136],[-60.099,5.196],[-60.119,5.215],[-60.13,5.249],[-60.158,5.227],[-60.192,5.236],[-60.203,5.267],[-60.258,5.251],[-60.308,5.21],[-60.355,5.207],[-60.384,5.217],[-60.419,5.2],[-60.493,5.194],[-60.526,5.203],[-60.543,5.187],[-60.592,5.209],[-60.626,5.212],[-60.651,5.23],[-60.681,5.232],[-60.722,5.22],[-60.689,5.193],[-60.659,5.151],[-60.643,5.112],[-60.643,5.05],[-60.61,5.037],[-60.617,5.009],[-60.596,4.998],[-60.584,4.955],[-60.59,4.932],[-60.629,4.888],[-60.652,4.884],[-60.614,4.843],[-60.638,4.806],[-60.646,4.735],[-60.639,4.72],[-60.645,4.671],[-60.632,4.657],[-60.64,4.617],[-60.612,4.546],[-60.64,4.494],[-60.636,4.476],[-60.656,4.419],[-60.644,4.394],[-60.599,4.389],[-60.556,4.308],[-60.568,4.279],[-60.51,4.239],[-60.54,4.21]]]}},{"type":"Feature","properties":{"code":"1400050"},"geometry":{"type":"Polygon","coordinates":[[[-63.96,2.473],[-63.958,2.47],[-63.67,2.597],[-63.644,2.622],[-63.611,2.591],[-63.572,2.592],[-63.524,2.572],[-63.473,2.618],[-63.483,2.657],[-63.467,2.668],[-63.474,2.705],[-63.459,2.736],[-63.461,2.761],[-63.425,2.778],[-63.388,2.757],[-63.356,2.775],[-63.298,2.776],[-63.244,2.818],[-63.192,2.818],[-63.167,2.798],[-63.099,2.791],[-63.016,2.802],[-62.984,2.795],[-62.972,2.776],[-62.913,2.762],[-62.86,2.772],[-62.794,2.724],[-62.765,2.73],[-62.69,2.705],[-62.664,2.703],[-62.623,2.726],[-62.525,2.745],[-62.486,2.77],[-62.407,2.783],[-62.347,2.775],[-62.294,2.759],[-62.237,2.755],[-62.212,2.764],[-62.19,2.749],[-62.083,2.746],[-62.035,2.729],[-62.01,2.734],[-61.98,2.719],[-61.974,2.689],[-61.914,2.692],[-61.86,2.684],[-61.795,2.705],[-61.776,2.72],[-61.734,2.719],[-61.742,2.765],[-61.725,2.785],[-61.704,2.852],[-61.628,2.934],[-61.58,2.948],[-61.523,2.896],[-61.474,2.892],[-61.435,2.868],[-61.406,2.861],[-61.37,2.827],[-61.357,2.771],[-61.336,2.761],[-61.325,2.728],[-61.296,2.704],[-61.293,2.673],[-61.223,2.656],[-61.214,2.682],[-61.184,2.677],[-61.137,2.701],[-61.075,2.691],[-61.036,2.676],[-61.001,2.682],[-61.001,2.924],[-61.001,3.448],[-61.136,3.435],[-61.154,3.45],[-61.219,3.45],[-61.239,3.44],[-61.268,3.4],[-61.317,3.357],[-61.349,3.354],[-61.381,3.365],[-61.406,3.35],[-61.456,3.348],[-61.495,3.335],[-61.52,3.307],[-61.598,3.312],[-61.625,3.356],[-61.69,3.321],[-61.759,3.32],[-61.798,3.33],[-61.822,3.323],[-61.853,3.264],[-61.91,3.291],[-61.933,3.288],[-61.956,3.252],[-61.97,3.261],[-62.017,3.249],[-62.048,3.264],[-62.126,3.233],[-62.233,3.16],[-62.249,3.137],[-62.288,3.152],[-62.31,3.146],[-62.35,3.155],[-62.41,3.126],[-62.447,3.132],[-62.457,3.186],[-62.557,3.233],[-62.609,3.236],[-62.636,3.248],[-62.691,3.22],[-62.737,3.239],[-62.796,3.239],[-62.822,3.247],[-62.919,3.308],[-62.963,3.32],[-62.975,3.342],[-63.001,3.344],[-63.029,3.396],[-63.056,3.42],[-63.104,3.443],[-63.129,3.466],[-63.174,3.523],[-63.176,3.541],[-63.153,3.606],[-63.183,3.646],[-63.199,3.682],[-63.277,3.682],[-63.275,3.611],[-63.323,3.575],[-63.347,3.588],[-63.342,3.61],[-63.395,3.616],[-63.488,3.667],[-63.51,3.687],[-63.552,3.683],[-63.574,3.707],[-63.57,3.728],[-63.633,3.742],[-63.651,3.725],[-63.691,3.716],[-63.713,3.698],[-63.717,3.659],[-63.742,3.585],[-63.741,3.57],[-63.806,3.54],[-63.822,3.519],[-63.848,3.454],[-63.901,3.421],[-63.929,3.442],[-64.001,3.433],[-64.073,3.481],[-64.131,3.476],[-64.121,3.404],[-64.148,3.379],[-64.136,3.349],[-64.115,3.334],[-64.122,3.279],[-64.159,3.244],[-64.154,3.227],[-64.181,3.165],[-64.221,3.153],[-64.219,3.095],[-64.179,3.051],[-64.145,3.026],[-64.16,2.985],[-64.118,2.985],[-64.092,2.932],[-64.071,2.924],[-64.067,2.892],[-64.042,2.835],[-64.016,2.812],[-64.012,2.773],[-63.987,2.716],[-63.987,2.649],[-64.008,2.627],[-64.028,2.578],[-64.049,2.567],[-64.043,2.496],[-63.976,2.466],[-63.96,2.473]]]}},{"type":"Feature","properties":{"code":"1400027"},"geometry":{"type":"Polygon","coordinates":[[[-64.131,3.476],[-64.073,3.481],[-64.001,3.433],[-63.929,3.442],[-63.901,3.421],[-63.848,3.454],[-63.822,3.519],[-63.806,3.54],[-63.741,3.57],[-63.742,3.585],[-63.717,3.659],[-63.713,3.698],[-63.691,3.716],[-63.651,3.725],[-63.633,3.742],[-63.57,3.728],[-63.574,3.707],[-63.552,3.683],[-63.51,3.687],[-63.488,3.667],[-63.395,3.616],[-63.342,3.61],[-63.347,3.588],[-63.323,3.575],[-63.275,3.611],[-63.277,3.682],[-63.199,3.682],[-63.183,3.646],[-63.153,3.606],[-63.176,3.541],[-63.174,3.523],[-63.129,3.466],[-63.104,3.443],[-63.056,3.42],[-63.029,3.396],[-63.001,3.344],[-62.975,3.342],[-62.963,3.32],[-62.919,3.308],[-62.822,3.247],[-62.796,3.239],[-62.737,3.239],[-62.691,3.22],[-62.636,3.248],[-62.609,3.236],[-62.557,3.233],[-62.457,3.186],[-62.447,3.132],[-62.41,3.126],[-62.35,3.155],[-62.31,3.146],[-62.288,3.152],[-62.249,3.137],[-62.233,3.16],[-62.126,3.233],[-62.048,3.264],[-62.017,3.249],[-61.97,3.261],[-61.956,3.252],[-61.933,3.288],[-61.91,3.291],[-61.853,3.264],[-61.822,3.323],[-61.798,3.33],[-61.759,3.32],[-61.69,3.321],[-61.625,3.356],[-61.598,3.312],[-61.52,3.307],[-61.495,3.335],[-61.456,3.348],[-61.406,3.35],[-61.381,3.365],[-61.349,3.354],[-61.317,3.357],[-61.268,3.4],[-61.239,3.44],[-61.219,3.45],[-61.154,3.45],[-61.136,3.435],[-61.001,3.448],[-60.949,3.479],[-60.908,3.464],[-60.871,3.482],[-60.801,3.485],[-60.788,3.496],[-60.743,3.498],[-60.696,3.473],[-60.654,3.437],[-60.627,3.427],[-60.606,3.449],[-60.622,3.467],[-60.609,3.501],[-60.632,3.53],[-60.712,3.553],[-60.752,3.575],[-60.769,3.567],[-60.812,3.595],[-60.806,3.615],[-60.85,3.632],[-60.889,3.738],[-60.871,3.807],[-60.878,3.843],[-60.904,3.883],[-60.909,3.909],[-60.934,3.939],[-60.93,3.986],[-60.956,4.022],[-61.017,4.044],[-61.06,4.004],[-61.141,4.021],[-61.198,4.05],[-61.24,4.082],[-61.243,4.153],[-61.254,4.161],[-61.247,4.212],[-61.258,4.234],[-61.301,4.274],[-61.303,4.298],[-61.348,4.325],[-61.508,4.322],[-61.521,4.288],[-61.558,4.252],[-61.589,4.243],[-61.608,4.261],[-61.631,4.241],[-61.646,4.259],[-61.678,4.254],[-61.753,4.255],[-61.79,4.23],[-61.821,4.198],[-61.836,4.16],[-61.867,4.176],[-61.925,4.155],[-61.949,4.132],[-61.99,4.178],[-62.012,4.156],[-62.047,4.152],[-62.07,4.129],[-62.117,4.117],[-62.118,4.087],[-62.139,4.084],[-62.188,4.096],[-62.247,4.125],[-62.331,4.136],[-62.354,4.165],[-62.421,4.183],[-62.463,4.179],[-62.464,4.14],[-62.541,4.126],[-62.557,4.079],[-62.541,4.057],[-62.562,4.038],[-62.609,4.044],[-62.691,4.032],[-62.734,4.039],[-62.768,4.007],[-62.747,3.972],[-62.763,3.941],[-62.784,3.933],[-62.789,3.893],[-62.755,3.849],[-62.772,3.834],[-62.742,3.812],[-62.74,3.753],[-62.731,3.705],[-62.751,3.674],[-62.788,3.702],[-62.796,3.723],[-62.839,3.735],[-62.854,3.711],[-62.908,3.671],[-62.951,3.611],[-62.991,3.618],[-63.027,3.652],[-63.029,3.667],[-63.073,3.687],[-63.059,3.741],[-63.096,3.791],[-63.122,3.804],[-63.168,3.805],[-63.206,3.815],[-63.227,3.833],[-63.233,3.882],[-63.217,3.915],[-63.252,3.924],[-63.304,3.921],[-63.334,3.953],[-63.392,3.979],[-63.426,3.977],[-63.451,3.956],[-63.418,3.935],[-63.415,3.902],[-63.436,3.872],[-63.463,3.861],[-63.484,3.885],[-63.514,3.848],[-63.551,3.864],[-63.558,3.888],[-63.596,3.905],[-63.594,3.923],[-63.619,3.962],[-63.657,3.939],[-63.666,3.91],[-63.736,3.914],[-63.761,3.943],[-63.791,3.933],[-63.85,3.948],[-63.933,3.922],[-63.958,3.885],[-63.996,3.904],[-64.024,3.976],[-64.055,3.977],[-64.1,4.062],[-64.128,4.083],[-64.132,4.103],[-64.177,4.094],[-64.22,4.122],[-64.249,4.119],[-64.267,4.149],[-64.295,4.161],[-64.309,4.123],[-64.34,4.146],[-64.426,4.131],[-64.44,4.116],[-64.474,4.14],[-64.502,4.106],[-64.532,4.118],[-64.561,4.101],[-64.633,4.118],[-64.635,4.146],[-64.667,4.169],[-64.706,4.208],[-64.727,4.266],[-64.777,4.282],[-64.826,4.232],[-64.821,4.195],[-64.793,4.179],[-64.797,4.153],[-64.778,4.141],[-64.768,4.109],[-64.772,4.072],[-64.735,4.023],[-64.716,4.033],[-64.701,4.007],[-64.595,3.962],[-64.563,3.925],[-64.566,3.903],[-64.534,3.878],[-64.512,3.839],[-64.465,3.811],[-64.457,3.783],[-64.417,3.779],[-64.364,3.744],[-64.339,3.714],[-64.318,3.713],[-64.294,3.654],[-64.242,3.659],[-64.221,3.61],[-64.17,3.55],[-64.174,3.505],[-64.131,3.476]]]}},{"type":"Feature","properties":{"code":"1400100"},"geometry":{"type":"Polygon","coordinates":[[[-61.001,2.682],[-60.94,2.65],[-60.92,2.632],[-60.913,2.597],[-60.917,2.564],[-60.944,2.521],[-60.894,2.508],[-60.892,2.476],[-60.837,2.438],[-60.828,2.455],[-60.824,2.547],[-60.775,2.643],[-60.72,2.708],[-60.695,2.728],[-60.672,2.795],[-60.649,2.835],[-60.609,2.854],[-60.568,2.885],[-60.541,2.915],[-60.504,2.973],[-60.484,3.023],[-60.453,3.042],[-60.374,3.171],[-60.386,3.214],[-60.409,3.255],[-60.406,3.289],[-60.343,3.322],[-60.321,3.369],[-60.326,3.396],[-60.286,3.45],[-60.324,3.532],[-60.41,3.58],[-60.451,3.58],[-60.483,3.606],[-60.492,3.581],[-60.528,3.554],[-60.554,3.478],[-60.606,3.449],[-60.627,3.427],[-60.654,3.437],[-60.696,3.473],[-60.743,3.498],[-60.788,3.496],[-60.801,3.485],[-60.871,3.482],[-60.908,3.464],[-60.949,3.479],[-61.001,3.448],[-61.001,2.924],[-61.001,2.682]]]}},{"type":"Feature","properties":{"code":"1400308"},"geometry":{"type":"Polygon","coordinates":[[[-60.837,2.438],[-60.892,2.476],[-60.894,2.508],[-60.944,2.521],[-60.917,2.564],[-60.913,2.597],[-60.92,2.632],[-60.94,2.65],[-61.001,2.682],[-61.036,2.676],[-61.075,2.691],[-61.137,2.701],[-61.184,2.677],[-61.214,2.682],[-61.223,2.656],[-61.293,2.673],[-61.296,2.704],[-61.325,2.728],[-61.336,2.761],[-61.357,2.771],[-61.37,2.827],[-61.406,2.861],[-61.435,2.868],[-61.474,2.892],[-61.523,2.896],[-61.58,2.948],[-61.628,2.934],[-61.704,2.852],[-61.725,2.785],[-61.742,2.765],[-61.734,2.719],[-61.776,2.72],[-61.795,2.705],[-61.86,2.684],[-61.914,2.692],[-61.974,2.689],[-61.98,2.719],[-62.01,2.734],[-62.035,2.729],[-62.083,2.746],[-62.19,2.749],[-62.212,2.764],[-62.237,2.755],[-62.294,2.759],[-62.347,2.775],[-62.407,2.783],[-62.486,2.77],[-62.525,2.745],[-62.623,2.726],[-62.664,2.703],[-62.69,2.705],[-62.765,2.73],[-62.794,2.724],[-62.86,2.772],[-62.913,2.762],[-62.91,2.721],[-62.932,2.702],[-62.991,2.673],[-63.011,2.677],[-63.033,2.659],[-63.038,2.625],[-63.07,2.588],[-63.073,2.553],[-63.05,2.525],[-63.073,2.483],[-63.044,2.442],[-63.045,2.391],[-63.024,2.369],[-62.952,2.371],[-62.937,2.341],[-62.879,2.331],[-62.852,2.303],[-62.834,2.304],[-62.822,2.27],[-62.747,2.249],[-62.679,2.256],[-62.612,2.243],[-62.596,2.219],[-62.599,2.195],[-62.584,2.152],[-62.549,2.128],[-62.491,2.109],[-62.423,2.11],[-62.41,2.118],[-62.34,2.193],[-62.306,2.19],[-62.252,2.216],[-62.151,2.226],[-62.135,2.237],[-62.073,2.222],[-62.031,2.222],[-61.931,2.26],[-61.895,2.295],[-61.871,2.301],[-61.839,2.339],[-61.811,2.354],[-61.776,2.403],[-61.721,2.437],[-61.624,2.453],[-61.577,2.447],[-61.508,2.45],[-61.411,2.409],[-61.396,2.387],[-61.339,2.264],[-61.306,2.279],[-61.277,2.268],[-61.227,2.28],[-61.194,2.255],[-61.051,2.298],[-60.983,2.25],[-60.954,2.237],[-60.938,2.215],[-60.91,2.236],[-60.891,2.284],[-60.846,2.313],[-60.836,2.352],[-60.847,2.398],[-60.837,2.438]]]}},{"type":"Feature","properties":{"code":"1400282"},"geometry":{"type":"Polygon","coordinates":[[[-60.938,2.215],[-60.954,2.237],[-60.983,2.25],[-61.051,2.298],[-61.194,2.255],[-61.227,2.28],[-61.277,2.268],[-61.306,2.279],[-61.339,2.264],[-61.396,2.387],[-61.411,2.409],[-61.508,2.45],[-61.577,2.447],[-61.624,2.453],[-61.721,2.437],[-61.776,2.403],[-61.811,2.354],[-61.839,2.339],[-61.871,2.301],[-61.895,2.295],[-61.931,2.26],[-62.031,2.222],[-62.073,2.222],[-62.135,2.237],[-62.151,2.226],[-62.252,2.216],[-62.306,2.19],[-62.34,2.193],[-62.41,2.118],[-62.423,2.11],[-62.491,2.109],[-62.549,2.128],[-62.584,2.152],[-62.599,2.195],[-62.596,2.219],[-62.612,2.243],[-62.679,2.256],[-62.747,2.249],[-62.822,2.27],[-62.834,2.304],[-62.852,2.303],[-62.879,2.331],[-62.937,2.341],[-62.952,2.371],[-63.024,2.369],[-63.045,2.391],[-63.044,2.442],[-63.073,2.483],[-63.05,2.525],[-63.073,2.553],[-63.07,2.588],[-63.038,2.625],[-63.033,2.659],[-63.011,2.677],[-62.991,2.673],[-62.932,2.702],[-62.91,2.721],[-62.913,2.762],[-62.972,2.776],[-62.984,2.795],[-63.016,2.802],[-63.099,2.791],[-63.167,2.798],[-63.192,2.818],[-63.244,2.818],[-63.298,2.776],[-63.356,2.775],[-63.388,2.757],[-63.425,2.778],[-63.461,2.761],[-63.459,2.736],[-63.474,2.705],[-63.467,2.668],[-63.483,2.657],[-63.473,2.618],[-63.524,2.572],[-63.572,2.592],[-63.611,2.591],[-63.644,2.622],[-63.67,2.597],[-63.958,2.47],[-63.96,2.473],[-63.954,2.46],[-63.913,2.473],[-63.896,2.466],[-63.85,2.494],[-63.826,2.491],[-63.798,2.463],[-63.749,2.441],[-63.703,2.459],[-63.654,2.439],[-63.592,2.456],[-63.566,2.435],[-63.527,2.421],[-63.499,2.426],[-63.441,2.418],[-63.43,2.446],[-63.373,2.426],[-63.356,2.38],[-63.377,2.356],[-63.361,2.326],[-63.361,2.278],[-63.378,2.226],[-63.372,2.212],[-63.311,2.165],[-63.276,2.154],[-63.194,2.181],[-63.146,2.173],[-63.12,2.096],[-63.077,2.046],[-63.024,2.015],[-62.98,2.018],[-62.949,2.031],[-62.839,2.016],[-62.813,1.992],[-62.73,1.96],[-62.703,1.934],[-62.704,1.874],[-62.731,1.818],[-62.722,1.722],[-62.729,1.7],[-62.793,1.635],[-62.805,1.591],[-62.736,1.53],[-62.671,1.535],[-62.595,1.587],[-62.49,1.635],[-62.399,1.684],[-62.36,1.714],[-62.286,1.758],[-62.243,1.776],[-62.143,1.831],[-62.038,1.883],[-61.958,1.914],[-61.896,1.923],[-61.874,1.934],[-61.816,1.932],[-61.782,1.946],[-61.724,1.937],[-61.615,1.938],[-61.589,1.959],[-61.553,1.968],[-61.534,1.989],[-61.479,2.013],[-61.449,2.01],[-61.415,2.026],[-61.366,1.997],[-61.333,1.994],[-61.282,1.977],[-61.2,1.972],[-61.099,1.984],[-61.022,2.0],[-61.053,2.063],[-61.041,2.1],[-61.016,2.145],[-60.938,2.215]]]}},{"type":"Feature","properties":{"code":"1400175"},"geometry":{"type":"Polygon","coordinates":[[[-60.157,2.0],[-60.166,2.037],[-60.215,2.05],[-60.252,2.025],[-60.27,2.072],[-60.218,2.151],[-60.177,2.145],[-60.158,2.159],[-60.165,2.239],[-60.204,2.243],[-60.206,2.296],[-60.177,2.343],[-60.181,2.387],[-60.194,2.391],[-60.202,2.435],[-60.195,2.54],[-60.223,2.562],[-60.222,2.594],[-60.259,2.601],[-60.312,2.647],[-60.377,2.643],[-60.394,2.659],[-60.347,2.702],[-60.331,2.749],[-60.357,2.793],[-60.421,2.808],[-60.447,2.825],[-60.511,2.838],[-60.557,2.86],[-60.568,2.885],[-60.609,2.854],[-60.649,2.835],[-60.672,2.795],[-60.695,2.728],[-60.72,2.708],[-60.775,2.643],[-60.824,2.547],[-60.828,2.455],[-60.837,2.438],[-60.847,2.398],[-60.836,2.352],[-60.846,2.313],[-60.891,2.284],[-60.91,2.236],[-60.938,2.215],[-61.016,2.145],[-61.041,2.1],[-61.053,2.063],[-61.022,2.0],[-61.02,1.982],[-60.978,1.946],[-60.929,1.984],[-60.831,1.983],[-60.789,1.999],[-60.742,2.0],[-60.76,1.958],[-60.76,1.936],[-60.74,1.897],[-60.707,1.902],[-60.655,1.898],[-60.639,1.87],[-60.59,1.851],[-60.578,1.833],[-60.575,1.79],[-60.545,1.752],[-60.568,1.724],[-60.528,1.723],[-60.491,1.71],[-60.486,1.729],[-60.406,1.746],[-60.39,1.738],[-60.358,1.776],[-60.333,1.789],[-60.302,1.827],[-60.28,1.838],[-60.23,1.884],[-60.166,1.959],[-60.157,2.0]]]}},{"type":"Feature","properties":{"code":"1400159"},"geometry":{"type":"Polygon","coordinates":[[[-60.157,2.0],[-59.735,2.0],[-59.723,2.023],[-59.742,2.07],[-59.723,2.098],[-59.725,2.131],[-59.739,2.147],[-59.74,2.18],[-59.72,2.237],[-59.741,2.293],[-59.78,2.286],[-59.87,2.35],[-59.899,2.364],[-59.909,2.389],[-59.892,2.428],[-59.898,2.482],[-59.921,2.508],[-59.938,2.552],[-59.929,2.57],[-59.972,2.599],[-59.963,2.614],[-59.978,2.643],[-59.974,2.667],[-59.992,2.684],[-59.988,2.744],[-59.993,2.786],[-59.984,2.929],[-59.947,3.001],[-59.962,3.016],[-59.952,3.042],[-59.956,3.082],[-59.941,3.086],[-59.919,3.134],[-59.9,3.156],[-59.913,3.193],[-59.907,3.214],[-59.874,3.229],[-59.881,3.26],[-59.859,3.278],[-59.828,3.334],[-59.805,3.356],[-59.821,3.417],[-59.841,3.425],[-59.824,3.472],[-59.802,3.492],[-59.805,3.511],[-59.837,3.526],[-59.843,3.553],[-59.873,3.564],[-59.906,3.586],[-59.936,3.559],[-59.958,3.573],[-60.052,3.527],[-60.083,3.494],[-60.178,3.443],[-60.197,3.407],[-60.295,3.387],[-60.321,3.369],[-60.343,3.322],[-60.406,3.289],[-60.409,3.255],[-60.386,3.214],[-60.374,3.171],[-60.453,3.042],[-60.484,3.023],[-60.504,2.973],[-60.541,2.915],[-60.568,2.885],[-60.557,2.86],[-60.511,2.838],[-60.447,2.825],[-60.421,2.808],[-60.357,2.793],[-60.331,2.749],[-60.347,2.702],[-60.394,2.659],[-60.377,2.643],[-60.312,2.647],[-60.259,2.601],[-60.222,2.594],[-60.223,2.562],[-60.195,2.54],[-60.202,2.435],[-60.194,2.391],[-60.181,2.387],[-60.177,2.343],[-60.206,2.296],[-60.204,2.243],[-60.165,2.239],[-60.158,2.159],[-60.177,2.145],[-60.218,2.151],[-60.27,2.072],[-60.252,2.025],[-60.215,2.05],[-60.166,2.037],[-60.157,2.0]]]}},{"type":"Feature","properties":{"code":"1400233"},"geometry":{"type":"Polygon","coordinates":[[[-58.895,0.264],[-58.896,0.592],[-58.895,0.905],[-58.896,1.23],[-58.888,1.262],[-58.924,1.29],[-58.923,1.318],[-58.983,1.305],[-58.991,1.325],[-59.021,1.331],[-59.048,1.322],[-59.089,1.347],[-59.144,1.347],[-59.269,1.4],[-59.3,1.462],[-59.322,1.482],[-59.338,1.518],[-59.372,1.505],[-59.414,1.551],[-59.448,1.546],[-59.48,1.591],[-59.519,1.59],[-59.592,1.609],[-59.63,1.624],[-59.648,1.607],[-59.679,1.617],[-59.709,1.604],[-59.765,1.606],[-59.767,1.563],[-59.793,1.55],[-59.818,1.49],[-59.818,1.451],[-59.792,1.431],[-59.772,1.366],[-59.791,1.339],[-59.779,1.276],[-59.753,1.19],[-59.739,1.076],[-59.752,1.001],[-59.76,0.905],[-59.779,0.82],[-59.815,0.618],[-59.743,0.542],[-59.687,0.54],[-59.65,0.571],[-59.594,0.564],[-59.589,0.545],[-59.546,0.521],[-59.523,0.49],[-59.505,0.437],[-59.464,0.428],[-59.454,0.384],[-59.471,0.345],[-59.437,0.29],[-59.434,0.264],[-59.192,0.264],[-58.895,0.264]]]}},{"type":"Feature","properties":{"code":"1400209"},"geometry":{"type":"Polygon","coordinates":[[[-61.84,-1.401],[-61.869,-1.356],[-61.873,-1.33],[-61.84,-1.265],[-61.846,-1.217],[-61.881,-1.118],[-61.859,-1.057],[-61.89,-1.0],[-61.87,-0.932],[-61.884,-0.894],[-61.875,-0.86],[-61.848,-0.822],[-61.868,-0.724],[-61.81,-0.608],[-61.813,-0.559],[-61.825,-0.526],[-61.802,-0.474],[-61.802,-0.45],[-61.845,-0.389],[-61.846,-0.363],[-61.83,-0.318],[-61.838,-0.272],[-61.808,-0.146],[-61.791,-0.106],[-61.816,-0.038],[-61.78,0.039],[-61.77,0.097],[-61.778,0.168],[-61.77,0.243],[-61.759,0.31],[-61.731,0.36],[-61.711,0.436],[-61.684,0.49],[-61.65,0.515],[-61.633,0.547],[-61.617,0.602],[-61.559,0.679],[-61.501,0.724],[-61.454,0.785],[-61.429,0.842],[-61.424,0.87],[-61.376,0.925],[-61.346,0.98],[-61.318,0.995],[-61.289,0.979],[-61.251,0.972],[-61.219,1.0],[-61.198,0.959],[-61.174,0.962],[-61.128,0.944],[-61.106,0.991],[-61.068,1.009],[-61.064,1.038],[-61.013,1.098],[-60.995,1.083],[-60.961,1.089],[-60.924,1.073],[-60.885,1.13],[-60.852,1.103],[-60.821,1.064],[-60.823,1.006],[-60.775,0.941],[-60.734,0.933],[-60.732,0.883],[-60.714,0.867],[-60.669,0.879],[-60.651,0.903],[-60.62,0.897],[-60.584,0.932],[-60.561,0.939],[-60.534,0.993],[-60.514,0.99],[-60.505,1.034],[-60.484,1.045],[-60.464,1.083],[-60.4,1.132],[-60.376,1.139],[-60.342,1.133],[-60.318,1.142],[-60.292,1.115],[-60.267,1.128],[-60.215,1.129],[-60.132,1.103],[-60.09,1.101],[-60.039,1.122],[-59.997,1.123],[-59.982,1.135],[-59.961,1.178],[-59.89,1.197],[-59.867,1.188],[-59.841,1.203],[-59.824,1.256],[-59.779,1.276],[-59.791,1.339],[-59.772,1.366],[-59.792,1.431],[-59.818,1.451],[-59.818,1.49],[-59.793,1.55],[-59.767,1.563],[-59.765,1.606],[-59.709,1.604],[-59.679,1.617],[-59.648,1.607],[-59.63,1.624],[-59.592,1.609],[-59.519,1.59],[-59.48,1.591],[-59.448,1.546],[-59.414,1.551],[-59.446,1.618],[-59.466,1.617],[-59.513,1.671],[-59.533,1.716],[-59.566,1.736],[-59.62,1.717],[-59.633,1.74],[-59.691,1.757],[-59.679,1.808],[-59.655,1.816],[-59.65,1.845],[-59.724,1.841],[-59.751,1.907],[-59.739,1.948],[-59.735,2.0],[-60.157,2.0],[-60.166,1.959],[-60.23,1.884],[-60.28,1.838],[-60.302,1.827],[-60.333,1.789],[-60.358,1.776],[-60.39,1.738],[-60.406,1.746],[-60.486,1.729],[-60.491,1.71],[-60.528,1.723],[-60.568,1.724],[-60.545,1.752],[-60.575,1.79],[-60.578,1.833],[-60.59,1.851],[-60.639,1.87],[-60.655,1.898],[-60.707,1.902],[-60.74,1.897],[-60.76,1.936],[-60.76,1.958],[-60.742,2.0],[-60.789,1.999],[-60.831,1.983],[-60.929,1.984],[-60.978,1.946],[-61.02,1.982],[-61.022,2.0],[-61.099,1.984],[-61.2,1.972],[-61.282,1.977],[-61.333,1.994],[-61.366,1.997],[-61.415,2.026],[-61.449,2.01],[-61.479,2.013],[-61.534,1.989],[-61.553,1.968],[-61.589,1.959],[-61.615,1.938],[-61.724,1.937],[-61.782,1.946],[-61.816,1.932],[-61.874,1.934],[-61.896,1.923],[-61.958,1.914],[-62.038,1.883],[-62.143,1.831],[-62.243,1.776],[-62.286,1.758],[-62.36,1.714],[-62.399,1.684],[-62.49,1.635],[-62.595,1.587],[-62.671,1.535],[-62.736,1.53],[-62.731,1.5],[-62.677,1.455],[-62.64,1.438],[-62.62,1.404],[-62.62,1.363],[-62.602,1.326],[-62.597,1.29],[-62.559,1.188],[-62.545,1.121],[-62.521,1.084],[-62.472,1.086],[-62.479,1.048],[-62.475,1.016],[-62.446,0.977],[-62.443,0.959],[-62.467,0.924],[-62.485,0.876],[-62.481,0.843],[-62.466,0.829],[-62.463,0.777],[-62.501,0.748],[-62.533,0.701],[-62.538,0.675],[-62.519,0.594],[-62.533,0.509],[-62.519,0.444],[-62.485,0.454],[-62.459,0.418],[-62.446,0.379],[-62.467,0.333],[-62.459,0.314],[-62.467,0.268],[-62.453,0.207],[-62.439,0.195],[-62.424,0.153],[-62.428,0.128],[-62.409,0.075],[-62.37,0.058],[-62.337,0.022],[-62.326,-0.003],[-62.32,-0.096],[-62.278,-0.15],[-62.242,-0.171],[-62.253,-0.27],[-62.24,-0.301],[-62.189,-0.322],[-62.197,-0.363],[-62.233,-0.424],[-62.28,-0.451],[-62.285,-0.493],[-62.307,-0.508],[-62.312,-0.576],[-62.291,-0.599],[-62.287,-0.632],[-62.308,-0.658],[-62.352,-0.673],[-62.375,-0.708],[-62.413,-0.703],[-62.445,-0.686],[-62.487,-0.681],[-62.508,-0.714],[-62.495,-0.751],[-62.501,-0.781],[-62.462,-0.802],[-62.433,-0.804],[-62.376,-0.837],[-62.365,-0.877],[-62.313,-0.93],[-62.272,-0.952],[-62.259,-0.976],[-62.227,-0.973],[-62.2,-1.0],[-62.172,-1.006],[-62.143,-1.037],[-62.126,-1.037],[-62.118,-1.077],[-62.1,-1.097],[-62.062,-1.1],[-62.017,-1.142],[-61.967,-1.243],[-61.95,-1.297],[-61.907,-1.356],[-61.897,-1.395],[-61.84,-1.401]]]}}]}