{"type":"FeatureCollection","features":[{"type":"Feature","properties":{"code":"1600808"},"geometry":{"type":"Polygon","coordinates":[[[-52.456,-0.83],[-52.412,-0.863],[-52.405,-0.913],[-52.427,-0.919],[-52.439,-0.944],[-52.419,-0.972],[-52.417,-1.026],[-52.4,-1.044],[-52.358,-1.063],[-52.333,-1.116],[-52.215,-1.135],[-52.179,-1.13],[-52.147,-1.149],[-52.12,-1.146],[-52.107,-1.183],[-52.111,-1.215],[-52.071,-1.236],[-52.048,-1.214],[-52.055,-1.177],[-51.987,-1.165],[-51.949,-1.169],[-51.923,-1.133],[-51.882,-1.166],[-51.809,-1.157],[-51.778,-1.14],[-51.7,-1.063],[-51.686,-1.013],[-51.696,-0.925],[-51.684,-0.795],[-51.72,-0.808],[-51.73,-0.858],[-51.77,-0.868],[-51.809,-0.863],[-51.823,-0.909],[-51.882,-0.88],[-51.938,-0.87],[-51.984,-0.878],[-52.064,-0.923],[-52.085,-0.909],[-52.134,-0.914],[-52.153,-0.9],[-52.199,-0.834],[-52.287,-0.798],[-52.372,-0.798],[-52.456,-0.83]]]}},{"type":"Feature","properties":{"code":"1600600"},"geometry":{"type":"Polygon","coordinates":[[[-51.118,-0.098],[-51.145,-0.033],[-51.105,0.0],[-51.204,0.0],[-51.235,0.018],[-51.244,0.048],[-51.224,0.059],[-51.194,0.098],[-51.19,0.156],[-51.247,0.172],[-51.271,0.164],[-51.29,0.204],[-51.325,0.228],[-51.345,0.268],[-51.39,0.337],[-51.415,0.367],[-51.446,0.371],[-51.464,0.427],[-51.493,0.468],[-51.515,0.43],[-51.536,0.419],[-51.528,0.297],[-51.547,0.262],[-51.546,0.236],[-51.569,0.217],[-51.573,0.145],[-51.542,0.089],[-51.53,0.05],[-51.448,0.01],[-51.434,-0.034],[-51.402,-0.064],[-51.325,-0.082],[-51.317,-0.075],[-51.218,-0.087],[-51.208,-0.117],[-51.172,-0.104],[-51.118,-0.098]]]}},{"type":"Feature","properties":{"code":"1600709"},"geometry":{"type":"Polygon","coordinates":[[[-50.893,0.993],[-50.874,0.961],[-50.826,0.961],[-50.815,0.999],[-50.795,1.03],[-50.751,1.042],[-50.718,1.041],[-50.682,1.054],[-50.662,1.027],[-50.633,1.03],[-50.644,1.073],[-50.632,1.089],[-50.598,1.092],[-50.576,1.077],[-50.556,1.092],[-50.527,1.042],[-50.484,1.069],[-50.468,1.096],[-50.461,1.157],[-50.423,1.187],[-50.421,1.226],[-50.435,1.24],[-50.5,1.363],[-50.561,1.472],[-50.861,1.592],[-50.909,1.586],[-50.934,1.619],[-50.983,1.596],[-51.016,1.608],[-51.028,1.647],[-51.055,1.616],[-51.09,1.599],[-51.151,1.604],[-51.17,1.633],[-51.202,1.633],[-51.235,1.653],[-51.255,1.679],[-51.323,1.69],[-51.428,1.64],[-51.455,1.6],[-51.443,1.579],[-51.445,1.53],[-51.422,1.524],[-51.4,1.463],[-51.368,1.429],[-51.383,1.404],[-51.389,1.323],[-51.406,1.27],[-51.426,1.264],[-51.444,1.236],[-51.436,1.187],[-51.454,1.114],[-51.483,1.087],[-51.467,1.068],[-51.407,1.051],[-51.41,0.998],[-51.352,0.958],[-51.343,0.982],[-51.303,0.99],[-51.263,0.979],[-51.235,0.959],[-51.183,1.035],[-51.151,1.031],[-51.128,1.01],[-51.088,1.025],[-51.036,1.006],[-51.036,0.99],[-51.002,0.941],[-50.982,0.982],[-50.945,0.994],[-50.893,0.993]]]}},{"type":"Feature","properties":{"code":"1600253"},"geometry":{"type":"Polygon","coordinates":[[[-50.41,0.623],[-50.443,0.662],[-50.437,0.685],[-50.457,0.73],[-50.481,0.73],[-50.498,0.754],[-50.57,0.77],[-50.581,0.743],[-50.614,0.752],[-50.616,0.692],[-50.632,0.625],[-50.649,0.606],[-50.701,0.613],[-50.714,0.643],[-50.747,0.643],[-50.778,0.696],[-50.809,0.722],[-50.828,0.752],[-50.85,0.755],[-50.891,0.675],[-50.908,0.686],[-50.941,0.67],[-50.925,0.649],[-50.907,0.568],[-50.867,0.578],[-50.824,0.553],[-50.807,0.527],[-50.777,0.546],[-50.751,0.481],[-50.708,0.44],[-50.684,0.381],[-50.688,0.339],[-50.705,0.298],[-50.645,0.209],[-50.6,0.249],[-50.553,0.312],[-50.524,0.372],[-50.504,0.435],[-50.476,0.481],[-50.467,0.531],[-50.437,0.6],[-50.41,0.623]]]}},{"type":"Feature","properties":{"code":"1600238"},"geometry":{"type":"Polygon","coordinates":[[[-51.048,0.423],[-51.03,0.428],[-51.002,0.496],[-50.952,0.524],[-50.987,0.55],[-51.001,0.573],[-50.988,0.605],[-50.996,0.644],[-50.974,0.696],[-50.913,0.728],[-50.916,0.767],[-50.887,0.798],[-50.916,0.804],[-50.952,0.829],[-50.938,0.892],[-50.914,0.896],[-50.924,0.941],[-50.893,0.993],[-50.945,0.994],[-50.982,0.982],[-51.002,0.941],[-51.036,0.99],[-51.036,1.006],[-51.088,1.025],[-51.128,1.01],[-51.151,1.031],[-51.183,1.035],[-51.235,0.959],[-51.263,0.979],[-51.303,0.99],[-51.343,0.982],[-51.352,0.958],[-51.41,0.998],[-51.407,1.051],[-51.467,1.068],[-51.483,1.087],[-51.454,1.114],[-51.436,1.187],[-51.444,1.236],[-51.426,1.264],[-51.406,1.27],[-51.389,1.323],[-51.501,1.324],[-51.991,1.317],[-52.001,1.28],[-51.999,1.234],[-52.009,1.188],[-51.99,1.179],[-51.993,1.137],[-51.978,1.091],[-51.983,1.053],[-51.919,1.056],[-51.876,1.035],[-51.84,1.039],[-51.816,1.003],[-51.815,0.976],[-51.783,0.994],[-51.74,0.979],[-51.715,0.994],[-51.667,0.988],[-51.664,0.961],[-51.64,0.955],[-51.596,0.924],[-51.603,0.89],[-51.627,0.865],[-51.616,0.835],[-51.539,0.878],[-51.511,0.879],[-51.485,0.855],[-51.48,0.807],[-51.454,0.77],[-51.395,0.736],[-51.369,0.747],[-51.339,0.736],[-51.37,0.696],[-51.358,0.658],[-51.281,0.633],[-51.252,0.613],[-51.202,0.596],[-51.15,0.564],[-51.132,0.517],[-51.102,0.476],[-51.044,0.436],[-51.048,0.423]]]}},{"type":"Feature","properties":{"code":"1600212"},"geometry":{"type":"Polygon","coordinates":[[[-50.887,0.798],[-50.795,0.844],[-50.769,0.823],[-50.717,0.817],[-50.674,0.842],[-50.661,0.869],[-50.622,0.869],[-50.607,0.892],[-50.578,0.874],[-50.535,0.873],[-50.499,0.928],[-50.466,0.918],[-50.421,0.961],[-50.381,0.924],[-50.327,0.945],[-50.307,0.944],[-50.186,1.05],[-50.178,1.098],[-50.149,1.103],[-50.139,1.129],[-50.092,1.157],[-50.067,1.217],[-50.12,1.204],[-50.145,1.22],[-50.124,1.28],[-50.132,1.329],[-50.214,1.335],[-50.278,1.318],[-50.306,1.273],[-50.283,1.23],[-50.282,1.209],[-50.308,1.176],[-50.368,1.17],[-50.396,1.192],[-50.423,1.187],[-50.461,1.157],[-50.468,1.096],[-50.484,1.069],[-50.527,1.042],[-50.556,1.092],[-50.576,1.077],[-50.598,1.092],[-50.632,1.089],[-50.644,1.073],[-50.633,1.03],[-50.662,1.027],[-50.682,1.054],[-50.718,1.041],[-50.751,1.042],[-50.795,1.03],[-50.815,0.999],[-50.826,0.961],[-50.874,0.961],[-50.893,0.993],[-50.924,0.941],[-50.914,0.896],[-50.938,0.892],[-50.952,0.829],[-50.916,0.804],[-50.887,0.798]]]}},{"type":"Feature","properties":{"code":"1600204"},"geometry":{"type":"Polygon","coordinates":[[[-51.647,1.876],[-51.646,1.926],[-51.659,1.953],[-51.631,1.995],[-51.589,2.023],[-51.602,2.048],[-51.571,2.114],[-51.526,2.04],[-51.495,2.024],[-51.442,2.063],[-51.375,2.018],[-51.28,2.079],[-51.16,2.15],[-51.093,2.165],[-51.075,2.181],[-50.983,2.153],[-50.961,2.173],[-50.915,2.151],[-50.872,2.164],[-50.843,2.14],[-50.813,2.177],[-50.787,2.169],[-50.777,2.147],[-50.743,2.119],[-50.729,2.148],[-50.709,2.135],[-50.684,2.144],[-50.687,2.191],[-50.725,2.253],[-50.723,2.288],[-50.741,2.309],[-50.747,2.353],[-50.768,2.407],[-50.77,2.453],[-50.794,2.498],[-50.816,2.503],[-50.844,2.601],[-50.848,2.64],[-50.88,2.684],[-50.887,2.746],[-50.906,2.782],[-50.945,2.818],[-50.954,2.837],[-50.949,2.875],[-50.984,2.937],[-50.999,3.011],[-51.021,3.051],[-51.014,3.086],[-51.044,3.134],[-51.033,3.214],[-51.065,3.288],[-51.087,3.35],[-51.109,3.451],[-51.091,3.481],[-51.082,3.559],[-51.086,3.591],[-51.091,3.739],[-51.081,3.885],[-51.102,3.913],[-51.151,3.914],[-51.163,3.868],[-51.183,3.741],[-51.199,3.659],[-51.187,3.624],[-51.182,3.529],[-51.192,3.434],[-51.174,3.338],[-51.175,3.293],[-51.193,3.226],[-51.224,3.215],[-51.254,3.189],[-51.243,3.134],[-51.309,3.069],[-51.359,3.052],[-51.399,3.022],[-51.393,3.0],[-51.44,2.937],[-51.425,2.913],[-51.436,2.884],[-51.466,2.87],[-51.482,2.838],[-51.527,2.824],[-51.519,2.805],[-51.533,2.758],[-51.569,2.698],[-51.64,2.619],[-51.657,2.585],[-51.639,2.567],[-51.653,2.535],[-51.679,2.529],[-51.69,2.484],[-51.729,2.435],[-51.749,2.424],[-51.77,2.381],[-51.797,2.388],[-51.821,2.372],[-51.852,2.369],[-51.887,2.34],[-51.956,2.406],[-52.016,2.437],[-52.041,2.424],[-52.038,2.342],[-52.065,2.289],[-52.064,2.263],[-52.037,2.232],[-52.041,2.176],[-52.029,2.114],[-52.01,2.082],[-52.0,2.034],[-52.02,1.965],[-52.013,1.933],[-52.05,1.861],[-52.045,1.786],[-52.053,1.712],[-52.046,1.675],[-52.021,1.644],[-52.022,1.613],[-52.039,1.574],[-52.036,1.533],[-52.02,1.496],[-52.044,1.448],[-52.035,1.401],[-52.007,1.369],[-52.015,1.326],[-51.991,1.317],[-51.969,1.341],[-51.973,1.363],[-51.954,1.397],[-51.924,1.387],[-51.873,1.443],[-51.867,1.466],[-51.822,1.521],[-51.8,1.534],[-51.78,1.572],[-51.739,1.591],[-51.716,1.647],[-51.684,1.806],[-51.647,1.876]]]}},{"type":"Feature","properties":{"code":"1600303"},"geometry":{"type":"Polygon","coordinates":[[[-51.493,0.468],[-51.464,0.427],[-51.446,0.371],[-51.415,0.367],[-51.39,0.337],[-51.345,0.268],[-51.325,0.228],[-51.29,0.204],[-51.271,0.164],[-51.247,0.172],[-51.19,0.156],[-51.194,0.098],[-51.224,0.059],[-51.244,0.048],[-51.235,0.018],[-51.204,0.0],[-51.105,0.0],[-51.145,-0.033],[-51.118,-0.098],[-51.069,-0.079],[-51.017,-0.011],[-50.997,0.004],[-50.975,0.042],[-50.921,0.076],[-50.785,0.112],[-50.743,0.131],[-50.668,0.185],[-50.645,0.209],[-50.705,0.298],[-50.688,0.339],[-50.684,0.381],[-50.708,0.44],[-50.751,0.481],[-50.777,0.546],[-50.807,0.527],[-50.824,0.553],[-50.867,0.578],[-50.907,0.568],[-50.925,0.649],[-50.941,0.67],[-50.908,0.686],[-50.891,0.675],[-50.85,0.755],[-50.828,0.752],[-50.809,0.722],[-50.778,0.696],[-50.747,0.643],[-50.714,0.643],[-50.701,0.613],[-50.649,0.606],[-50.632,0.625],[-50.616,0.692],[-50.614,0.752],[-50.581,0.743],[-50.57,0.77],[-50.498,0.754],[-50.481,0.73],[-50.457,0.73],[-50.437,0.685],[-50.443,0.662],[-50.41,0.623],[-50.329,0.674],[-50.226,0.696],[-50.22,0.743],[-50.153,0.75],[-50.097,0.767],[-50.037,0.833],[-50.02,0.859],[-49.988,0.875],[-50.002,0.906],[-49.989,0.94],[-49.944,0.959],[-49.927,0.985],[-49.89,1.014],[-49.885,1.047],[-49.883,1.169],[-49.895,1.182],[-49.902,1.24],[-49.988,1.222],[-50.067,1.217],[-50.092,1.157],[-50.139,1.129],[-50.149,1.103],[-50.178,1.098],[-50.186,1.05],[-50.307,0.944],[-50.327,0.945],[-50.381,0.924],[-50.421,0.961],[-50.466,0.918],[-50.499,0.928],[-50.535,0.873],[-50.578,0.874],[-50.607,0.892],[-50.622,0.869],[-50.661,0.869],[-50.674,0.842],[-50.717,0.817],[-50.769,0.823],[-50.795,0.844],[-50.887,0.798],[-50.916,0.767],[-50.913,0.728],[-50.974,0.696],[-50.996,0.644],[-50.988,0.605],[-51.001,0.573],[-50.987,0.55],[-50.952,0.524],[-51.002,0.496],[-51.03,0.428],[-51.048,0.423],[-51.061,0.442],[-51.094,0.428],[-51.117,0.394],[-51.137,0.335],[-51.176,0.307],[-51.206,0.317],[-51.208,0.378],[-51.236,0.404],[-51.263,0.454],[-51.31,0.474],[-51.332,0.467],[-51.368,0.487],[-51.411,0.484],[-51.425,0.503],[-51.461,0.506],[-51.474,0.476],[-51.493,0.468]]]}},{"type":"Feature","properties":{"code":"1600279"},"geometry":{"type":"Polygon","coordinates":[[[-52.456,-0.83],[-52.372,-0.798],[-52.287,-0.798],[-52.199,-0.834],[-52.153,-0.9],[-52.134,-0.914],[-52.085,-0.909],[-52.064,-0.923],[-51.984,-0.878],[-51.938,-0.87],[-51.958,-0.842],[-51.939,-0.804],[-51.936,-0.767],[-51.979,-0.724],[-51.987,-0.687],[-52.023,-0.68],[-52.056,-0.641],[-52.048,-0.605],[-52.075,-0.549],[-52.085,-0.514],[-52.067,-0.491],[-52.082,-0.447],[-52.087,-0.383],[-52.081,-0.336],[-52.097,-0.33],[-52.126,-0.291],[-52.198,-0.257],[-52.237,-0.259],[-52.287,-0.252],[-52.331,-0.203],[-52.352,-0.143],[-52.436,-0.108],[-52.5,-0.115],[-52.522,-0.141],[-52.553,-0.144],[-52.556,-0.095],[-52.506,-0.015],[-52.506,0.022],[-52.517,0.065],[-52.501,0.167],[-52.49,0.19],[-52.503,0.231],[-52.489,0.254],[-52.495,0.288],[-52.572,0.383],[-52.57,0.409],[-52.605,0.47],[-52.611,0.495],[-52.662,0.542],[-52.681,0.582],[-52.692,0.64],[-52.675,0.727],[-52.686,0.767],[-52.725,0.783],[-52.754,0.807],[-52.753,0.824],[-52.748,0.853],[-52.792,0.885],[-52.823,0.876],[-52.837,0.898],[-52.824,0.93],[-52.867,0.967],[-52.878,1.0],[-52.879,1.04],[-52.894,1.088],[-52.96,1.127],[-52.972,1.206],[-52.953,1.266],[-52.927,1.279],[-52.928,1.318],[-52.915,1.358],[-52.888,1.394],[-52.869,1.444],[-52.863,1.52],[-52.896,1.556],[-52.965,1.559],[-52.99,1.608],[-52.993,1.648],[-52.974,1.718],[-53.013,1.787],[-52.996,1.822],[-53.026,1.854],[-53.027,1.875],[-53.052,1.914],[-53.059,1.947],[-53.078,1.951],[-53.111,1.981],[-53.132,2.017],[-53.139,2.101],[-53.247,2.151],[-53.27,2.171],[-53.276,2.194],[-53.258,2.242],[-53.226,2.262],[-53.263,2.276],[-53.26,2.293],[-53.31,2.315],[-53.342,2.351],[-53.371,2.313],[-53.428,2.296],[-53.451,2.26],[-53.588,2.269],[-53.605,2.281],[-53.659,2.28],[-53.696,2.31],[-53.743,2.309],[-53.723,2.349],[-53.769,2.375],[-53.811,2.352],[-53.849,2.314],[-53.883,2.308],[-53.901,2.272],[-53.922,2.287],[-53.942,2.273],[-53.94,2.22],[-53.985,2.212],[-54.015,2.183],[-54.059,2.197],[-54.112,2.118],[-54.153,2.122],[-54.157,2.137],[-54.204,2.163],[-54.258,2.154],[-54.267,2.143],[-54.321,2.159],[-54.335,2.154],[-54.363,2.178],[-54.359,2.224],[-54.397,2.204],[-54.431,2.215],[-54.444,2.204],[-54.478,2.216],[-54.504,2.254],[-54.536,2.325],[-54.617,2.322],[-54.662,2.328],[-54.668,2.349],[-54.706,2.362],[-54.714,2.408],[-54.687,2.443],[-54.74,2.472],[-54.795,2.431],[-54.828,2.421],[-54.871,2.436],[-54.875,2.415],[-54.808,2.342],[-54.796,2.318],[-54.811,2.266],[-54.763,2.202],[-54.768,2.181],[-54.806,2.139],[-54.804,2.026],[-54.756,1.974],[-54.77,1.926],[-54.739,1.825],[-54.754,1.798],[-54.745,1.776],[-54.644,1.769],[-54.602,1.785],[-54.531,1.767],[-54.496,1.747],[-54.457,1.758],[-54.352,1.754],[-54.27,1.705],[-54.263,1.688],[-54.201,1.646],[-54.186,1.654],[-54.144,1.641],[-54.102,1.584],[-54.099,1.55],[-54.069,1.501],[-54.052,1.494],[-54.02,1.516],[-54.002,1.484],[-53.967,1.484],[-53.896,1.455],[-53.877,1.432],[-53.888,1.408],[-53.824,1.39],[-53.784,1.403],[-53.702,1.378],[-53.665,1.375],[-53.633,1.347],[-53.595,1.358],[-53.538,1.341],[-53.533,1.322],[-53.563,1.307],[-53.553,1.28],[-53.523,1.261],[-53.546,1.228],[-53.525,1.212],[-53.474,1.239],[-53.426,1.226],[-53.396,1.179],[-53.402,1.154],[-53.444,1.151],[-53.459,1.134],[-53.456,1.077],[-53.422,1.034],[-53.427,0.992],[-53.411,0.982],[-53.411,0.929],[-53.288,0.846],[-53.255,0.809],[-53.19,0.768],[-53.185,0.748],[-53.157,0.729],[-53.147,0.7],[-53.106,0.679],[-53.123,0.63],[-53.147,0.6],[-53.152,0.532],[-53.17,0.494],[-53.155,0.48],[-53.168,0.446],[-53.161,0.399],[-53.175,0.382],[-53.136,0.326],[-53.131,0.296],[-53.094,0.259],[-53.106,0.237],[-53.094,0.195],[-53.052,0.157],[-53.029,0.105],[-53.011,0.095],[-53.015,0.06],[-52.983,0.033],[-52.969,-0.05],[-52.933,-0.142],[-52.904,-0.155],[-52.872,-0.143],[-52.852,-0.15],[-52.836,-0.186],[-52.76,-0.238],[-52.754,-0.262],[-52.684,-0.314],[-52.682,-0.34],[-52.697,-0.393],[-52.679,-0.424],[-52.703,-0.459],[-52.695,-0.496],[-52.64,-0.585],[-52.613,-0.595],[-52.576,-0.576],[-52.535,-0.574],[-52.513,-0.62],[-52.51,-0.679],[-52.497,-0.711],[-52.502,-0.747],[-52.518,-0.775],[-52.517,-0.809],[-52.542,-0.837],[-52.511,-0.857],[-52.456,-0.83]]]}},{"type":"Feature","properties":{"code":"1600105"},"geometry":{"type":"MultiPolygon","coordinates":[[[[-50.561,1.472],[-50.5,1.363],[-50.435,1.24],[-50.421,1.226],[-50.423,1.187],[-50.396,1.192],[-50.368,1.17],[-50.308,1.176],[-50.282,1.209],[-50.283,1.23],[-50.306,1.273],[-50.278,1.318],[-50.214,1.335],[-50.132,1.329],[-50.124,1.28],[-50.145,1.22],[-50.12,1.204],[-50.067,1.217],[-49.988,1.222],[-49.902,1.24],[-49.904,1.296],[-49.884,1.34],[-49.876,1.423],[-49.882,1.5],[-49.898,1.557],[-49.9,1.602],[-49.921,1.688],[-49.958,1.72],[-50.032,1.76],[-50.132,1.796],[-50.159,1.811],[-50.29,1.808],[-50.325,1.815],[-50.373,1.801],[-50.424,1.804],[-50.475,1.839],[-50.508,1.888],[-50.526,1.93],[-50.558,1.956],[-50.583,1.99],[-50.6,2.041],[-50.598,2.064],[-50.642,2.113],[-50.684,2.144],[-50.709,2.135],[-50.729,2.148],[-50.743,2.119],[-50.777,2.147],[-50.787,2.169],[-50.813,2.177],[-50.843,2.14],[-50.872,2.164],[-50.915,2.151],[-50.961,2.173],[-50.983,2.153],[-51.075,2.181],[-51.093,2.165],[-51.16,2.15],[-51.28,2.079],[-51.375,2.018],[-51.442,2.063],[-51.495,2.024],[-51.526,2.04],[-51.571,2.114],[-51.602,2.048],[-51.589,2.023],[-51.631,1.995],[-51.659,1.953],[-51.646,1.926],[-51.647,1.876],[-51.593,1.885],[-51.556,1.852],[-51.536,1.852],[-51.482,1.81],[-51.446,1.772],[-51.421,1.766],[-51.383,1.794],[-51.363,1.847],[-51.309,1.866],[-51.286,1.894],[-51.263,1.894],[-51.237,1.873],[-51.208,1.889],[-51.153,1.884],[-51.107,1.85],[-51.035,1.869],[-50.992,1.839],[-50.902,1.823],[-50.868,1.832],[-50.798,1.786],[-50.77,1.826],[-50.728,1.816],[-50.689,1.829],[-50.641,1.829],[-50.617,1.768],[-50.611,1.736],[-50.584,1.732],[-50.568,1.713],[-50.58,1.68],[-50.541,1.597],[-50.536,1.492],[-50.561,1.472]]],[[[-50.521,2.005],[-50.499,1.994],[-50.491,1.965],[-50.466,1.923],[-50.455,1.889],[-50.425,1.867],[-50.367,1.889],[-50.317,1.948],[-50.322,1.975],[-50.362,2.022],[-50.361,2.057],[-50.405,2.111],[-50.457,2.113],[-50.468,2.1],[-50.504,2.094],[-50.521,2.005]]],[[[-50.553,2.151],[-50.527,2.134],[-50.508,2.1],[-50.469,2.104],[-50.458,2.115],[-50.423,2.119],[-50.424,2.147],[-50.463,2.182],[-50.514,2.185],[-50.553,2.151]]]]}},{"type":"Feature","properties":{"code":"1600154"},"geometry":{"type":"Polygon","coordinates":[[[-51.815,0.976],[-51.845,0.957],[-51.909,0.938],[-51.936,0.867],[-51.958,0.848],[-51.992,0.859],[-52.03,0.857],[-52.058,0.879],[-52.048,0.936],[-52.024,0.958],[-52.018,0.986],[-52.073,1.009],[-52.104,0.989],[-52.163,1.018],[-52.193,1.011],[-52.201,1.044],[-52.222,1.061],[-52.275,1.069],[-52.31,1.138],[-52.359,1.147],[-52.358,1.172],[-52.411,1.246],[-52.434,1.256],[-52.446,1.285],[-52.494,1.288],[-52.479,1.334],[-52.449,1.372],[-52.474,1.402],[-52.472,1.445],[-52.505,1.563],[-52.482,1.583],[-52.513,1.65],[-52.536,1.663],[-52.558,1.707],[-52.556,1.727],[-52.589,1.738],[-52.605,1.768],[-52.651,1.799],[-52.662,1.827],[-52.705,1.843],[-52.725,1.863],[-52.756,1.867],[-52.787,1.926],[-52.783,1.956],[-52.868,2.025],[-52.895,2.028],[-52.909,2.009],[-52.901,1.965],[-52.914,1.948],[-52.952,1.946],[-52.999,1.955],[-53.009,1.978],[-53.042,1.977],[-53.059,1.947],[-53.052,1.914],[-53.027,1.875],[-53.026,1.854],[-52.996,1.822],[-53.013,1.787],[-52.974,1.718],[-52.993,1.648],[-52.99,1.608],[-52.965,1.559],[-52.896,1.556],[-52.863,1.52],[-52.869,1.444],[-52.888,1.394],[-52.915,1.358],[-52.928,1.318],[-52.927,1.279],[-52.953,1.266],[-52.972,1.206],[-52.96,1.127],[-52.894,1.088],[-52.879,1.04],[-52.878,1.0],[-52.867,0.967],[-52.824,0.93],[-52.837,0.898],[-52.823,0.876],[-52.792,0.885],[-52.748,0.853],[-52.753,0.824],[-52.66,0.83],[-52.662,0.792],[-52.619,0.759],[-52.61,0.738],[-52.584,0.742],[-52.547,0.721],[-52.533,0.697],[-52.501,0.672],[-52.504,0.642],[-52.457,0.572],[-52.414,0.545],[-52.417,0.511],[-52.396,0.499],[-52.387,0.468],[-52.348,0.432],[-52.314,0.477],[-52.309,0.5],[-52.271,0.522],[-52.26,0.556],[-52.237,0.586],[-52.195,0.595],[-52.165,0.639],[-52.118,0.628],[-52.109,0.66],[-52.06,0.664],[-52.019,0.693],[-51.983,0.697],[-51.931,0.691],[-51.882,0.706],[-51.856,0.667],[-51.815,0.685],[-51.771,0.658],[-51.724,0.649],[-51.719,0.688],[-51.705,0.704],[-51.758,0.81],[-51.763,0.845],[-51.788,0.885],[-51.836,0.91],[-51.829,0.934],[-51.776,0.971],[-51.783,0.994],[-51.815,0.976]]]}},{"type":"Feature","properties":{"code":"1600501"},"geometry":{"type":"Polygon","coordinates":[[[-53.276,2.194],[-53.27,2.171],[-53.247,2.151],[-53.139,2.101],[-53.132,2.017],[-53.111,1.981],[-53.078,1.951],[-53.059,1.947],[-53.042,1.977],[-53.009,1.978],[-52.999,1.955],[-52.952,1.946],[-52.914,1.948],[-52.901,1.965],[-52.909,2.009],[-52.895,2.028],[-52.868,2.025],[-52.829,2.052],[-52.833,2.082],[-52.797,2.071],[-52.76,2.078],[-52.698,2.067],[-52.635,2.033],[-52.612,2.013],[-52.558,2.022],[-52.552,2.01],[-52.485,2.037],[-52.439,2.045],[-52.407,2.036],[-52.411,2.093],[-52.368,2.118],[-52.355,2.142],[-52.319,2.158],[-52.281,2.157],[-52.252,2.169],[-52.244,2.201],[-52.249,2.238],[-52.231,2.264],[-52.194,2.261],[-52.184,2.294],[-52.15,2.306],[-52.119,2.357],[-52.113,2.401],[-52.06,2.391],[-52.046,2.436],[-52.016,2.437],[-51.956,2.406],[-51.887,2.34],[-51.852,2.369],[-51.821,2.372],[-51.797,2.388],[-51.77,2.381],[-51.749,2.424],[-51.729,2.435],[-51.69,2.484],[-51.679,2.529],[-51.653,2.535],[-51.639,2.567],[-51.657,2.585],[-51.64,2.619],[-51.569,2.698],[-51.533,2.758],[-51.519,2.805],[-51.527,2.824],[-51.482,2.838],[-51.466,2.87],[-51.436,2.884],[-51.425,2.913],[-51.44,2.937],[-51.393,3.0],[-51.399,3.022],[-51.359,3.052],[-51.309,3.069],[-51.243,3.134],[-51.254,3.189],[-51.224,3.215],[-51.193,3.226],[-51.175,3.293],[-51.174,3.338],[-51.192,3.434],[-51.182,3.529],[-51.187,3.624],[-51.199,3.659],[-51.183,3.741],[-51.163,3.868],[-51.151,3.914],[-51.179,3.92],[-51.176,4.011],[-51.188,4.077],[-51.216,4.15],[-51.283,4.25],[-51.394,4.365],[-51.486,4.437],[-51.628,4.504],[-51.641,4.484],[-51.636,4.453],[-51.67,4.425],[-51.678,4.335],[-51.67,4.282],[-51.634,4.213],[-51.636,4.125],[-51.651,4.067],[-51.672,4.037],[-51.745,4.003],[-51.781,3.969],[-51.784,3.915],[-51.799,3.888],[-51.856,3.832],[-51.873,3.804],[-51.927,3.769],[-51.924,3.723],[-51.974,3.706],[-51.993,3.644],[-51.988,3.628],[-52.02,3.593],[-52.062,3.519],[-52.093,3.478],[-52.19,3.299],[-52.234,3.241],[-52.25,3.251],[-52.292,3.226],[-52.299,3.178],[-52.33,3.167],[-52.351,3.123],[-52.326,3.077],[-52.355,3.02],[-52.395,2.93],[-52.391,2.898],[-52.423,2.89],[-52.478,2.782],[-52.476,2.765],[-52.52,2.682],[-52.53,2.651],[-52.556,2.637],[-52.528,2.582],[-52.561,2.551],[-52.564,2.517],[-52.618,2.445],[-52.637,2.445],[-52.657,2.404],[-52.661,2.374],[-52.711,2.358],[-52.717,2.344],[-52.781,2.317],[-52.794,2.304],[-52.842,2.292],[-52.906,2.188],[-52.939,2.19],[-52.955,2.174],[-52.987,2.168],[-53.054,2.191],[-53.074,2.219],[-53.134,2.226],[-53.209,2.211],[-53.248,2.211],[-53.276,2.194]]]}},{"type":"Feature","properties":{"code":"1600550"},"geometry":{"type":"Polygon","coordinates":[[[-51.991,1.317],[-51.501,1.324],[-51.389,1.323],[-51.383,1.404],[-51.368,1.429],[-51.4,1.463],[-51.422,1.524],[-51.445,1.53],[-51.443,1.579],[-51.455,1.6],[-51.428,1.64],[-51.323,1.69],[-51.255,1.679],[-51.235,1.653],[-51.202,1.633],[-51.17,1.633],[-51.151,1.604],[-51.09,1.599],[-51.055,1.616],[-51.028,1.647],[-51.016,1.608],[-50.983,1.596],[-50.934,1.619],[-50.909,1.586],[-50.861,1.592],[-50.561,1.472],[-50.536,1.492],[-50.541,1.597],[-50.58,1.68],[-50.568,1.713],[-50.584,1.732],[-50.611,1.736],[-50.617,1.768],[-50.641,1.829],[-50.689,1.829],[-50.728,1.816],[-50.77,1.826],[-50.798,1.786],[-50.868,1.832],[-50.902,1.823],[-50.992,1.839],[-51.035,1.869],[-51.107,1.85],[-51.153,1.884],[-51.208,1.889],[-51.237,1.873],[-51.263,1.894],[-51.286,1.894],[-51.309,1.866],[-51.363,1.847],[-51.383,1.794],[-51.421,1.766],[-51.446,1.772],[-51.482,1.81],[-51.536,1.852],[-51.556,1.852],[-51.593,1.885],[-51.647,1.876],[-51.684,1.806],[-51.716,1.647],[-51.739,1.591],[-51.78,1.572],[-51.8,1.534],[-51.822,1.521],[-51.867,1.466],[-51.873,1.443],[-51.924,1.387],[-51.954,1.397],[-51.973,1.363],[-51.969,1.341],[-51.991,1.317]]]}},{"type":"Feature","properties":{"code":"1600535"},"geometry":{"type":"Polygon","coordinates":[[[-51.493,0.468],[-51.474,0.476],[-51.461,0.506],[-51.425,0.503],[-51.411,0.484],[-51.368,0.487],[-51.332,0.467],[-51.31,0.474],[-51.263,0.454],[-51.236,0.404],[-51.208,0.378],[-51.206,0.317],[-51.176,0.307],[-51.137,0.335],[-51.117,0.394],[-51.094,0.428],[-51.061,0.442],[-51.048,0.423],[-51.044,0.436],[-51.102,0.476],[-51.132,0.517],[-51.15,0.564],[-51.202,0.596],[-51.252,0.613],[-51.281,0.633],[-51.358,0.658],[-51.37,0.696],[-51.339,0.736],[-51.369,0.747],[-51.395,0.736],[-51.454,0.77],[-51.48,0.807],[-51.485,0.855],[-51.511,0.879],[-51.539,0.878],[-51.616,0.835],[-51.627,0.865],[-51.603,0.89],[-51.596,0.924],[-51.64,0.955],[-51.664,0.961],[-51.667,0.988],[-51.715,0.994],[-51.74,0.979],[-51.783,0.994],[-51.776,0.971],[-51.829,0.934],[-51.836,0.91],[-51.788,0.885],[-51.763,0.845],[-51.758,0.81],[-51.705,0.704],[-51.719,0.688],[-51.724,0.649],[-51.771,0.658],[-51.815,0.685],[-51.856,0.667],[-51.882,0.706],[-51.931,0.691],[-51.983,0.697],[-52.019,0.693],[-52.06,0.664],[-52.109,0.66],[-52.118,0.628],[-52.165,0.639],[-52.195,0.595],[-52.237,0.586],[-52.26,0.556],[-52.271,0.522],[-52.309,0.5],[-52.314,0.477],[-52.348,0.432],[-52.337,0.384],[-52.296,0.392],[-52.281,0.37],[-52.236,0.365],[-52.238,0.391],[-52.202,0.442],[-52.2,0.458],[-52.164,0.469],[-52.145,0.486],[-52.09,0.506],[-52.03,0.47],[-52.02,0.478],[-51.932,0.445],[-51.888,0.448],[-51.861,0.434],[-51.816,0.45],[-51.793,0.444],[-51.76,0.406],[-51.717,0.41],[-51.697,0.397],[-51.687,0.353],[-51.694,0.32],[-51.574,0.228],[-51.569,0.217],[-51.546,0.236],[-51.547,0.262],[-51.528,0.297],[-51.536,0.419],[-51.515,0.43],[-51.493,0.468]]]}},{"type":"Feature","properties":{"code":"1600402"},"geometry":{"type":"Polygon","coordinates":[[[-51.938,-0.87],[-51.882,-0.88],[-51.823,-0.909],[-51.809,-0.863],[-51.77,-0.868],[-51.73,-0.858],[-51.72,-0.808],[-51.684,-0.795],[-51.596,-0.65],[-51.515,-0.566],[-51.458,-0.513],[-51.432,-0.473],[-51.424,-0.437],[-51.362,-0.368],[-51.348,-0.3],[-51.323,-0.264],[-51.303,-0.253],[-51.235,-0.144],[-51.208,-0.117],[-51.218,-0.087],[-51.317,-0.075],[-51.325,-0.082],[-51.402,-0.064],[-51.434,-0.034],[-51.448,0.01],[-51.53,0.05],[-51.542,0.089],[-51.573,0.145],[-51.569,0.217],[-51.574,0.228],[-51.694,0.32],[-51.687,0.353],[-51.697,0.397],[-51.717,0.41],[-51.76,0.406],[-51.793,0.444],[-51.816,0.45],[-51.861,0.434],[-51.888,0.448],[-51.932,0.445],[-52.02,0.478],[-52.03,0.47],[-52.09,0.506],[-52.145,0.486],[-52.164,0.469],[-52.2,0.458],[-52.202,0.442],[-52.238,0.391],[-52.236,0.365],[-52.281,0.37],[-52.296,0.392],[-52.337,0.384],[-52.348,0.432],[-52.387,0.468],[-52.396,0.499],[-52.417,0.511],[-52.414,0.545],[-52.457,0.572],[-52.504,0.642],[-52.501,0.672],[-52.533,0.697],[-52.547,0.721],[-52.584,0.742],[-52.61,0.738],[-52.619,0.759],[-52.662,0.792],[-52.66,0.83],[-52.753,0.824],[-52.754,0.807],[-52.725,0.783],[-52.686,0.767],[-52.675,0.727],[-52.692,0.64],[-52.681,0.582],[-52.662,0.542],[-52.611,0.495],[-52.605,0.47],[-52.57,0.409],[-52.572,0.383],[-52.495,0.288],[-52.489,0.254],[-52.503,0.231],[-52.49,0.19],[-52.501,0.167],[-52.517,0.065],[-52.506,0.022],[-52.506,-0.015],[-52.556,-0.095],[-52.553,-0.144],[-52.522,-0.141],[-52.5,-0.115],[-52.436,-0.108],[-52.352,-0.143],[-52.331,-0.203],[-52.287,-0.252],[-52.237,-0.259],[-52.198,-0.257],[-52.126,-0.291],[-52.097,-0.33],[-52.081,-0.336],[-52.087,-0.383],[-52.082,-0.447],[-52.067,-0.491],[-52.085,-0.514],[-52.075,-0.549],[-52.048,-0.605],[-52.056,-0.641],[-52.023,-0.68],[-51.987,-0.687],[-51.979,-0.724],[-51.936,-0.767],[-51.939,-0.804],[-51.958,-0.842],[-51.938,-0.87]]]}},{"type":"Feature","properties":{"code":"1600055"},"geometry":{"type":"Polygon","coordinates":[[[-52.868,2.025],[-52.783,1.956],[-52.787,1.926],[-52.756,1.867],[-52.725,1.863],[-52.705,1.843],[-52.662,1.827],[-52.651,1.799],[-52.605,1.768],[-52.589,1.738],[-52.556,1.727],[-52.558,1.707],[-52.536,1.663],[-52.513,1.65],[-52.482,1.583],[-52.505,1.563],[-52.472,1.445],[-52.474,1.402],[-52.449,1.372],[-52.479,1.334],[-52.494,1.288],[-52.446,1.285],[-52.434,1.256],[-52.411,1.246],[-52.358,1.172],[-52.359,1.147],[-52.31,1.138],[-52.275,1.069],[-52.222,1.061],[-52.201,1.044],[-52.193,1.011],[-52.163,1.018],[-52.104,0.989],[-52.073,1.009],[-52.018,0.986],[-52.024,0.958],[-52.048,0.936],[-52.058,0.879],[-52.03,0.857],[-51.992,0.859],[-51.958,0.848],[-51.936,0.867],[-51.909,0.938],[-51.845,0.957],[-51.815,0.976],[-51.816,1.003],[-51.84,1.039],[-51.876,1.035],[-51.919,1.056],[-51.983,1.053],[-51.978,1.091],[-51.993,1.137],[-51.99,1.179],[-52.009,1.188],[-51.999,1.234],[-52.001,1.28],[-51.991,1.317],[-52.015,1.326],[-52.007,1.369],[-52.035,1.401],[-52.044,1.448],[-52.02,1.496],[-52.036,1.533],[-52.039,1.574],[-52.022,1.613],[-52.021,1.644],[-52.046,1.675],[-52.053,1.712],[-52.045,1.786],[-52.05,1.861],[-52.013,1.933],[-52.02,1.965],[-52.0,2.034],[-52.01,2.082],[-52.029,2.114],[-52.041,2.176],[-52.037,2.232],[-52.064,2.263],[-52.065,2.289],[-52.038,2.342],[-52.041,2.424],[-52.016,2.437],[-52.046,2.436],[-52.06,2.391],[-52.113,2.401],[-52.119,2.357],[-52.15,2.306],[-52.184,2.294],[-52.194,2.261],[-52.231,2.264],[-52.249,2.238],[-52.244,2.201],[-52.252,2.169],[-52.281,2.157],[-52.319,2.158],[-52.355,2.142],[-52.368,2.118],[-52.411,2.093],[-52.407,2.036],[-52.439,2.045],[-52.485,2.037],[-52.552,2.01],[-52.558,2.022],[-52.612,2.013],[-52.635,2.033],[-52.698,2.067],[-52.76,2.078],[-52.797,2.071],[-52.833,2.082],[-52.829,2.052],[-52.868,2.025]]]}}]}