{"type":"FeatureCollection","features":[{"type":"Feature","properties":{"code":"2312809"},"geometry":{"type":"Polygon","coordinates":[[[-40.562,-3.406],[-40.57,-3.438],[-40.537,-3.448],[-40.516,-3.393],[-40.422,-3.37],[-40.393,-3.382],[-40.355,-3.372],[-40.342,-3.351],[-40.341,-3.316],[-40.341,-3.29],[-40.386,-3.273],[-40.407,-3.237],[-40.432,-3.214],[-40.45,-3.181],[-40.454,-3.15],[-40.482,-3.121],[-40.51,-3.11],[-40.574,-3.136],[-40.575,-3.166],[-40.547,-3.188],[-40.532,-3.24],[-40.493,-3.26],[-40.48,-3.3],[-40.486,-3.335],[-40.541,-3.41],[-40.562,-3.406]]]}},{"type":"Feature","properties":{"code":"2304608"},"geometry":{"type":"Polygon","coordinates":[[[-39.533,-4.084],[-39.547,-4.11],[-39.541,-4.16],[-39.521,-4.119],[-39.492,-4.112],[-39.45,-4.131],[-39.446,-4.104],[-39.407,-4.096],[-39.371,-4.11],[-39.324,-4.09],[-39.444,-3.969],[-39.455,-4.0],[-39.486,-4.005],[-39.503,-4.001],[-39.533,-4.084]]]}},{"type":"Feature","properties":{"code":"2304707"},"geometry":{"type":"Polygon","coordinates":[[[-40.849,-3.417],[-40.829,-3.368],[-40.853,-3.316],[-40.822,-3.296],[-40.834,-3.208],[-40.728,-3.234],[-40.71,-3.213],[-40.751,-3.051],[-40.574,-3.136],[-40.51,-3.11],[-40.495,-3.062],[-40.564,-3.016],[-40.692,-3.009],[-40.839,-3.036],[-40.88,-3.011],[-40.992,-3.03],[-41.102,-3.094],[-41.151,-3.125],[-41.237,-3.179],[-41.322,-3.179],[-41.396,-3.304],[-41.414,-3.35],[-41.4,-3.385],[-41.375,-3.399],[-41.324,-3.386],[-41.327,-3.446],[-41.32,-3.484],[-41.303,-3.492],[-41.259,-3.471],[-41.221,-3.438],[-41.177,-3.379],[-41.17,-3.288],[-41.149,-3.363],[-41.126,-3.358],[-41.049,-3.392],[-41.004,-3.423],[-40.887,-3.52],[-40.884,-3.489],[-40.849,-3.417]]]}},{"type":"Feature","properties":{"code":"2304657"},"geometry":{"type":"Polygon","coordinates":[[[-40.713,-4.128],[-40.682,-4.058],[-40.713,-4.06],[-40.731,-3.967],[-40.758,-3.952],[-40.823,-3.956],[-40.838,-3.986],[-40.835,-4.052],[-40.847,-4.103],[-40.81,-4.119],[-40.797,-4.131],[-40.743,-4.123],[-40.713,-4.128]]]}},{"type":"Feature","properties":{"code":"2313203"},"geometry":{"type":"Polygon","coordinates":[[[-40.636,-4.925],[-40.596,-4.957],[-40.567,-5.02],[-40.539,-5.013],[-40.496,-5.037],[-40.448,-5.034],[-40.375,-5.119],[-40.404,-5.2],[-40.391,-5.212],[-40.313,-5.155],[-40.304,-5.168],[-40.267,-5.163],[-40.244,-5.171],[-40.229,-5.153],[-40.191,-5.171],[-40.16,-5.165],[-40.135,-5.129],[-40.137,-5.073],[-40.15,-5.034],[-40.106,-5.024],[-40.139,-4.971],[-40.166,-4.964],[-40.169,-4.935],[-40.196,-4.907],[-40.114,-4.883],[-40.11,-4.851],[-40.136,-4.813],[-40.184,-4.785],[-40.21,-4.793],[-40.273,-4.77],[-40.305,-4.733],[-40.309,-4.691],[-40.338,-4.665],[-40.319,-4.623],[-40.293,-4.6],[-40.322,-4.577],[-40.346,-4.581],[-40.381,-4.549],[-40.446,-4.732],[-40.524,-4.848],[-40.54,-4.843],[-40.541,-4.915],[-40.636,-4.925]]]}},{"type":"Feature","properties":{"code":"2305001"},"geometry":{"type":"Polygon","coordinates":[[[-40.803,-4.345],[-40.788,-4.319],[-40.803,-4.266],[-40.778,-4.235],[-40.745,-4.225],[-40.727,-4.204],[-40.711,-4.168],[-40.713,-4.128],[-40.743,-4.123],[-40.797,-4.131],[-40.81,-4.119],[-40.834,-4.118],[-40.852,-4.154],[-40.901,-4.159],[-40.975,-4.23],[-41.001,-4.195],[-41.074,-4.2],[-41.099,-4.181],[-41.136,-4.234],[-41.119,-4.324],[-41.148,-4.367],[-41.14,-4.37],[-41.007,-4.273],[-40.927,-4.29],[-40.87,-4.323],[-40.847,-4.321],[-40.803,-4.345]]]}},{"type":"Feature","properties":{"code":"2313252"},"geometry":{"type":"Polygon","coordinates":[[[-39.616,-6.788],[-39.599,-6.759],[-39.641,-6.739],[-39.647,-6.685],[-39.666,-6.637],[-39.696,-6.642],[-39.737,-6.633],[-39.737,-6.613],[-39.768,-6.627],[-39.775,-6.657],[-39.833,-6.7],[-39.909,-6.763],[-39.879,-6.767],[-39.791,-6.802],[-39.741,-6.806],[-39.709,-6.785],[-39.691,-6.824],[-39.653,-6.821],[-39.651,-6.802],[-39.616,-6.788]]]}},{"type":"Feature","properties":{"code":"2304954"},"geometry":{"type":"Polygon","coordinates":[[[-38.566,-4.122],[-38.575,-4.107],[-38.613,-4.104],[-38.605,-4.059],[-38.575,-4.054],[-38.606,-4.015],[-38.636,-4.024],[-38.668,-4.018],[-38.673,-4.04],[-38.748,-4.093],[-38.755,-4.128],[-38.789,-4.142],[-38.719,-4.168],[-38.718,-4.187],[-38.697,-4.172],[-38.654,-4.158],[-38.619,-4.163],[-38.57,-4.128],[-38.566,-4.122]]]}},{"type":"Feature","properties":{"code":"2313104"},"geometry":{"type":"Polygon","coordinates":[[[-38.158,-5.358],[-38.078,-5.445],[-38.068,-5.485],[-38.05,-5.515],[-38.036,-5.567],[-38.057,-5.61],[-38.028,-5.623],[-37.998,-5.585],[-37.99,-5.556],[-37.951,-5.537],[-37.935,-5.505],[-37.902,-5.501],[-37.889,-5.452],[-37.861,-5.407],[-37.864,-5.374],[-37.847,-5.34],[-37.813,-5.317],[-37.786,-5.297],[-37.93,-5.297],[-37.968,-5.254],[-37.994,-5.246],[-38.072,-5.182],[-38.134,-5.213],[-38.208,-5.194],[-38.233,-5.217],[-38.211,-5.245],[-38.225,-5.289],[-38.208,-5.321],[-38.176,-5.336],[-38.158,-5.358]]]}},{"type":"Feature","properties":{"code":"2304905"},"geometry":{"type":"Polygon","coordinates":[[[-40.36,-4.032],[-40.337,-3.97],[-40.305,-3.933],[-40.32,-3.864],[-40.353,-3.874],[-40.37,-3.862],[-40.39,-3.8],[-40.416,-3.807],[-40.405,-3.908],[-40.395,-3.967],[-40.36,-4.032]]]}},{"type":"Feature","properties":{"code":"2304251"},"geometry":{"type":"Polygon","coordinates":[[[-40.41,-2.951],[-40.372,-2.965],[-40.331,-2.964],[-40.32,-2.944],[-40.264,-2.94],[-40.237,-2.952],[-40.17,-2.944],[-40.15,-2.906],[-40.151,-2.884],[-40.196,-2.873],[-40.272,-2.87],[-40.289,-2.876],[-40.324,-2.861],[-40.361,-2.867],[-40.37,-2.812],[-40.372,-2.812],[-40.409,-2.813],[-40.455,-2.803],[-40.448,-2.848],[-40.452,-2.89],[-40.432,-2.901],[-40.433,-2.941],[-40.41,-2.951]]]}},{"type":"Feature","properties":{"code":"2304236"},"geometry":{"type":"Polygon","coordinates":[[[-41.178,-4.468],[-41.118,-4.478],[-41.061,-4.474],[-41.025,-4.455],[-40.889,-4.472],[-40.826,-4.459],[-40.793,-4.424],[-40.777,-4.361],[-40.803,-4.345],[-40.847,-4.321],[-40.87,-4.323],[-40.927,-4.29],[-41.007,-4.273],[-41.14,-4.37],[-41.148,-4.367],[-41.16,-4.411],[-41.177,-4.443],[-41.178,-4.468]]]}},{"type":"Feature","properties":{"code":"2312403"},"geometry":{"type":"Polygon","coordinates":[[[-38.962,-3.712],[-38.918,-3.667],[-38.882,-3.685],[-38.832,-3.571],[-38.807,-3.549],[-38.852,-3.541],[-38.892,-3.506],[-38.907,-3.505],[-38.929,-3.473],[-38.968,-3.511],[-38.958,-3.542],[-38.996,-3.554],[-39.05,-3.554],[-39.1,-3.532],[-39.166,-3.523],[-39.212,-3.513],[-39.263,-3.49],[-39.284,-3.503],[-39.303,-3.534],[-39.315,-3.58],[-39.262,-3.585],[-39.216,-3.609],[-39.227,-3.665],[-39.214,-3.693],[-39.143,-3.704],[-39.002,-3.685],[-38.962,-3.712]]]}},{"type":"Feature","properties":{"code":"2304202"},"geometry":{"type":"Polygon","coordinates":[[[-39.445,-7.572],[-39.446,-7.336],[-39.401,-7.307],[-39.376,-7.305],[-39.347,-7.266],[-39.364,-7.213],[-39.367,-7.164],[-39.344,-7.142],[-39.34,-7.109],[-39.362,-7.058],[-39.455,-7.056],[-39.452,-7.009],[-39.502,-7.012],[-39.517,-7.002],[-39.581,-7.023],[-39.58,-7.044],[-39.578,-7.074],[-39.599,-7.08],[-39.6,-7.21],[-39.6,-7.428],[-39.572,-7.43],[-39.546,-7.484],[-39.502,-7.464],[-39.461,-7.471],[-39.456,-7.502],[-39.485,-7.533],[-39.474,-7.573],[-39.445,-7.572]]]}},{"type":"Feature","properties":{"code":"2312502"},"geometry":{"type":"Polygon","coordinates":[[[-38.394,-5.363],[-38.341,-5.404],[-38.314,-5.383],[-38.261,-5.41],[-38.158,-5.358],[-38.176,-5.336],[-38.208,-5.321],[-38.225,-5.289],[-38.211,-5.245],[-38.233,-5.217],[-38.238,-5.211],[-38.329,-5.275],[-38.328,-5.314],[-38.363,-5.349],[-38.394,-5.363]]]}},{"type":"Feature","properties":{"code":"2304301"},"geometry":{"type":"Polygon","coordinates":[[[-39.452,-7.009],[-39.436,-6.963],[-39.423,-6.962],[-39.395,-6.922],[-39.419,-6.895],[-39.483,-6.898],[-39.478,-6.847],[-39.503,-6.844],[-39.517,-6.81],[-39.51,-6.777],[-39.556,-6.777],[-39.616,-6.788],[-39.651,-6.802],[-39.653,-6.821],[-39.637,-6.846],[-39.655,-6.862],[-39.647,-6.893],[-39.618,-6.898],[-39.608,-6.917],[-39.64,-6.946],[-39.633,-6.969],[-39.66,-7.007],[-39.681,-7.016],[-39.632,-7.023],[-39.58,-7.044],[-39.581,-7.023],[-39.517,-7.002],[-39.502,-7.012],[-39.452,-7.009]]]}},{"type":"Feature","properties":{"code":"2304285"},"geometry":{"type":"Polygon","coordinates":[[[-38.509,-3.937],[-38.449,-3.924],[-38.432,-3.886],[-38.416,-3.88],[-38.422,-3.844],[-38.409,-3.819],[-38.443,-3.801],[-38.45,-3.838],[-38.488,-3.867],[-38.502,-3.888],[-38.509,-3.937]]]}},{"type":"Feature","properties":{"code":"2304277"},"geometry":{"type":"Polygon","coordinates":[[[-38.275,-6.066],[-38.253,-6.043],[-38.252,-6.01],[-38.202,-5.962],[-38.163,-5.939],[-38.159,-5.925],[-38.232,-5.917],[-38.259,-5.92],[-38.275,-5.892],[-38.334,-5.919],[-38.403,-5.917],[-38.379,-5.951],[-38.398,-5.995],[-38.422,-6.012],[-38.405,-6.057],[-38.382,-6.053],[-38.368,-6.088],[-38.34,-6.078],[-38.306,-6.087],[-38.275,-6.066]]]}},{"type":"Feature","properties":{"code":"2304269"},"geometry":{"type":"Polygon","coordinates":[[[-39.17,-5.96],[-39.18,-5.92],[-39.172,-5.904],[-39.182,-5.86],[-39.163,-5.798],[-39.21,-5.788],[-39.227,-5.765],[-39.273,-5.762],[-39.283,-5.756],[-39.328,-5.783],[-39.341,-5.808],[-39.342,-5.851],[-39.368,-5.901],[-39.354,-5.952],[-39.363,-5.981],[-39.321,-6.007],[-39.306,-5.994],[-39.266,-5.997],[-39.212,-5.992],[-39.198,-5.958],[-39.17,-5.96]]]}},{"type":"Feature","properties":{"code":"2312304"},"geometry":{"type":"Polygon","coordinates":[[[-40.901,-4.159],[-40.852,-4.154],[-40.834,-4.118],[-40.81,-4.119],[-40.847,-4.103],[-40.835,-4.052],[-40.838,-3.986],[-40.856,-3.975],[-40.9,-3.993],[-40.964,-3.982],[-41.074,-3.995],[-41.091,-4.006],[-41.118,-3.987],[-41.166,-4.0],[-41.183,-4.018],[-41.169,-4.033],[-41.12,-4.036],[-41.113,-4.05],[-41.139,-4.121],[-41.096,-4.066],[-41.068,-4.05],[-41.033,-4.067],[-40.98,-4.055],[-40.941,-4.058],[-40.891,-4.11],[-40.887,-4.143],[-40.901,-4.159]]]}},{"type":"Feature","properties":{"code":"2304103"},"geometry":{"type":"Polygon","coordinates":[[[-40.93,-5.494],[-40.902,-5.477],[-40.863,-5.493],[-40.846,-5.479],[-40.775,-5.493],[-40.739,-5.484],[-40.722,-5.463],[-40.688,-5.472],[-40.646,-5.427],[-40.555,-5.427],[-40.551,-5.402],[-40.524,-5.39],[-40.479,-5.274],[-40.414,-5.228],[-40.404,-5.2],[-40.375,-5.119],[-40.448,-5.034],[-40.496,-5.037],[-40.539,-5.013],[-40.567,-5.02],[-40.596,-4.957],[-40.636,-4.925],[-40.651,-4.986],[-40.715,-4.946],[-40.828,-4.978],[-41.051,-5.026],[-41.122,-5.026],[-41.132,-5.049],[-41.097,-5.054],[-41.082,-5.088],[-41.026,-5.11],[-40.989,-5.139],[-40.929,-5.172],[-40.922,-5.226],[-40.936,-5.243],[-40.912,-5.267],[-40.927,-5.297],[-40.919,-5.338],[-40.936,-5.366],[-40.911,-5.407],[-40.938,-5.416],[-40.937,-5.439],[-40.916,-5.468],[-40.93,-5.494]]]}},{"type":"Feature","properties":{"code":"2312700"},"geometry":{"type":"Polygon","coordinates":[[[-39.273,-5.762],[-39.261,-5.716],[-39.26,-5.675],[-39.278,-5.671],[-39.269,-5.634],[-39.247,-5.593],[-39.254,-5.562],[-39.297,-5.512],[-39.322,-5.51],[-39.368,-5.526],[-39.42,-5.499],[-39.438,-5.479],[-39.464,-5.476],[-39.5,-5.454],[-39.528,-5.453],[-39.544,-5.405],[-39.613,-5.406],[-39.645,-5.384],[-39.668,-5.413],[-39.644,-5.446],[-39.639,-5.473],[-39.58,-5.504],[-39.596,-5.58],[-39.632,-5.606],[-39.602,-5.625],[-39.587,-5.606],[-39.546,-5.613],[-39.483,-5.636],[-39.439,-5.666],[-39.475,-5.701],[-39.453,-5.737],[-39.434,-5.729],[-39.328,-5.783],[-39.283,-5.756],[-39.273,-5.762]]]}},{"type":"Feature","properties":{"code":"2304509"},"geometry":{"type":"Polygon","coordinates":[[[-40.895,-3.781],[-40.844,-3.789],[-40.78,-3.786],[-40.783,-3.743],[-40.76,-3.709],[-40.734,-3.689],[-40.766,-3.648],[-40.829,-3.634],[-40.891,-3.668],[-40.874,-3.723],[-40.895,-3.781]]]}},{"type":"Feature","properties":{"code":"2304459"},"geometry":{"type":"Polygon","coordinates":[[[-37.963,-4.53],[-37.868,-4.543],[-37.824,-4.504],[-37.789,-4.507],[-37.77,-4.475],[-37.785,-4.443],[-37.77,-4.426],[-37.77,-4.401],[-37.817,-4.395],[-37.845,-4.382],[-37.858,-4.401],[-37.905,-4.414],[-37.913,-4.4],[-37.95,-4.404],[-37.976,-4.432],[-37.954,-4.48],[-37.963,-4.53]]]}},{"type":"Feature","properties":{"code":"2304350"},"geometry":{"type":"Polygon","coordinates":[[[-40.189,-3.959],[-40.138,-3.897],[-40.115,-3.786],[-40.126,-3.701],[-40.236,-3.697],[-40.305,-3.749],[-40.307,-3.787],[-40.34,-3.783],[-40.37,-3.862],[-40.353,-3.874],[-40.32,-3.864],[-40.305,-3.933],[-40.189,-3.959]]]}},{"type":"Feature","properties":{"code":"2312601"},"geometry":{"type":"Polygon","coordinates":[[[-39.277,-3.737],[-39.214,-3.693],[-39.227,-3.665],[-39.216,-3.609],[-39.262,-3.585],[-39.315,-3.58],[-39.307,-3.664],[-39.278,-3.674],[-39.277,-3.737]]]}},{"type":"Feature","properties":{"code":"2304400"},"geometry":{"type":"Polygon","coordinates":[[[-38.542,-3.859],[-38.514,-3.895],[-38.502,-3.888],[-38.488,-3.867],[-38.45,-3.838],[-38.443,-3.801],[-38.409,-3.819],[-38.402,-3.824],[-38.44,-3.762],[-38.464,-3.713],[-38.496,-3.725],[-38.54,-3.716],[-38.588,-3.696],[-38.622,-3.703],[-38.601,-3.735],[-38.621,-3.777],[-38.625,-3.781],[-38.638,-3.801],[-38.615,-3.824],[-38.542,-3.859]]]}},{"type":"Feature","properties":{"code":"2311900"},"geometry":{"type":"Polygon","coordinates":[[[-39.737,-6.613],[-39.773,-6.606],[-39.729,-6.543],[-39.75,-6.521],[-39.725,-6.496],[-39.772,-6.46],[-39.776,-6.411],[-39.727,-6.37],[-39.709,-6.34],[-39.72,-6.273],[-39.77,-6.205],[-39.789,-6.207],[-39.797,-6.242],[-39.848,-6.352],[-39.895,-6.368],[-39.924,-6.342],[-39.956,-6.331],[-39.974,-6.338],[-40.03,-6.331],[-40.061,-6.367],[-40.084,-6.367],[-40.076,-6.4],[-40.033,-6.432],[-40.047,-6.45],[-40.059,-6.501],[-40.033,-6.54],[-40.026,-6.583],[-40.055,-6.611],[-40.038,-6.642],[-40.056,-6.674],[-40.017,-6.672],[-40.005,-6.687],[-39.987,-6.68],[-39.94,-6.712],[-39.913,-6.689],[-39.838,-6.679],[-39.833,-6.7],[-39.775,-6.657],[-39.768,-6.627],[-39.737,-6.613]]]}},{"type":"Feature","properties":{"code":"2303709"},"geometry":{"type":"Polygon","coordinates":[[[-38.944,-3.945],[-38.872,-3.969],[-38.848,-3.995],[-38.812,-3.962],[-38.792,-3.967],[-38.688,-3.857],[-38.67,-3.828],[-38.641,-3.822],[-38.638,-3.801],[-38.625,-3.781],[-38.621,-3.777],[-38.601,-3.735],[-38.622,-3.703],[-38.588,-3.696],[-38.652,-3.682],[-38.696,-3.644],[-38.748,-3.617],[-38.807,-3.549],[-38.832,-3.571],[-38.882,-3.685],[-38.918,-3.667],[-38.962,-3.712],[-38.952,-3.726],[-38.957,-3.768],[-38.978,-3.779],[-38.983,-3.816],[-38.999,-3.835],[-38.988,-3.869],[-38.944,-3.945]]]}},{"type":"Feature","properties":{"code":"2303808"},"geometry":{"type":"Polygon","coordinates":[[[-39.108,-6.715],[-39.068,-6.705],[-39.047,-6.675],[-39.003,-6.658],[-38.968,-6.659],[-38.925,-6.611],[-38.922,-6.567],[-38.918,-6.55],[-38.958,-6.527],[-39.061,-6.446],[-39.123,-6.466],[-39.145,-6.442],[-39.205,-6.463],[-39.23,-6.491],[-39.236,-6.524],[-39.281,-6.526],[-39.298,-6.562],[-39.239,-6.584],[-39.21,-6.608],[-39.179,-6.613],[-39.173,-6.673],[-39.143,-6.676],[-39.13,-6.71],[-39.108,-6.715]]]}},{"type":"Feature","properties":{"code":"2311959"},"geometry":{"type":"Polygon","coordinates":[[[-40.345,-7.329],[-40.311,-7.301],[-40.263,-7.301],[-40.244,-7.316],[-40.267,-7.248],[-40.251,-7.23],[-40.252,-7.202],[-40.269,-7.175],[-40.24,-7.114],[-40.183,-7.085],[-40.165,-7.047],[-40.122,-7.022],[-40.135,-7.001],[-40.213,-7.029],[-40.252,-7.06],[-40.324,-7.082],[-40.335,-7.128],[-40.447,-7.089],[-40.459,-7.079],[-40.49,-7.119],[-40.484,-7.133],[-40.506,-7.211],[-40.516,-7.264],[-40.512,-7.299],[-40.524,-7.319],[-40.449,-7.361],[-40.394,-7.368],[-40.361,-7.356],[-40.345,-7.329]]]}},{"type":"Feature","properties":{"code":"2311801"},"geometry":{"type":"Polygon","coordinates":[[[-38.213,-4.974],[-38.188,-4.975],[-38.061,-5.08],[-38.018,-5.024],[-37.934,-5.003],[-37.902,-4.981],[-37.862,-4.978],[-37.845,-4.993],[-37.809,-4.989],[-37.874,-4.939],[-37.887,-4.905],[-37.883,-4.854],[-37.9,-4.821],[-38.042,-4.845],[-38.06,-4.813],[-38.049,-4.778],[-38.085,-4.732],[-38.095,-4.704],[-38.147,-4.665],[-38.182,-4.623],[-38.215,-4.59],[-38.281,-4.658],[-38.307,-4.65],[-38.338,-4.754],[-38.368,-4.752],[-38.369,-4.851],[-38.337,-4.861],[-38.3,-4.892],[-38.261,-4.884],[-38.213,-4.974]]]}},{"type":"Feature","properties":{"code":"2303600"},"geometry":{"type":"Polygon","coordinates":[[[-40.084,-6.367],[-40.061,-6.367],[-40.03,-6.331],[-39.974,-6.338],[-39.956,-6.331],[-39.924,-6.342],[-39.895,-6.368],[-39.848,-6.352],[-39.797,-6.242],[-39.789,-6.207],[-39.799,-6.19],[-39.797,-6.148],[-39.824,-6.125],[-39.84,-6.131],[-39.892,-6.114],[-39.896,-6.16],[-39.926,-6.196],[-39.94,-6.194],[-39.987,-6.221],[-40.016,-6.224],[-40.027,-6.28],[-40.047,-6.279],[-40.071,-6.355],[-40.084,-6.367]]]}},{"type":"Feature","properties":{"code":"2303659"},"geometry":{"type":"Polygon","coordinates":[[[-40.136,-4.813],[-40.12,-4.748],[-40.059,-4.717],[-40.079,-4.681],[-40.103,-4.662],[-40.108,-4.592],[-40.039,-4.578],[-40.009,-4.523],[-40.002,-4.488],[-40.023,-4.462],[-40.063,-4.466],[-40.113,-4.511],[-40.181,-4.508],[-40.208,-4.465],[-40.254,-4.472],[-40.268,-4.508],[-40.24,-4.53],[-40.233,-4.563],[-40.247,-4.605],[-40.293,-4.6],[-40.319,-4.623],[-40.338,-4.665],[-40.309,-4.691],[-40.305,-4.733],[-40.273,-4.77],[-40.21,-4.793],[-40.184,-4.785],[-40.136,-4.813]]]}},{"type":"Feature","properties":{"code":"2304004"},"geometry":{"type":"Polygon","coordinates":[[[-40.78,-3.786],[-40.79,-3.837],[-40.766,-3.863],[-40.724,-3.821],[-40.715,-3.806],[-40.656,-3.797],[-40.611,-3.65],[-40.549,-3.654],[-40.588,-3.639],[-40.607,-3.596],[-40.599,-3.57],[-40.578,-3.567],[-40.554,-3.538],[-40.559,-3.53],[-40.67,-3.53],[-40.762,-3.505],[-40.857,-3.536],[-40.904,-3.575],[-40.891,-3.668],[-40.829,-3.634],[-40.766,-3.648],[-40.734,-3.689],[-40.76,-3.709],[-40.783,-3.743],[-40.78,-3.786]]]}},{"type":"Feature","properties":{"code":"2303956"},"geometry":{"type":"Polygon","coordinates":[[[-38.437,-4.384],[-38.429,-4.357],[-38.403,-4.359],[-38.385,-4.338],[-38.393,-4.223],[-38.465,-4.245],[-38.526,-4.226],[-38.571,-4.236],[-38.548,-4.271],[-38.548,-4.323],[-38.534,-4.369],[-38.443,-4.409],[-38.437,-4.384]]]}},{"type":"Feature","properties":{"code":"2312205"},"geometry":{"type":"Polygon","coordinates":[[[-39.729,-4.696],[-39.718,-4.678],[-39.742,-4.646],[-39.77,-4.631],[-39.687,-4.576],[-39.704,-4.544],[-39.746,-4.545],[-39.768,-4.524],[-39.756,-4.502],[-39.723,-4.484],[-39.73,-4.447],[-39.752,-4.407],[-39.712,-4.38],[-39.714,-4.354],[-39.734,-4.333],[-39.73,-4.275],[-39.766,-4.248],[-39.788,-4.189],[-39.774,-4.174],[-39.794,-4.161],[-39.819,-4.118],[-39.841,-4.114],[-39.86,-4.139],[-39.893,-4.143],[-39.963,-4.122],[-39.991,-4.086],[-40.014,-4.088],[-40.138,-4.031],[-40.189,-3.959],[-40.305,-3.933],[-40.337,-3.97],[-40.36,-4.032],[-40.373,-4.092],[-40.431,-4.091],[-40.431,-4.158],[-40.445,-4.163],[-40.451,-4.209],[-40.44,-4.253],[-40.451,-4.26],[-40.302,-4.269],[-40.323,-4.313],[-40.32,-4.356],[-40.276,-4.431],[-40.257,-4.444],[-40.254,-4.472],[-40.208,-4.465],[-40.181,-4.508],[-40.113,-4.511],[-40.063,-4.466],[-40.023,-4.462],[-40.002,-4.488],[-40.009,-4.523],[-40.039,-4.578],[-40.108,-4.592],[-40.103,-4.662],[-40.079,-4.681],[-40.059,-4.717],[-39.926,-4.735],[-39.929,-4.774],[-39.885,-4.79],[-39.856,-4.736],[-39.824,-4.73],[-39.807,-4.708],[-39.743,-4.72],[-39.729,-4.696]]]}},{"type":"Feature","properties":{"code":"2312007"},"geometry":{"type":"Polygon","coordinates":[[[-40.07,-3.594],[-40.043,-3.565],[-40.048,-3.532],[-40.041,-3.476],[-40.028,-3.437],[-39.996,-3.409],[-39.987,-3.365],[-40.07,-3.367],[-40.092,-3.354],[-40.107,-3.319],[-40.146,-3.304],[-40.185,-3.319],[-40.201,-3.308],[-40.341,-3.316],[-40.342,-3.351],[-40.337,-3.404],[-40.307,-3.41],[-40.271,-3.482],[-40.252,-3.502],[-40.257,-3.559],[-40.269,-3.573],[-40.203,-3.604],[-40.213,-3.626],[-40.174,-3.674],[-40.147,-3.669],[-40.112,-3.69],[-40.111,-3.644],[-40.07,-3.594]]]}},{"type":"Feature","properties":{"code":"2303931"},"geometry":{"type":"Polygon","coordinates":[[[-39.225,-4.961],[-39.198,-4.966],[-39.166,-4.925],[-39.14,-4.88],[-39.066,-4.812],[-39.048,-4.771],[-39.104,-4.762],[-39.072,-4.726],[-39.041,-4.711],[-39.035,-4.668],[-38.978,-4.668],[-38.994,-4.647],[-39.078,-4.639],[-39.112,-4.643],[-39.13,-4.628],[-39.16,-4.636],[-39.18,-4.655],[-39.282,-4.652],[-39.305,-4.707],[-39.363,-4.739],[-39.367,-4.725],[-39.37,-4.742],[-39.346,-4.748],[-39.319,-4.723],[-39.303,-4.75],[-39.343,-4.772],[-39.34,-4.792],[-39.332,-4.835],[-39.303,-4.844],[-39.3,-4.88],[-39.254,-4.919],[-39.225,-4.961]]]}},{"type":"Feature","properties":{"code":"2312106"},"geometry":{"type":"Polygon","coordinates":[[[-39.6,-7.428],[-39.6,-7.21],[-39.693,-7.17],[-39.742,-7.093],[-39.757,-7.045],[-39.748,-7.022],[-39.773,-7.061],[-39.807,-7.037],[-39.89,-7.053],[-39.884,-7.09],[-39.897,-7.097],[-39.889,-7.142],[-39.889,-7.34],[-39.858,-7.325],[-39.829,-7.332],[-39.741,-7.327],[-39.706,-7.338],[-39.646,-7.381],[-39.627,-7.427],[-39.6,-7.428]]]}},{"type":"Feature","properties":{"code":"2303907"},"geometry":{"type":"Polygon","coordinates":[[[-41.322,-3.179],[-41.237,-3.179],[-41.151,-3.125],[-41.172,-3.086],[-41.158,-3.071],[-41.186,-3.03],[-41.194,-2.998],[-41.248,-2.972],[-41.271,-2.972],[-41.253,-3.035],[-41.261,-3.054],[-41.256,-3.088],[-41.311,-3.136],[-41.322,-3.179]]]}},{"type":"Feature","properties":{"code":"2311405"},"geometry":{"type":"Polygon","coordinates":[[[-39.247,-5.593],[-39.191,-5.525],[-39.116,-5.507],[-39.06,-5.511],[-39.071,-5.486],[-39.056,-5.43],[-39.085,-5.402],[-39.054,-5.3],[-39.033,-5.266],[-39.047,-5.226],[-39.089,-5.173],[-39.083,-5.151],[-39.149,-5.144],[-39.161,-5.119],[-39.148,-5.062],[-39.17,-5.053],[-39.217,-5.01],[-39.234,-4.977],[-39.225,-4.961],[-39.254,-4.919],[-39.3,-4.88],[-39.303,-4.844],[-39.332,-4.835],[-39.34,-4.792],[-39.365,-4.846],[-39.347,-4.896],[-39.366,-4.933],[-39.348,-4.96],[-39.374,-4.973],[-39.395,-4.927],[-39.481,-4.977],[-39.473,-5.009],[-39.502,-5.052],[-39.629,-5.043],[-39.614,-5.084],[-39.536,-5.119],[-39.624,-5.255],[-39.632,-5.337],[-39.623,-5.359],[-39.645,-5.384],[-39.613,-5.406],[-39.544,-5.405],[-39.528,-5.453],[-39.5,-5.454],[-39.464,-5.476],[-39.438,-5.479],[-39.42,-5.499],[-39.368,-5.526],[-39.322,-5.51],[-39.297,-5.512],[-39.254,-5.562],[-39.247,-5.593]]]}},{"type":"Feature","properties":{"code":"2303204"},"geometry":{"type":"Polygon","coordinates":[[[-39.34,-7.109],[-39.293,-7.11],[-39.281,-7.093],[-39.193,-7.151],[-39.163,-7.133],[-39.136,-7.131],[-39.116,-7.101],[-39.157,-7.034],[-39.162,-7.006],[-39.149,-6.983],[-39.107,-6.963],[-39.116,-6.943],[-39.167,-6.936],[-39.236,-6.928],[-39.246,-6.935],[-39.347,-6.936],[-39.339,-6.906],[-39.395,-6.922],[-39.423,-6.962],[-39.436,-6.963],[-39.452,-7.009],[-39.455,-7.056],[-39.362,-7.058],[-39.34,-7.109]]]}},{"type":"Feature","properties":{"code":"2303105"},"geometry":{"type":"Polygon","coordinates":[[[-40.36,-4.032],[-40.395,-3.967],[-40.405,-3.908],[-40.416,-3.807],[-40.445,-3.835],[-40.501,-3.853],[-40.581,-3.861],[-40.623,-3.825],[-40.646,-3.841],[-40.679,-3.842],[-40.713,-3.887],[-40.713,-3.918],[-40.666,-3.939],[-40.654,-3.956],[-40.667,-3.986],[-40.639,-4.016],[-40.568,-4.047],[-40.513,-4.046],[-40.472,-4.086],[-40.431,-4.091],[-40.373,-4.092],[-40.36,-4.032]]]}},{"type":"Feature","properties":{"code":"2311264"},"geometry":{"type":"Polygon","coordinates":[[[-40.714,-6.04],[-40.734,-6.03],[-40.743,-5.979],[-40.713,-5.966],[-40.696,-5.912],[-40.672,-5.915],[-40.682,-5.873],[-40.642,-5.84],[-40.63,-5.853],[-40.599,-5.839],[-40.565,-5.841],[-40.563,-5.788],[-40.57,-5.757],[-40.557,-5.742],[-40.624,-5.733],[-40.664,-5.677],[-40.68,-5.69],[-40.725,-5.69],[-40.75,-5.72],[-40.792,-5.733],[-40.844,-5.771],[-40.91,-5.764],[-40.906,-5.849],[-40.88,-5.918],[-40.874,-5.973],[-40.904,-6.021],[-40.906,-6.046],[-40.873,-6.057],[-40.858,-6.105],[-40.807,-6.105],[-40.791,-6.089],[-40.748,-6.091],[-40.738,-6.058],[-40.714,-6.04]]]}},{"type":"Feature","properties":{"code":"2311355"},"geometry":{"type":"Polygon","coordinates":[[[-39.308,-6.175],[-39.277,-6.172],[-39.266,-6.223],[-39.295,-6.232],[-39.318,-6.266],[-39.286,-6.279],[-39.257,-6.272],[-39.241,-6.291],[-39.209,-6.29],[-39.163,-6.305],[-39.135,-6.289],[-39.097,-6.242],[-39.072,-6.235],[-39.056,-6.259],[-39.003,-6.22],[-38.986,-6.157],[-38.969,-6.122],[-38.976,-6.103],[-38.99,-6.076],[-38.986,-6.029],[-39.019,-6.005],[-39.051,-6.025],[-39.091,-6.084],[-39.09,-6.094],[-39.142,-6.154],[-39.26,-6.128],[-39.308,-6.175]]]}},{"type":"Feature","properties":{"code":"2311306"},"geometry":{"type":"Polygon","coordinates":[[[-39.083,-5.151],[-39.032,-5.164],[-38.957,-5.153],[-38.9,-5.164],[-38.813,-5.067],[-38.762,-5.079],[-38.744,-5.095],[-38.699,-5.093],[-38.65,-5.122],[-38.618,-5.119],[-38.625,-5.067],[-38.677,-5.028],[-38.678,-5.005],[-38.647,-4.98],[-38.648,-4.938],[-38.701,-4.902],[-38.883,-4.935],[-38.891,-4.893],[-38.919,-4.852],[-38.875,-4.852],[-38.802,-4.741],[-38.874,-4.679],[-38.883,-4.708],[-38.923,-4.739],[-38.944,-4.74],[-38.965,-4.704],[-38.953,-4.664],[-38.978,-4.668],[-39.035,-4.668],[-39.041,-4.711],[-39.072,-4.726],[-39.104,-4.762],[-39.048,-4.771],[-39.066,-4.812],[-39.14,-4.88],[-39.166,-4.925],[-39.198,-4.966],[-39.225,-4.961],[-39.234,-4.977],[-39.217,-5.01],[-39.17,-5.053],[-39.148,-5.062],[-39.161,-5.119],[-39.149,-5.144],[-39.083,-5.151]]]}},{"type":"Feature","properties":{"code":"2311702"},"geometry":{"type":"Polygon","coordinates":[[[-40.687,-4.21],[-40.598,-4.202],[-40.546,-4.173],[-40.519,-4.166],[-40.514,-4.133],[-40.533,-4.098],[-40.472,-4.086],[-40.513,-4.046],[-40.568,-4.047],[-40.639,-4.016],[-40.634,-4.028],[-40.682,-4.058],[-40.713,-4.128],[-40.711,-4.168],[-40.727,-4.204],[-40.687,-4.21]]]}},{"type":"Feature","properties":{"code":"2303501"},"geometry":{"type":"Polygon","coordinates":[[[-38.36,-4.502],[-38.32,-4.433],[-38.269,-4.405],[-38.251,-4.358],[-38.227,-4.35],[-38.227,-4.206],[-38.182,-4.195],[-38.148,-4.102],[-38.192,-4.041],[-38.223,-4.007],[-38.236,-4.023],[-38.257,-4.044],[-38.263,-4.073],[-38.295,-4.061],[-38.291,-4.096],[-38.349,-4.088],[-38.37,-4.066],[-38.373,-4.079],[-38.382,-4.145],[-38.393,-4.223],[-38.385,-4.338],[-38.403,-4.359],[-38.429,-4.357],[-38.437,-4.384],[-38.368,-4.464],[-38.36,-4.502]]]}},{"type":"Feature","properties":{"code":"2311504"},"geometry":{"type":"Polygon","coordinates":[[[-38.061,-5.08],[-38.009,-5.079],[-37.973,-5.107],[-37.926,-5.173],[-37.833,-5.223],[-37.786,-5.224],[-37.788,-5.219],[-37.765,-5.14],[-37.733,-5.101],[-37.725,-5.071],[-37.677,-5.053],[-37.809,-4.989],[-37.845,-4.993],[-37.862,-4.978],[-37.902,-4.981],[-37.934,-5.003],[-38.018,-5.024],[-38.061,-5.08]]]}},{"type":"Feature","properties":{"code":"2303303"},"geometry":{"type":"Polygon","coordinates":[[[-39.51,-6.777],[-39.478,-6.756],[-39.442,-6.79],[-39.419,-6.782],[-39.398,-6.756],[-39.382,-6.77],[-39.328,-6.77],[-39.302,-6.74],[-39.336,-6.725],[-39.32,-6.693],[-39.291,-6.675],[-39.279,-6.629],[-39.313,-6.585],[-39.298,-6.562],[-39.281,-6.526],[-39.34,-6.535],[-39.359,-6.509],[-39.348,-6.485],[-39.398,-6.465],[-39.421,-6.463],[-39.462,-6.51],[-39.512,-6.525],[-39.536,-6.558],[-39.678,-6.623],[-39.715,-6.622],[-39.737,-6.633],[-39.696,-6.642],[-39.666,-6.637],[-39.647,-6.685],[-39.641,-6.739],[-39.599,-6.759],[-39.616,-6.788],[-39.556,-6.777],[-39.51,-6.777]]]}},{"type":"Feature","properties":{"code":"2311603"},"geometry":{"type":"Polygon","coordinates":[[[-38.694,-4.38],[-38.7,-4.33],[-38.687,-4.287],[-38.721,-4.28],[-38.707,-4.248],[-38.718,-4.187],[-38.719,-4.168],[-38.789,-4.142],[-38.803,-4.161],[-38.855,-4.177],[-38.849,-4.23],[-38.809,-4.25],[-38.796,-4.296],[-38.766,-4.306],[-38.745,-4.352],[-38.711,-4.384],[-38.694,-4.38]]]}},{"type":"Feature","properties":{"code":"2303402"},"geometry":{"type":"Polygon","coordinates":[[[-41.099,-4.181],[-41.074,-4.2],[-41.001,-4.195],[-40.975,-4.23],[-40.901,-4.159],[-40.887,-4.143],[-40.891,-4.11],[-40.941,-4.058],[-40.98,-4.055],[-41.033,-4.067],[-41.068,-4.05],[-41.096,-4.066],[-41.139,-4.121],[-41.118,-4.165],[-41.098,-4.181],[-41.099,-4.181]]]}},{"type":"Feature","properties":{"code":"2310902"},"geometry":{"type":"Polygon","coordinates":[[[-39.566,-5.963],[-39.536,-5.98],[-39.481,-5.988],[-39.465,-5.981],[-39.415,-5.986],[-39.382,-5.974],[-39.363,-5.981],[-39.354,-5.952],[-39.368,-5.901],[-39.342,-5.851],[-39.341,-5.808],[-39.328,-5.783],[-39.434,-5.729],[-39.453,-5.737],[-39.475,-5.701],[-39.503,-5.73],[-39.557,-5.849],[-39.546,-5.862],[-39.566,-5.963]]]}},{"type":"Feature","properties":{"code":"2302701"},"geometry":{"type":"Polygon","coordinates":[[[-40.459,-7.079],[-40.447,-7.089],[-40.335,-7.128],[-40.324,-7.082],[-40.252,-7.06],[-40.213,-7.029],[-40.135,-7.001],[-40.122,-7.022],[-40.082,-6.983],[-40.059,-6.933],[-40.126,-6.887],[-40.077,-6.857],[-40.087,-6.847],[-40.147,-6.831],[-40.145,-6.819],[-40.15,-6.785],[-40.184,-6.76],[-40.203,-6.774],[-40.242,-6.777],[-40.266,-6.797],[-40.301,-6.807],[-40.37,-6.803],[-40.387,-6.83],[-40.428,-6.864],[-40.433,-6.909],[-40.425,-6.935],[-40.428,-7.034],[-40.459,-7.079]]]}},{"type":"Feature","properties":{"code":"2310951"},"geometry":{"type":"Polygon","coordinates":[[[-40.478,-4.292],[-40.451,-4.26],[-40.44,-4.253],[-40.451,-4.209],[-40.517,-4.256],[-40.55,-4.215],[-40.598,-4.202],[-40.687,-4.21],[-40.704,-4.283],[-40.664,-4.309],[-40.649,-4.294],[-40.621,-4.306],[-40.569,-4.315],[-40.478,-4.292]]]}},{"type":"Feature","properties":{"code":"2310852"},"geometry":{"type":"Polygon","coordinates":[[[-38.37,-4.066],[-38.349,-4.088],[-38.291,-4.096],[-38.295,-4.061],[-38.263,-4.073],[-38.257,-4.044],[-38.236,-4.023],[-38.253,-4.029],[-38.313,-4.011],[-38.37,-4.066]]]}},{"type":"Feature","properties":{"code":"2310803"},"geometry":{"type":"Polygon","coordinates":[[[-38.52,-6.223],[-38.527,-6.193],[-38.475,-6.157],[-38.466,-6.121],[-38.433,-6.078],[-38.405,-6.057],[-38.422,-6.012],[-38.398,-5.995],[-38.379,-5.951],[-38.403,-5.917],[-38.457,-5.871],[-38.483,-5.884],[-38.465,-5.821],[-38.475,-5.779],[-38.485,-5.793],[-38.483,-5.85],[-38.512,-5.878],[-38.491,-5.925],[-38.512,-5.977],[-38.508,-6.003],[-38.54,-6.042],[-38.544,-6.073],[-38.562,-6.093],[-38.589,-6.164],[-38.6,-6.178],[-38.587,-6.202],[-38.551,-6.234],[-38.52,-6.223]]]}},{"type":"Feature","properties":{"code":"2302602"},"geometry":{"type":"Polygon","coordinates":[[[-41.102,-2.901],[-41.086,-2.908],[-41.065,-2.962],[-41.082,-3.019],[-41.12,-3.065],[-41.102,-3.094],[-40.992,-3.03],[-40.88,-3.011],[-40.839,-3.036],[-40.692,-3.009],[-40.564,-3.016],[-40.495,-3.062],[-40.512,-2.954],[-40.53,-2.942],[-40.528,-2.89],[-40.561,-2.883],[-40.59,-2.846],[-40.67,-2.843],[-40.76,-2.849],[-40.792,-2.867],[-40.846,-2.885],[-40.858,-2.861],[-40.907,-2.861],[-40.923,-2.874],[-41.002,-2.89],[-41.102,-2.901]]]}},{"type":"Feature","properties":{"code":"2311231"},"geometry":{"type":"Polygon","coordinates":[[[-38.249,-5.646],[-38.267,-5.678],[-38.249,-5.731],[-38.25,-5.771],[-38.227,-5.834],[-38.186,-5.843],[-38.151,-5.86],[-38.147,-5.892],[-38.159,-5.925],[-38.123,-5.882],[-38.119,-5.833],[-38.059,-5.755],[-38.047,-5.733],[-38.09,-5.715],[-38.083,-5.672],[-38.138,-5.675],[-38.194,-5.633],[-38.249,-5.646]]]}},{"type":"Feature","properties":{"code":"2311207"},"geometry":{"type":"Polygon","coordinates":[[[-40.165,-7.047],[-40.136,-7.112],[-40.072,-7.146],[-40.0,-7.151],[-39.981,-7.145],[-39.917,-7.094],[-39.897,-7.097],[-39.884,-7.09],[-39.89,-7.053],[-39.901,-7.068],[-39.943,-7.077],[-39.949,-7.011],[-40.073,-7.005],[-40.082,-6.983],[-40.122,-7.022],[-40.165,-7.047]]]}},{"type":"Feature","properties":{"code":"2303006"},"geometry":{"type":"Polygon","coordinates":[[[-39.054,-4.352],[-39.026,-4.319],[-39.046,-4.3],[-39.003,-4.261],[-39.006,-4.212],[-38.95,-4.182],[-38.955,-4.137],[-38.93,-4.138],[-38.944,-4.104],[-38.957,-4.073],[-38.984,-4.044],[-39.004,-3.992],[-39.028,-4.063],[-39.064,-4.066],[-39.204,-4.047],[-39.155,-4.098],[-39.161,-4.127],[-39.206,-4.131],[-39.205,-4.176],[-39.309,-4.178],[-39.334,-4.194],[-39.24,-4.284],[-39.208,-4.29],[-39.191,-4.308],[-39.168,-4.382],[-39.094,-4.387],[-39.067,-4.399],[-39.054,-4.352]]]}},{"type":"Feature","properties":{"code":"2311009"},"geometry":{"type":"Polygon","coordinates":[[[-41.051,-5.026],[-41.033,-4.965],[-40.992,-4.915],[-40.942,-4.883],[-40.928,-4.886],[-40.876,-4.854],[-40.882,-4.784],[-40.872,-4.712],[-40.955,-4.716],[-40.963,-4.688],[-40.987,-4.66],[-41.099,-4.602],[-41.148,-4.6],[-41.24,-4.574],[-41.233,-4.61],[-41.203,-4.638],[-41.181,-4.673],[-41.25,-4.757],[-41.213,-4.772],[-41.233,-4.81],[-41.25,-4.87],[-41.228,-4.891],[-41.22,-4.939],[-41.189,-4.941],[-41.151,-4.992],[-41.124,-5.006],[-41.122,-5.026],[-41.051,-5.026]]]}},{"type":"Feature","properties":{"code":"2311108"},"geometry":{"type":"Polygon","coordinates":[[[-39.027,-7.634],[-39.032,-7.61],[-39.03,-7.533],[-39.088,-7.486],[-39.154,-7.451],[-39.187,-7.474],[-39.195,-7.504],[-39.171,-7.563],[-39.073,-7.626],[-39.046,-7.642],[-39.027,-7.634]]]}},{"type":"Feature","properties":{"code":"2302800"},"geometry":{"type":"Polygon","coordinates":[[[-39.704,-4.544],[-39.643,-4.507],[-39.607,-4.503],[-39.562,-4.471],[-39.53,-4.488],[-39.494,-4.482],[-39.483,-4.527],[-39.465,-4.563],[-39.443,-4.576],[-39.452,-4.6],[-39.422,-4.645],[-39.426,-4.679],[-39.401,-4.687],[-39.371,-4.717],[-39.367,-4.725],[-39.363,-4.739],[-39.305,-4.707],[-39.282,-4.652],[-39.18,-4.655],[-39.16,-4.636],[-39.13,-4.628],[-39.066,-4.561],[-39.084,-4.536],[-39.085,-4.472],[-39.028,-4.46],[-39.09,-4.413],[-39.094,-4.387],[-39.168,-4.382],[-39.191,-4.308],[-39.208,-4.29],[-39.24,-4.284],[-39.334,-4.194],[-39.492,-4.291],[-39.507,-4.242],[-39.57,-4.219],[-39.56,-4.181],[-39.541,-4.16],[-39.547,-4.11],[-39.533,-4.084],[-39.557,-4.101],[-39.598,-4.094],[-39.628,-4.07],[-39.665,-4.082],[-39.74,-4.11],[-39.758,-4.158],[-39.774,-4.174],[-39.788,-4.189],[-39.766,-4.248],[-39.73,-4.275],[-39.734,-4.333],[-39.714,-4.354],[-39.712,-4.38],[-39.752,-4.407],[-39.73,-4.447],[-39.723,-4.484],[-39.756,-4.502],[-39.768,-4.524],[-39.746,-4.545],[-39.704,-4.544]]]}},{"type":"Feature","properties":{"code":"2302909"},"geometry":{"type":"Polygon","coordinates":[[[-38.801,-4.583],[-38.852,-4.447],[-38.887,-4.431],[-38.944,-4.387],[-38.92,-4.357],[-38.959,-4.357],[-38.97,-4.368],[-38.983,-4.381],[-38.974,-4.439],[-38.993,-4.452],[-38.999,-4.481],[-38.98,-4.497],[-38.95,-4.488],[-38.901,-4.528],[-38.873,-4.526],[-38.866,-4.551],[-38.842,-4.549],[-38.839,-4.579],[-38.801,-4.583]]]}},{"type":"Feature","properties":{"code":"2302206"},"geometry":{"type":"Polygon","coordinates":[[[-38.182,-4.623],[-38.124,-4.62],[-38.084,-4.588],[-38.001,-4.598],[-37.986,-4.584],[-37.981,-4.541],[-37.963,-4.53],[-37.954,-4.48],[-37.976,-4.432],[-37.95,-4.404],[-37.913,-4.4],[-37.905,-4.414],[-37.858,-4.401],[-37.845,-4.382],[-37.907,-4.34],[-37.988,-4.261],[-38.011,-4.25],[-38.115,-4.149],[-38.148,-4.102],[-38.182,-4.195],[-38.227,-4.206],[-38.227,-4.35],[-38.251,-4.358],[-38.269,-4.405],[-38.32,-4.433],[-38.36,-4.502],[-38.235,-4.574],[-38.215,-4.59],[-38.182,-4.623]]]}},{"type":"Feature","properties":{"code":"2310407"},"geometry":{"type":"Polygon","coordinates":[[[-39.334,-4.194],[-39.309,-4.178],[-39.205,-4.176],[-39.206,-4.131],[-39.161,-4.127],[-39.155,-4.098],[-39.204,-4.047],[-39.228,-4.073],[-39.27,-4.086],[-39.324,-4.09],[-39.371,-4.11],[-39.407,-4.096],[-39.446,-4.104],[-39.45,-4.131],[-39.492,-4.112],[-39.521,-4.119],[-39.541,-4.16],[-39.56,-4.181],[-39.57,-4.219],[-39.507,-4.242],[-39.492,-4.291],[-39.334,-4.194]]]}},{"type":"Feature","properties":{"code":"2310258"},"geometry":{"type":"Polygon","coordinates":[[[-39.263,-3.49],[-39.212,-3.513],[-39.166,-3.523],[-39.141,-3.48],[-39.119,-3.485],[-39.11,-3.425],[-39.065,-3.407],[-39.091,-3.385],[-39.113,-3.347],[-39.139,-3.346],[-39.165,-3.326],[-39.206,-3.356],[-39.238,-3.36],[-39.254,-3.397],[-39.263,-3.49]]]}},{"type":"Feature","properties":{"code":"2302057"},"geometry":{"type":"Polygon","coordinates":[[[-41.102,-3.094],[-41.12,-3.065],[-41.082,-3.019],[-41.065,-2.962],[-41.086,-2.908],[-41.102,-2.901],[-41.177,-2.886],[-41.271,-2.887],[-41.323,-2.921],[-41.322,-2.952],[-41.271,-2.972],[-41.248,-2.972],[-41.194,-2.998],[-41.186,-3.03],[-41.158,-3.071],[-41.172,-3.086],[-41.151,-3.125],[-41.102,-3.094]]]}},{"type":"Feature","properties":{"code":"2310308"},"geometry":{"type":"Polygon","coordinates":[[[-40.736,-6.6],[-40.61,-6.603],[-40.578,-6.549],[-40.453,-6.524],[-40.442,-6.49],[-40.392,-6.475],[-40.366,-6.43],[-40.327,-6.402],[-40.405,-6.312],[-40.435,-6.335],[-40.528,-6.348],[-40.548,-6.34],[-40.611,-6.338],[-40.566,-6.292],[-40.519,-6.269],[-40.499,-6.251],[-40.488,-6.203],[-40.532,-6.16],[-40.509,-6.144],[-40.494,-6.084],[-40.466,-6.017],[-40.493,-5.982],[-40.543,-6.004],[-40.611,-5.99],[-40.644,-6.004],[-40.688,-6.011],[-40.714,-6.04],[-40.738,-6.058],[-40.748,-6.091],[-40.791,-6.089],[-40.807,-6.105],[-40.858,-6.105],[-40.846,-6.138],[-40.853,-6.16],[-40.852,-6.224],[-40.787,-6.305],[-40.779,-6.341],[-40.805,-6.393],[-40.796,-6.428],[-40.79,-6.501],[-40.788,-6.524],[-40.754,-6.555],[-40.736,-6.6]]]}},{"type":"Feature","properties":{"code":"2302107"},"geometry":{"type":"Polygon","coordinates":[[[-38.766,-4.623],[-38.747,-4.527],[-38.791,-4.51],[-38.834,-4.474],[-38.842,-4.454],[-38.842,-4.361],[-38.824,-4.314],[-38.787,-4.321],[-38.766,-4.306],[-38.796,-4.296],[-38.809,-4.25],[-38.849,-4.23],[-38.891,-4.277],[-38.916,-4.292],[-38.934,-4.323],[-38.959,-4.357],[-38.92,-4.357],[-38.944,-4.387],[-38.887,-4.431],[-38.852,-4.447],[-38.801,-4.583],[-38.766,-4.623]]]}},{"type":"Feature","properties":{"code":"2310605"},"geometry":{"type":"Polygon","coordinates":[[[-39.103,-7.771],[-39.088,-7.833],[-39.018,-7.813],[-39.001,-7.84],[-38.966,-7.846],[-38.959,-7.817],[-38.97,-7.777],[-39.008,-7.778],[-39.059,-7.75],[-39.069,-7.732],[-39.118,-7.684],[-39.147,-7.718],[-39.103,-7.771]]]}},{"type":"Feature","properties":{"code":"2310704"},"geometry":{"type":"Polygon","coordinates":[[[-38.944,-3.945],[-38.988,-3.869],[-38.999,-3.835],[-38.983,-3.816],[-38.978,-3.779],[-38.957,-3.768],[-38.952,-3.726],[-38.962,-3.712],[-39.002,-3.685],[-39.143,-3.704],[-39.214,-3.693],[-39.277,-3.737],[-39.322,-3.732],[-39.355,-3.739],[-39.367,-3.768],[-39.432,-3.785],[-39.415,-3.83],[-39.354,-3.844],[-39.34,-3.861],[-39.309,-3.936],[-39.294,-3.92],[-39.24,-3.9],[-39.215,-3.945],[-39.182,-3.978],[-39.192,-4.03],[-39.204,-4.047],[-39.064,-4.066],[-39.028,-4.063],[-39.004,-3.992],[-38.944,-3.945]]]}},{"type":"Feature","properties":{"code":"2302503"},"geometry":{"type":"Polygon","coordinates":[[[-38.717,-7.626],[-38.776,-7.604],[-38.882,-7.457],[-38.941,-7.428],[-38.97,-7.427],[-39.078,-7.422],[-39.094,-7.464],[-39.154,-7.451],[-39.088,-7.486],[-39.03,-7.533],[-39.032,-7.61],[-39.027,-7.634],[-38.968,-7.607],[-38.946,-7.614],[-38.892,-7.611],[-38.895,-7.75],[-38.87,-7.712],[-38.828,-7.72],[-38.824,-7.678],[-38.761,-7.656],[-38.743,-7.66],[-38.717,-7.626]]]}},{"type":"Feature","properties":{"code":"2310506"},"geometry":{"type":"Polygon","coordinates":[[[-40.022,-5.71],[-40.047,-5.674],[-40.038,-5.646],[-40.012,-5.624],[-39.932,-5.633],[-39.852,-5.626],[-39.834,-5.591],[-39.745,-5.594],[-39.691,-5.6],[-39.675,-5.622],[-39.632,-5.606],[-39.596,-5.58],[-39.58,-5.504],[-39.639,-5.473],[-39.644,-5.446],[-39.668,-5.413],[-39.645,-5.384],[-39.623,-5.359],[-39.632,-5.337],[-39.664,-5.362],[-39.687,-5.358],[-39.783,-5.38],[-39.799,-5.399],[-39.842,-5.369],[-39.876,-5.374],[-39.897,-5.397],[-39.922,-5.39],[-39.957,-5.348],[-39.993,-5.35],[-40.021,-5.328],[-40.055,-5.363],[-40.059,-5.397],[-40.054,-5.487],[-40.028,-5.49],[-40.014,-5.519],[-40.034,-5.564],[-40.077,-5.582],[-40.057,-5.598],[-40.054,-5.641],[-40.074,-5.665],[-40.043,-5.712],[-40.022,-5.71]]]}},{"type":"Feature","properties":{"code":"2302305"},"geometry":{"type":"Polygon","coordinates":[[[-40.495,-3.062],[-40.421,-3.122],[-40.382,-3.134],[-40.365,-3.155],[-40.353,-3.203],[-40.32,-3.193],[-40.297,-3.205],[-40.268,-3.15],[-40.236,-3.168],[-40.148,-3.107],[-40.14,-3.073],[-40.084,-3.115],[-40.083,-3.086],[-40.122,-3.035],[-40.156,-3.032],[-40.155,-2.993],[-40.17,-2.985],[-40.17,-2.944],[-40.237,-2.952],[-40.264,-2.94],[-40.32,-2.944],[-40.331,-2.964],[-40.372,-2.965],[-40.41,-2.951],[-40.41,-2.966],[-40.512,-2.954],[-40.495,-3.062]]]}},{"type":"Feature","properties":{"code":"2302404"},"geometry":{"type":"Polygon","coordinates":[[[-39.632,-5.337],[-39.624,-5.255],[-39.536,-5.119],[-39.614,-5.084],[-39.629,-5.043],[-39.597,-4.999],[-39.619,-4.908],[-39.65,-4.87],[-39.663,-4.808],[-39.678,-4.789],[-39.723,-4.778],[-39.726,-4.75],[-39.737,-4.736],[-39.729,-4.696],[-39.743,-4.72],[-39.807,-4.708],[-39.824,-4.73],[-39.856,-4.736],[-39.885,-4.79],[-39.929,-4.774],[-39.929,-4.797],[-39.949,-4.817],[-39.946,-4.839],[-39.895,-4.885],[-39.901,-4.905],[-39.957,-4.925],[-39.968,-4.948],[-39.958,-5.025],[-39.998,-5.085],[-40.16,-5.165],[-40.097,-5.16],[-40.054,-5.18],[-40.024,-5.207],[-40.047,-5.239],[-40.049,-5.279],[-40.027,-5.297],[-40.021,-5.328],[-39.993,-5.35],[-39.957,-5.348],[-39.922,-5.39],[-39.897,-5.397],[-39.876,-5.374],[-39.842,-5.369],[-39.799,-5.399],[-39.783,-5.38],[-39.687,-5.358],[-39.664,-5.362],[-39.632,-5.337]]]}},{"type":"Feature","properties":{"code":"2309904"},"geometry":{"type":"Polygon","coordinates":[[[-40.639,-4.016],[-40.667,-3.986],[-40.654,-3.956],[-40.666,-3.939],[-40.677,-3.954],[-40.731,-3.967],[-40.713,-4.06],[-40.682,-4.058],[-40.634,-4.028],[-40.639,-4.016]]]}},{"type":"Feature","properties":{"code":"2301703"},"geometry":{"type":"Polygon","coordinates":[[[-39.026,-7.15],[-38.958,-7.082],[-38.909,-7.083],[-38.856,-6.978],[-38.781,-7.001],[-38.765,-6.994],[-38.742,-6.974],[-38.765,-6.91],[-38.785,-6.905],[-38.774,-6.868],[-38.82,-6.857],[-38.856,-6.859],[-38.965,-6.862],[-39.015,-6.878],[-39.087,-6.937],[-39.107,-6.963],[-39.149,-6.983],[-39.162,-7.006],[-39.157,-7.034],[-39.116,-7.101],[-39.136,-7.131],[-39.115,-7.155],[-39.09,-7.157],[-39.05,-7.138],[-39.026,-7.15]]]}},{"type":"Feature","properties":{"code":"2309706"},"geometry":{"type":"Polygon","coordinates":[[[-38.575,-4.054],[-38.574,-3.996],[-38.556,-3.906],[-38.542,-3.859],[-38.613,-3.884],[-38.611,-3.922],[-38.64,-3.969],[-38.67,-4.005],[-38.668,-4.018],[-38.636,-4.024],[-38.606,-4.015],[-38.575,-4.054]]]}},{"type":"Feature","properties":{"code":"2309805"},"geometry":{"type":"Polygon","coordinates":[[[-38.95,-4.182],[-38.941,-4.236],[-38.903,-4.249],[-38.891,-4.277],[-38.849,-4.23],[-38.855,-4.177],[-38.88,-4.172],[-38.895,-4.147],[-38.93,-4.138],[-38.955,-4.137],[-38.95,-4.182]]]}},{"type":"Feature","properties":{"code":"2301604"},"geometry":{"type":"Polygon","coordinates":[[[-39.748,-7.022],[-39.759,-6.993],[-39.702,-6.954],[-39.693,-6.967],[-39.64,-6.946],[-39.608,-6.917],[-39.618,-6.898],[-39.647,-6.893],[-39.655,-6.862],[-39.637,-6.846],[-39.653,-6.821],[-39.691,-6.824],[-39.709,-6.785],[-39.741,-6.806],[-39.791,-6.802],[-39.879,-6.767],[-39.909,-6.763],[-39.987,-6.815],[-40.002,-6.803],[-40.053,-6.825],[-40.077,-6.857],[-40.126,-6.887],[-40.059,-6.933],[-40.082,-6.983],[-40.073,-7.005],[-39.949,-7.011],[-39.943,-7.077],[-39.901,-7.068],[-39.89,-7.053],[-39.807,-7.037],[-39.773,-7.061],[-39.748,-7.022]]]}},{"type":"Feature","properties":{"code":"2301950"},"geometry":{"type":"Polygon","coordinates":[[[-38.534,-4.369],[-38.548,-4.323],[-38.548,-4.271],[-38.571,-4.236],[-38.575,-4.23],[-38.612,-4.226],[-38.626,-4.248],[-38.658,-4.253],[-38.687,-4.287],[-38.7,-4.33],[-38.694,-4.38],[-38.67,-4.413],[-38.644,-4.415],[-38.612,-4.379],[-38.574,-4.385],[-38.534,-4.369]]]}},{"type":"Feature","properties":{"code":"2310100"},"geometry":{"type":"Polygon","coordinates":[[[-38.855,-4.177],[-38.803,-4.161],[-38.789,-4.142],[-38.755,-4.128],[-38.748,-4.093],[-38.785,-4.094],[-38.834,-4.073],[-38.841,-4.104],[-38.862,-4.112],[-38.944,-4.104],[-38.93,-4.138],[-38.895,-4.147],[-38.88,-4.172],[-38.855,-4.177]]]}},{"type":"Feature","properties":{"code":"2310209"},"geometry":{"type":"Polygon","coordinates":[[[-39.166,-3.523],[-39.1,-3.532],[-39.05,-3.554],[-38.996,-3.554],[-38.958,-3.542],[-38.968,-3.511],[-38.929,-3.473],[-38.974,-3.411],[-39.007,-3.397],[-39.049,-3.413],[-39.065,-3.407],[-39.11,-3.425],[-39.119,-3.485],[-39.141,-3.48],[-39.166,-3.523]]]}},{"type":"Feature","properties":{"code":"2301901"},"geometry":{"type":"Polygon","coordinates":[[[-39.372,-7.615],[-39.372,-7.458],[-39.254,-7.488],[-39.254,-7.448],[-39.223,-7.397],[-39.241,-7.363],[-39.207,-7.302],[-39.258,-7.263],[-39.347,-7.266],[-39.376,-7.305],[-39.401,-7.307],[-39.446,-7.336],[-39.445,-7.572],[-39.42,-7.603],[-39.392,-7.608],[-39.372,-7.615]]]}},{"type":"Feature","properties":{"code":"2302008"},"geometry":{"type":"Polygon","coordinates":[[[-38.783,-7.227],[-38.738,-7.238],[-38.672,-7.232],[-38.62,-7.22],[-38.625,-7.191],[-38.644,-7.184],[-38.682,-7.187],[-38.678,-7.133],[-38.656,-7.092],[-38.677,-7.067],[-38.67,-7.048],[-38.674,-7.046],[-38.691,-7.029],[-38.765,-6.994],[-38.781,-7.001],[-38.856,-6.978],[-38.909,-7.083],[-38.948,-7.142],[-38.914,-7.243],[-38.842,-7.24],[-38.798,-7.219],[-38.783,-7.227]]]}},{"type":"Feature","properties":{"code":"2310001"},"geometry":{"type":"Polygon","coordinates":[[[-38.182,-4.623],[-38.147,-4.665],[-38.095,-4.704],[-38.085,-4.732],[-38.049,-4.778],[-38.06,-4.813],[-38.042,-4.845],[-37.9,-4.821],[-37.934,-4.764],[-37.956,-4.729],[-37.95,-4.662],[-37.993,-4.661],[-37.974,-4.615],[-37.986,-4.584],[-38.001,-4.598],[-38.084,-4.588],[-38.124,-4.62],[-38.182,-4.623]]]}},{"type":"Feature","properties":{"code":"2301802"},"geometry":{"type":"Polygon","coordinates":[[[-38.672,-6.706],[-38.801,-6.659],[-38.844,-6.667],[-38.859,-6.693],[-38.847,-6.709],[-38.798,-6.725],[-38.78,-6.722],[-38.749,-6.755],[-38.72,-6.768],[-38.681,-6.755],[-38.652,-6.757],[-38.672,-6.706]]]}},{"type":"Feature","properties":{"code":"2301851"},"geometry":{"type":"Polygon","coordinates":[[[-39.083,-5.151],[-39.089,-5.173],[-39.047,-5.226],[-39.033,-5.266],[-39.054,-5.3],[-39.085,-5.402],[-39.056,-5.43],[-39.071,-5.486],[-39.06,-5.511],[-39.027,-5.49],[-38.975,-5.521],[-38.929,-5.486],[-38.911,-5.455],[-38.92,-5.419],[-38.923,-5.329],[-38.85,-5.289],[-38.809,-5.221],[-38.776,-5.204],[-38.708,-5.201],[-38.692,-5.227],[-38.677,-5.227],[-38.612,-5.151],[-38.618,-5.119],[-38.65,-5.122],[-38.699,-5.093],[-38.744,-5.095],[-38.762,-5.079],[-38.813,-5.067],[-38.9,-5.164],[-38.957,-5.153],[-39.032,-5.164],[-39.083,-5.151]]]}},{"type":"Feature","properties":{"code":"2309409"},"geometry":{"type":"Polygon","coordinates":[[[-40.91,-5.764],[-40.844,-5.771],[-40.792,-5.733],[-40.75,-5.72],[-40.725,-5.69],[-40.68,-5.69],[-40.664,-5.677],[-40.629,-5.636],[-40.637,-5.614],[-40.608,-5.559],[-40.612,-5.52],[-40.57,-5.439],[-40.555,-5.427],[-40.646,-5.427],[-40.688,-5.472],[-40.722,-5.463],[-40.739,-5.484],[-40.775,-5.493],[-40.846,-5.479],[-40.863,-5.493],[-40.902,-5.477],[-40.93,-5.494],[-40.932,-5.549],[-40.916,-5.564],[-40.902,-5.608],[-40.908,-5.642],[-40.939,-5.673],[-40.914,-5.725],[-40.91,-5.764]]]}},{"type":"Feature","properties":{"code":"2301208"},"geometry":{"type":"Polygon","coordinates":[[[-38.766,-4.623],[-38.7,-4.612],[-38.689,-4.652],[-38.663,-4.662],[-38.631,-4.7],[-38.574,-4.67],[-38.613,-4.653],[-38.65,-4.556],[-38.622,-4.536],[-38.637,-4.455],[-38.602,-4.42],[-38.568,-4.413],[-38.534,-4.369],[-38.574,-4.385],[-38.612,-4.379],[-38.644,-4.415],[-38.67,-4.413],[-38.694,-4.38],[-38.711,-4.384],[-38.745,-4.352],[-38.766,-4.306],[-38.787,-4.321],[-38.824,-4.314],[-38.842,-4.361],[-38.842,-4.454],[-38.834,-4.474],[-38.791,-4.51],[-38.747,-4.527],[-38.766,-4.623]]]}},{"type":"Feature","properties":{"code":"2309201"},"geometry":{"type":"Polygon","coordinates":[[[-39.6,-7.21],[-39.599,-7.08],[-39.578,-7.074],[-39.58,-7.044],[-39.632,-7.023],[-39.681,-7.016],[-39.717,-7.002],[-39.748,-7.022],[-39.757,-7.045],[-39.742,-7.093],[-39.693,-7.17],[-39.6,-7.21]]]}},{"type":"Feature","properties":{"code":"2301000"},"geometry":{"type":"Polygon","coordinates":[[[-38.536,-4.041],[-38.504,-4.06],[-38.442,-4.071],[-38.385,-4.071],[-38.373,-4.079],[-38.37,-4.066],[-38.313,-4.011],[-38.253,-4.029],[-38.236,-4.023],[-38.223,-4.007],[-38.273,-3.945],[-38.303,-3.936],[-38.36,-3.885],[-38.402,-3.824],[-38.409,-3.819],[-38.422,-3.844],[-38.416,-3.88],[-38.432,-3.886],[-38.449,-3.924],[-38.509,-3.937],[-38.519,-4.018],[-38.536,-4.041]]]}},{"type":"Feature","properties":{"code":"2309300"},"geometry":{"type":"Polygon","coordinates":[[[-40.541,-4.915],[-40.54,-4.843],[-40.524,-4.848],[-40.446,-4.732],[-40.381,-4.549],[-40.461,-4.528],[-40.509,-4.508],[-40.588,-4.558],[-40.583,-4.577],[-40.596,-4.612],[-40.627,-4.621],[-40.66,-4.686],[-40.642,-4.729],[-40.647,-4.747],[-40.628,-4.79],[-40.616,-4.813],[-40.541,-4.915]]]}},{"type":"Feature","properties":{"code":"2301109"},"geometry":{"type":"Polygon","coordinates":[[[-37.446,-4.881],[-37.357,-4.858],[-37.356,-4.794],[-37.399,-4.776],[-37.463,-4.781],[-37.504,-4.792],[-37.557,-4.723],[-37.541,-4.645],[-37.603,-4.617],[-37.652,-4.573],[-37.732,-4.489],[-37.754,-4.437],[-37.77,-4.426],[-37.785,-4.443],[-37.77,-4.475],[-37.789,-4.507],[-37.824,-4.504],[-37.868,-4.543],[-37.963,-4.53],[-37.981,-4.541],[-37.986,-4.584],[-37.974,-4.615],[-37.993,-4.661],[-37.95,-4.662],[-37.909,-4.664],[-37.845,-4.683],[-37.829,-4.666],[-37.801,-4.697],[-37.745,-4.72],[-37.616,-4.718],[-37.611,-4.768],[-37.589,-4.808],[-37.64,-4.926],[-37.467,-4.886],[-37.446,-4.881]]]}},{"type":"Feature","properties":{"code":"2309607"},"geometry":{"type":"Polygon","coordinates":[[[-38.575,-4.23],[-38.571,-4.236],[-38.526,-4.226],[-38.465,-4.245],[-38.393,-4.223],[-38.382,-4.145],[-38.57,-4.128],[-38.619,-4.163],[-38.614,-4.183],[-38.575,-4.23]]]}},{"type":"Feature","properties":{"code":"2301406"},"geometry":{"type":"Polygon","coordinates":[[[-38.999,-4.481],[-38.993,-4.452],[-38.974,-4.439],[-38.983,-4.381],[-38.97,-4.368],[-39.014,-4.374],[-39.054,-4.352],[-39.067,-4.399],[-39.094,-4.387],[-39.09,-4.413],[-39.028,-4.46],[-39.029,-4.498],[-38.999,-4.481]]]}},{"type":"Feature","properties":{"code":"2301505"},"geometry":{"type":"Polygon","coordinates":[[[-40.327,-6.402],[-40.187,-6.365],[-40.112,-6.349],[-40.084,-6.367],[-40.071,-6.355],[-40.047,-6.279],[-40.027,-6.28],[-40.016,-6.224],[-39.987,-6.221],[-39.94,-6.194],[-39.926,-6.196],[-39.896,-6.16],[-39.892,-6.114],[-39.889,-6.097],[-39.918,-6.082],[-39.956,-6.1],[-40.0,-6.105],[-40.047,-6.098],[-40.069,-6.111],[-40.146,-6.112],[-40.165,-6.131],[-40.2,-6.144],[-40.226,-6.132],[-40.257,-6.15],[-40.262,-6.168],[-40.405,-6.312],[-40.327,-6.402]]]}},{"type":"Feature","properties":{"code":"2309508"},"geometry":{"type":"Polygon","coordinates":[[[-39.129,-6.409],[-39.082,-6.364],[-39.059,-6.387],[-39.036,-6.376],[-38.983,-6.379],[-38.984,-6.355],[-38.96,-6.335],[-38.936,-6.34],[-38.916,-6.31],[-38.878,-6.327],[-38.836,-6.292],[-38.827,-6.218],[-38.801,-6.122],[-38.821,-6.137],[-38.901,-6.141],[-38.907,-6.089],[-38.95,-6.081],[-38.976,-6.103],[-38.969,-6.122],[-38.986,-6.157],[-39.003,-6.22],[-39.056,-6.259],[-39.053,-6.296],[-39.094,-6.335],[-39.129,-6.409]]]}},{"type":"Feature","properties":{"code":"2301307"},"geometry":{"type":"Polygon","coordinates":[[[-39.889,-7.34],[-39.889,-7.142],[-39.897,-7.097],[-39.917,-7.094],[-39.981,-7.145],[-40.0,-7.151],[-40.072,-7.146],[-40.136,-7.112],[-40.165,-7.047],[-40.183,-7.085],[-40.24,-7.114],[-40.269,-7.175],[-40.252,-7.202],[-40.251,-7.23],[-40.267,-7.248],[-40.244,-7.316],[-40.196,-7.358],[-40.157,-7.372],[-40.128,-7.382],[-40.045,-7.381],[-40.001,-7.375],[-39.926,-7.341],[-39.905,-7.338],[-39.889,-7.34]]]}},{"type":"Feature","properties":{"code":"2309458"},"geometry":{"type":"Polygon","coordinates":[[[-38.529,-4.681],[-38.499,-4.652],[-38.458,-4.653],[-38.434,-4.638],[-38.408,-4.598],[-38.381,-4.578],[-38.365,-4.543],[-38.382,-4.519],[-38.36,-4.502],[-38.368,-4.464],[-38.437,-4.384],[-38.443,-4.409],[-38.534,-4.369],[-38.568,-4.413],[-38.602,-4.42],[-38.637,-4.455],[-38.622,-4.536],[-38.65,-4.556],[-38.613,-4.653],[-38.574,-4.67],[-38.529,-4.681]]]}},{"type":"Feature","properties":{"code":"2301257"},"geometry":{"type":"Polygon","coordinates":[[[-40.628,-4.79],[-40.647,-4.747],[-40.642,-4.729],[-40.66,-4.686],[-40.67,-4.705],[-40.732,-4.715],[-40.806,-4.706],[-40.844,-4.719],[-40.872,-4.712],[-40.882,-4.784],[-40.843,-4.785],[-40.825,-4.81],[-40.797,-4.815],[-40.769,-4.838],[-40.762,-4.867],[-40.723,-4.842],[-40.699,-4.862],[-40.666,-4.844],[-40.648,-4.809],[-40.628,-4.79]]]}},{"type":"Feature","properties":{"code":"2308807"},"geometry":{"type":"Polygon","coordinates":[[[-40.857,-3.536],[-40.762,-3.505],[-40.67,-3.53],[-40.559,-3.53],[-40.554,-3.538],[-40.541,-3.522],[-40.533,-3.503],[-40.557,-3.483],[-40.537,-3.448],[-40.57,-3.438],[-40.562,-3.406],[-40.605,-3.411],[-40.637,-3.357],[-40.664,-3.361],[-40.695,-3.401],[-40.723,-3.404],[-40.737,-3.438],[-40.772,-3.422],[-40.814,-3.426],[-40.849,-3.417],[-40.822,-3.471],[-40.857,-3.536]]]}},{"type":"Feature","properties":{"code":"2308906"},"geometry":{"type":"Polygon","coordinates":[[[-40.341,-3.316],[-40.201,-3.308],[-40.185,-3.319],[-40.146,-3.304],[-40.107,-3.319],[-40.092,-3.354],[-40.07,-3.367],[-39.987,-3.365],[-39.939,-3.335],[-39.934,-3.316],[-40.003,-3.22],[-40.096,-3.197],[-40.121,-3.2],[-40.237,-3.286],[-40.279,-3.264],[-40.274,-3.306],[-40.341,-3.29],[-40.341,-3.316]]]}},{"type":"Feature","properties":{"code":"2300705"},"geometry":{"type":"Polygon","coordinates":[[[-38.083,-5.672],[-38.028,-5.623],[-38.057,-5.61],[-38.036,-5.567],[-38.05,-5.515],[-38.068,-5.485],[-38.078,-5.445],[-38.158,-5.358],[-38.261,-5.41],[-38.314,-5.383],[-38.341,-5.404],[-38.394,-5.363],[-38.413,-5.374],[-38.44,-5.426],[-38.43,-5.468],[-38.46,-5.513],[-38.438,-5.545],[-38.433,-5.627],[-38.267,-5.601],[-38.249,-5.646],[-38.194,-5.633],[-38.138,-5.675],[-38.083,-5.672]]]}},{"type":"Feature","properties":{"code":"2308708"},"geometry":{"type":"Polygon","coordinates":[[[-38.394,-5.363],[-38.363,-5.349],[-38.328,-5.314],[-38.329,-5.275],[-38.238,-5.211],[-38.249,-5.181],[-38.227,-5.09],[-38.23,-5.056],[-38.254,-5.051],[-38.259,-4.988],[-38.238,-4.97],[-38.213,-4.974],[-38.261,-4.884],[-38.3,-4.892],[-38.337,-4.861],[-38.369,-4.851],[-38.368,-4.752],[-38.338,-4.754],[-38.307,-4.65],[-38.281,-4.658],[-38.215,-4.59],[-38.235,-4.574],[-38.36,-4.502],[-38.382,-4.519],[-38.365,-4.543],[-38.381,-4.578],[-38.408,-4.598],[-38.434,-4.638],[-38.458,-4.653],[-38.499,-4.652],[-38.529,-4.681],[-38.522,-4.738],[-38.542,-4.757],[-38.572,-4.765],[-38.581,-4.802],[-38.612,-4.836],[-38.65,-4.851],[-38.667,-4.869],[-38.639,-4.918],[-38.648,-4.938],[-38.631,-4.902],[-38.592,-4.874],[-38.518,-4.89],[-38.491,-4.88],[-38.438,-4.875],[-38.418,-4.92],[-38.425,-4.931],[-38.507,-4.956],[-38.505,-4.983],[-38.481,-5.023],[-38.498,-5.058],[-38.486,-5.088],[-38.625,-5.067],[-38.618,-5.119],[-38.612,-5.151],[-38.677,-5.227],[-38.692,-5.227],[-38.715,-5.268],[-38.599,-5.367],[-38.517,-5.443],[-38.413,-5.374],[-38.394,-5.363]]]}},{"type":"Feature","properties":{"code":"2300507"},"geometry":{"type":"Polygon","coordinates":[[[-40.554,-3.538],[-40.578,-3.567],[-40.599,-3.57],[-40.607,-3.596],[-40.588,-3.639],[-40.549,-3.654],[-40.515,-3.649],[-40.499,-3.63],[-40.498,-3.578],[-40.477,-3.558],[-40.522,-3.545],[-40.521,-3.514],[-40.541,-3.522],[-40.554,-3.538]]]}},{"type":"Feature","properties":{"code":"2300606"},"geometry":{"type":"Polygon","coordinates":[[[-39.64,-6.946],[-39.693,-6.967],[-39.702,-6.954],[-39.759,-6.993],[-39.748,-7.022],[-39.717,-7.002],[-39.681,-7.016],[-39.66,-7.007],[-39.633,-6.969],[-39.64,-6.946]]]}},{"type":"Feature","properties":{"code":"2309102"},"geometry":{"type":"Polygon","coordinates":[[[-38.959,-4.357],[-38.934,-4.323],[-38.941,-4.303],[-38.985,-4.266],[-39.003,-4.261],[-39.046,-4.3],[-39.026,-4.319],[-39.054,-4.352],[-39.014,-4.374],[-38.97,-4.368],[-38.959,-4.357]]]}},{"type":"Feature","properties":{"code":"2300903"},"geometry":{"type":"Polygon","coordinates":[[[-39.324,-4.09],[-39.27,-4.086],[-39.228,-4.073],[-39.204,-4.047],[-39.192,-4.03],[-39.182,-3.978],[-39.215,-3.945],[-39.24,-3.9],[-39.294,-3.92],[-39.309,-3.936],[-39.34,-3.861],[-39.354,-3.844],[-39.415,-3.83],[-39.43,-3.856],[-39.458,-3.929],[-39.484,-3.974],[-39.486,-4.005],[-39.455,-4.0],[-39.444,-3.969],[-39.324,-4.09]]]}},{"type":"Feature","properties":{"code":"2300804"},"geometry":{"type":"Polygon","coordinates":[[[-40.077,-6.857],[-40.053,-6.825],[-40.002,-6.803],[-39.987,-6.815],[-39.909,-6.763],[-39.833,-6.7],[-39.838,-6.679],[-39.913,-6.689],[-39.94,-6.712],[-39.987,-6.68],[-40.005,-6.687],[-40.01,-6.71],[-40.081,-6.791],[-40.114,-6.817],[-40.145,-6.819],[-40.147,-6.831],[-40.087,-6.847],[-40.077,-6.857]]]}},{"type":"Feature","properties":{"code":"2300754"},"geometry":{"type":"Polygon","coordinates":[[[-39.784,-3.464],[-39.735,-3.4],[-39.738,-3.357],[-39.703,-3.323],[-39.729,-3.245],[-39.703,-3.246],[-39.681,-3.205],[-39.68,-3.183],[-39.626,-3.149],[-39.609,-3.154],[-39.566,-3.131],[-39.551,-3.079],[-39.592,-3.069],[-39.62,-3.026],[-39.661,-3.021],[-39.677,-3.001],[-39.721,-2.997],[-39.709,-3.014],[-39.868,-3.125],[-39.869,-3.17],[-39.903,-3.208],[-39.889,-3.224],[-39.907,-3.274],[-39.934,-3.316],[-39.939,-3.335],[-39.987,-3.365],[-39.996,-3.409],[-40.028,-3.437],[-39.985,-3.441],[-39.951,-3.433],[-39.784,-3.464]]]}},{"type":"Feature","properties":{"code":"2309003"},"geometry":{"type":"Polygon","coordinates":[[[-40.666,-3.939],[-40.713,-3.918],[-40.713,-3.887],[-40.679,-3.842],[-40.724,-3.821],[-40.766,-3.863],[-40.79,-3.837],[-40.826,-3.869],[-40.873,-3.869],[-40.854,-3.895],[-40.777,-3.884],[-40.797,-3.913],[-40.83,-3.921],[-40.823,-3.956],[-40.758,-3.952],[-40.731,-3.967],[-40.677,-3.954],[-40.666,-3.939]]]}},{"type":"Feature","properties":{"code":"2308351"},"geometry":{"type":"Polygon","coordinates":[[[-39.163,-5.798],[-39.027,-5.49],[-39.06,-5.511],[-39.116,-5.507],[-39.191,-5.525],[-39.247,-5.593],[-39.269,-5.634],[-39.278,-5.671],[-39.26,-5.675],[-39.261,-5.716],[-39.273,-5.762],[-39.227,-5.765],[-39.21,-5.788],[-39.163,-5.798]]]}},{"type":"Feature","properties":{"code":"2300150"},"geometry":{"type":"Polygon","coordinates":[[[-38.687,-4.287],[-38.658,-4.253],[-38.626,-4.248],[-38.612,-4.226],[-38.575,-4.23],[-38.614,-4.183],[-38.619,-4.163],[-38.654,-4.158],[-38.697,-4.172],[-38.718,-4.187],[-38.707,-4.248],[-38.721,-4.28],[-38.687,-4.287]]]}},{"type":"Feature","properties":{"code":"2308302"},"geometry":{"type":"Polygon","coordinates":[[[-38.97,-7.427],[-38.941,-7.428],[-38.882,-7.457],[-38.86,-7.354],[-38.783,-7.227],[-38.798,-7.219],[-38.842,-7.24],[-38.914,-7.243],[-38.948,-7.142],[-38.909,-7.083],[-38.958,-7.082],[-39.026,-7.15],[-39.025,-7.194],[-39.086,-7.234],[-39.092,-7.26],[-39.05,-7.292],[-39.001,-7.309],[-38.974,-7.38],[-38.962,-7.396],[-38.97,-7.427]]]}},{"type":"Feature","properties":{"code":"2308401"},"geometry":{"type":"Polygon","coordinates":[[[-39.258,-7.263],[-39.207,-7.302],[-39.241,-7.363],[-39.223,-7.397],[-39.254,-7.448],[-39.254,-7.488],[-39.195,-7.504],[-39.187,-7.474],[-39.154,-7.451],[-39.094,-7.464],[-39.078,-7.422],[-39.102,-7.34],[-39.081,-7.301],[-39.092,-7.26],[-39.086,-7.234],[-39.025,-7.194],[-39.026,-7.15],[-39.05,-7.138],[-39.09,-7.157],[-39.115,-7.155],[-39.136,-7.131],[-39.163,-7.133],[-39.193,-7.151],[-39.198,-7.184],[-39.216,-7.221],[-39.234,-7.226],[-39.258,-7.263]]]}},{"type":"Feature","properties":{"code":"2300200"},"geometry":{"type":"Polygon","coordinates":[[[-40.003,-3.22],[-39.934,-3.316],[-39.907,-3.274],[-39.946,-3.244],[-39.966,-3.239],[-39.997,-3.199],[-39.989,-3.161],[-39.991,-3.095],[-39.973,-3.074],[-39.984,-3.018],[-39.974,-3.001],[-39.967,-2.931],[-39.942,-2.866],[-39.966,-2.851],[-40.126,-2.824],[-40.144,-2.84],[-40.188,-2.812],[-40.237,-2.815],[-40.326,-2.806],[-40.37,-2.812],[-40.361,-2.867],[-40.324,-2.861],[-40.289,-2.876],[-40.272,-2.87],[-40.196,-2.873],[-40.151,-2.884],[-40.15,-2.906],[-40.17,-2.944],[-40.17,-2.985],[-40.155,-2.993],[-40.156,-3.032],[-40.122,-3.035],[-40.083,-3.086],[-40.084,-3.115],[-40.074,-3.123],[-40.003,-3.22]]]}},{"type":"Feature","properties":{"code":"2308377"},"geometry":{"type":"Polygon","coordinates":[[[-40.07,-3.594],[-40.044,-3.581],[-39.984,-3.576],[-39.993,-3.626],[-40.009,-3.648],[-40.02,-3.694],[-40.015,-3.712],[-39.913,-3.721],[-39.899,-3.663],[-39.831,-3.603],[-39.812,-3.605],[-39.781,-3.642],[-39.713,-3.655],[-39.769,-3.595],[-39.753,-3.561],[-39.786,-3.491],[-39.784,-3.464],[-39.951,-3.433],[-39.985,-3.441],[-40.028,-3.437],[-40.041,-3.476],[-40.048,-3.532],[-40.043,-3.565],[-40.07,-3.594]]]}},{"type":"Feature","properties":{"code":"2308203"},"geometry":{"type":"Polygon","coordinates":[[[-40.499,-3.63],[-40.458,-3.642],[-40.407,-3.645],[-40.4,-3.627],[-40.362,-3.616],[-40.416,-3.567],[-40.413,-3.539],[-40.434,-3.522],[-40.464,-3.519],[-40.477,-3.495],[-40.521,-3.514],[-40.522,-3.545],[-40.477,-3.558],[-40.498,-3.578],[-40.499,-3.63]]]}},{"type":"Feature","properties":{"code":"2300101"},"geometry":{"type":"Polygon","coordinates":[[[-39.078,-7.422],[-38.97,-7.427],[-38.962,-7.396],[-38.974,-7.38],[-39.001,-7.309],[-39.05,-7.292],[-39.092,-7.26],[-39.081,-7.301],[-39.102,-7.34],[-39.078,-7.422]]]}},{"type":"Feature","properties":{"code":"2308609"},"geometry":{"type":"Polygon","coordinates":[[[-40.16,-5.165],[-39.998,-5.085],[-39.958,-5.025],[-39.968,-4.948],[-39.957,-4.925],[-39.901,-4.905],[-39.895,-4.885],[-39.946,-4.839],[-39.949,-4.817],[-39.929,-4.797],[-39.929,-4.774],[-39.926,-4.735],[-40.059,-4.717],[-40.12,-4.748],[-40.136,-4.813],[-40.11,-4.851],[-40.114,-4.883],[-40.196,-4.907],[-40.169,-4.935],[-40.166,-4.964],[-40.139,-4.971],[-40.106,-5.024],[-40.15,-5.034],[-40.137,-5.073],[-40.135,-5.129],[-40.16,-5.165]]]}},{"type":"Feature","properties":{"code":"2300408"},"geometry":{"type":"Polygon","coordinates":[[[-40.005,-6.687],[-40.017,-6.672],[-40.056,-6.674],[-40.038,-6.642],[-40.055,-6.611],[-40.026,-6.583],[-40.033,-6.54],[-40.059,-6.501],[-40.047,-6.45],[-40.033,-6.432],[-40.076,-6.4],[-40.084,-6.367],[-40.112,-6.349],[-40.187,-6.365],[-40.327,-6.402],[-40.366,-6.43],[-40.392,-6.475],[-40.442,-6.49],[-40.453,-6.524],[-40.578,-6.549],[-40.61,-6.603],[-40.736,-6.6],[-40.722,-6.618],[-40.732,-6.654],[-40.71,-6.676],[-40.651,-6.678],[-40.602,-6.716],[-40.477,-6.733],[-40.432,-6.813],[-40.389,-6.797],[-40.37,-6.803],[-40.301,-6.807],[-40.266,-6.797],[-40.242,-6.777],[-40.203,-6.774],[-40.184,-6.76],[-40.15,-6.785],[-40.145,-6.819],[-40.114,-6.817],[-40.081,-6.791],[-40.01,-6.71],[-40.005,-6.687]]]}},{"type":"Feature","properties":{"code":"2308500"},"geometry":{"type":"Polygon","coordinates":[[[-39.889,-6.097],[-39.825,-6.042],[-39.814,-6.013],[-39.789,-6.021],[-39.769,-6.008],[-39.703,-6.005],[-39.675,-6.022],[-39.652,-5.966],[-39.611,-5.982],[-39.566,-5.963],[-39.546,-5.862],[-39.557,-5.849],[-39.503,-5.73],[-39.475,-5.701],[-39.439,-5.666],[-39.483,-5.636],[-39.546,-5.613],[-39.587,-5.606],[-39.602,-5.625],[-39.632,-5.606],[-39.675,-5.622],[-39.691,-5.6],[-39.745,-5.594],[-39.834,-5.591],[-39.852,-5.626],[-39.932,-5.633],[-40.012,-5.624],[-40.038,-5.646],[-40.047,-5.674],[-40.022,-5.71],[-40.006,-5.72],[-40.006,-5.777],[-39.975,-5.822],[-39.924,-5.839],[-39.941,-5.879],[-39.913,-5.899],[-39.871,-5.884],[-39.871,-5.91],[-39.834,-5.941],[-39.836,-5.977],[-39.856,-5.987],[-39.909,-6.058],[-39.96,-6.085],[-39.956,-6.1],[-39.918,-6.082],[-39.889,-6.097]]]}},{"type":"Feature","properties":{"code":"2300309"},"geometry":{"type":"Polygon","coordinates":[[[-39.709,-6.34],[-39.7,-6.328],[-39.652,-6.337],[-39.594,-6.31],[-39.56,-6.333],[-39.523,-6.339],[-39.459,-6.325],[-39.464,-6.28],[-39.417,-6.261],[-39.391,-6.222],[-39.357,-6.226],[-39.308,-6.175],[-39.26,-6.128],[-39.142,-6.154],[-39.09,-6.094],[-39.091,-6.084],[-39.051,-6.025],[-39.06,-6.003],[-39.113,-5.977],[-39.131,-5.984],[-39.17,-5.96],[-39.198,-5.958],[-39.212,-5.992],[-39.266,-5.997],[-39.306,-5.994],[-39.321,-6.007],[-39.363,-5.981],[-39.382,-5.974],[-39.415,-5.986],[-39.465,-5.981],[-39.481,-5.988],[-39.536,-5.98],[-39.566,-5.963],[-39.611,-5.982],[-39.652,-5.966],[-39.675,-6.022],[-39.703,-6.005],[-39.769,-6.008],[-39.789,-6.021],[-39.814,-6.013],[-39.825,-6.042],[-39.889,-6.097],[-39.892,-6.114],[-39.84,-6.131],[-39.824,-6.125],[-39.797,-6.148],[-39.799,-6.19],[-39.789,-6.207],[-39.77,-6.205],[-39.72,-6.273],[-39.709,-6.34]]]}},{"type":"Feature","properties":{"code":"2307809"},"geometry":{"type":"Polygon","coordinates":[[[-40.341,-3.29],[-40.274,-3.306],[-40.279,-3.264],[-40.237,-3.286],[-40.121,-3.2],[-40.096,-3.197],[-40.003,-3.22],[-40.074,-3.123],[-40.084,-3.115],[-40.14,-3.073],[-40.148,-3.107],[-40.236,-3.168],[-40.268,-3.15],[-40.297,-3.205],[-40.32,-3.193],[-40.353,-3.203],[-40.365,-3.155],[-40.382,-3.134],[-40.421,-3.122],[-40.495,-3.062],[-40.51,-3.11],[-40.482,-3.121],[-40.454,-3.15],[-40.45,-3.181],[-40.432,-3.214],[-40.407,-3.237],[-40.386,-3.273],[-40.341,-3.29]]]}},{"type":"Feature","properties":{"code":"2307908"},"geometry":{"type":"Polygon","coordinates":[[[-40.728,-3.234],[-40.669,-3.248],[-40.532,-3.24],[-40.547,-3.188],[-40.575,-3.166],[-40.574,-3.136],[-40.751,-3.051],[-40.71,-3.213],[-40.728,-3.234]]]}},{"type":"Feature","properties":{"code":"2307700"},"geometry":{"type":"Polygon","coordinates":[[[-38.944,-4.104],[-38.862,-4.112],[-38.841,-4.104],[-38.834,-4.073],[-38.785,-4.094],[-38.748,-4.093],[-38.673,-4.04],[-38.668,-4.018],[-38.67,-4.005],[-38.64,-3.969],[-38.659,-3.954],[-38.652,-3.873],[-38.688,-3.857],[-38.792,-3.967],[-38.812,-3.962],[-38.848,-3.995],[-38.872,-3.969],[-38.944,-3.945],[-39.004,-3.992],[-38.984,-4.044],[-38.957,-4.073],[-38.944,-4.104]]]}},{"type":"Feature","properties":{"code":"2308104"},"geometry":{"type":"Polygon","coordinates":[[[-38.683,-7.579],[-38.653,-7.553],[-38.646,-7.502],[-38.631,-7.487],[-38.645,-7.46],[-38.603,-7.458],[-38.585,-7.435],[-38.596,-7.416],[-38.549,-7.335],[-38.535,-7.29],[-38.554,-7.252],[-38.593,-7.248],[-38.62,-7.22],[-38.672,-7.232],[-38.738,-7.238],[-38.783,-7.227],[-38.86,-7.354],[-38.882,-7.457],[-38.776,-7.604],[-38.717,-7.626],[-38.715,-7.622],[-38.704,-7.581],[-38.683,-7.579]]]}},{"type":"Feature","properties":{"code":"2308005"},"geometry":{"type":"Polygon","coordinates":[[[-40.269,-3.573],[-40.257,-3.559],[-40.252,-3.502],[-40.271,-3.482],[-40.307,-3.41],[-40.337,-3.404],[-40.342,-3.351],[-40.355,-3.372],[-40.393,-3.382],[-40.422,-3.37],[-40.516,-3.393],[-40.537,-3.448],[-40.557,-3.483],[-40.533,-3.503],[-40.541,-3.522],[-40.521,-3.514],[-40.477,-3.495],[-40.464,-3.519],[-40.434,-3.522],[-40.413,-3.539],[-40.416,-3.567],[-40.362,-3.616],[-40.31,-3.622],[-40.297,-3.591],[-40.269,-3.573]]]}},{"type":"Feature","properties":{"code":"2307304"},"geometry":{"type":"Polygon","coordinates":[[[-39.347,-7.266],[-39.258,-7.263],[-39.234,-7.226],[-39.216,-7.221],[-39.198,-7.184],[-39.193,-7.151],[-39.281,-7.093],[-39.293,-7.11],[-39.34,-7.109],[-39.344,-7.142],[-39.367,-7.164],[-39.364,-7.213],[-39.347,-7.266]]]}},{"type":"Feature","properties":{"code":"2307205"},"geometry":{"type":"Polygon","coordinates":[[[-39.118,-7.684],[-39.069,-7.732],[-39.059,-7.75],[-39.008,-7.778],[-38.97,-7.777],[-38.959,-7.817],[-38.966,-7.846],[-38.962,-7.844],[-38.94,-7.792],[-38.94,-7.759],[-38.895,-7.75],[-38.892,-7.611],[-38.946,-7.614],[-38.968,-7.607],[-39.027,-7.634],[-39.046,-7.642],[-39.073,-7.626],[-39.106,-7.616],[-39.118,-7.684]]]}},{"type":"Feature","properties":{"code":"2307254"},"geometry":{"type":"Polygon","coordinates":[[[-40.41,-2.951],[-40.433,-2.941],[-40.432,-2.901],[-40.452,-2.89],[-40.448,-2.848],[-40.455,-2.803],[-40.498,-2.784],[-40.521,-2.792],[-40.542,-2.822],[-40.59,-2.846],[-40.561,-2.883],[-40.528,-2.89],[-40.53,-2.942],[-40.512,-2.954],[-40.41,-2.966],[-40.41,-2.951]]]}},{"type":"Feature","properties":{"code":"2307650"},"geometry":{"type":"Polygon","coordinates":[[[-38.64,-3.969],[-38.611,-3.922],[-38.613,-3.884],[-38.542,-3.859],[-38.615,-3.824],[-38.638,-3.801],[-38.641,-3.822],[-38.67,-3.828],[-38.688,-3.857],[-38.652,-3.873],[-38.659,-3.954],[-38.64,-3.969]]]}},{"type":"Feature","properties":{"code":"2307635"},"geometry":{"type":"Polygon","coordinates":[[[-39.629,-5.043],[-39.502,-5.052],[-39.473,-5.009],[-39.481,-4.977],[-39.395,-4.927],[-39.374,-4.973],[-39.348,-4.96],[-39.366,-4.933],[-39.347,-4.896],[-39.365,-4.846],[-39.34,-4.792],[-39.343,-4.772],[-39.303,-4.75],[-39.319,-4.723],[-39.346,-4.748],[-39.37,-4.742],[-39.367,-4.725],[-39.371,-4.717],[-39.39,-4.725],[-39.51,-4.725],[-39.576,-4.749],[-39.629,-4.731],[-39.666,-4.732],[-39.726,-4.75],[-39.723,-4.778],[-39.678,-4.789],[-39.663,-4.808],[-39.65,-4.87],[-39.619,-4.908],[-39.597,-4.999],[-39.629,-5.043]]]}},{"type":"Feature","properties":{"code":"2307601"},"geometry":{"type":"Polygon","coordinates":[[[-37.786,-5.224],[-37.833,-5.223],[-37.926,-5.173],[-37.973,-5.107],[-38.009,-5.079],[-38.061,-5.08],[-38.188,-4.975],[-38.213,-4.974],[-38.238,-4.97],[-38.259,-4.988],[-38.254,-5.051],[-38.23,-5.056],[-38.227,-5.09],[-38.249,-5.181],[-38.238,-5.211],[-38.233,-5.217],[-38.208,-5.194],[-38.134,-5.213],[-38.072,-5.182],[-37.994,-5.246],[-37.968,-5.254],[-37.93,-5.297],[-37.786,-5.297],[-37.786,-5.224]]]}},{"type":"Feature","properties":{"code":"2307403"},"geometry":{"type":"Polygon","coordinates":[[[-39.709,-6.34],[-39.727,-6.37],[-39.776,-6.411],[-39.772,-6.46],[-39.725,-6.496],[-39.75,-6.521],[-39.729,-6.543],[-39.773,-6.606],[-39.737,-6.613],[-39.737,-6.633],[-39.715,-6.622],[-39.678,-6.623],[-39.536,-6.558],[-39.512,-6.525],[-39.462,-6.51],[-39.421,-6.463],[-39.398,-6.465],[-39.408,-6.409],[-39.473,-6.374],[-39.459,-6.325],[-39.523,-6.339],[-39.56,-6.333],[-39.594,-6.31],[-39.652,-6.337],[-39.7,-6.328],[-39.709,-6.34]]]}},{"type":"Feature","properties":{"code":"2307502"},"geometry":{"type":"Polygon","coordinates":[[[-39.107,-6.963],[-39.087,-6.937],[-39.015,-6.878],[-38.965,-6.862],[-38.856,-6.859],[-38.811,-6.847],[-38.829,-6.745],[-38.847,-6.709],[-38.859,-6.693],[-38.844,-6.667],[-38.873,-6.612],[-38.877,-6.582],[-38.922,-6.567],[-38.925,-6.611],[-38.968,-6.659],[-39.003,-6.658],[-39.047,-6.675],[-39.068,-6.705],[-39.108,-6.715],[-39.125,-6.721],[-39.182,-6.827],[-39.186,-6.864],[-39.166,-6.906],[-39.167,-6.936],[-39.116,-6.943],[-39.107,-6.963]]]}},{"type":"Feature","properties":{"code":"2306801"},"geometry":{"type":"Polygon","coordinates":[[[-38.475,-5.779],[-38.48,-5.743],[-38.452,-5.711],[-38.459,-5.678],[-38.433,-5.627],[-38.438,-5.545],[-38.46,-5.513],[-38.43,-5.468],[-38.44,-5.426],[-38.413,-5.374],[-38.517,-5.443],[-38.552,-5.469],[-38.529,-5.49],[-38.569,-5.521],[-38.56,-5.566],[-38.583,-5.57],[-38.608,-5.605],[-38.621,-5.657],[-38.642,-5.665],[-38.664,-5.695],[-38.676,-5.746],[-38.561,-5.745],[-38.497,-5.783],[-38.475,-5.779]]]}},{"type":"Feature","properties":{"code":"2306702"},"geometry":{"type":"Polygon","coordinates":[[[-38.805,-5.787],[-38.762,-5.782],[-38.752,-5.766],[-38.694,-5.759],[-38.676,-5.746],[-38.664,-5.695],[-38.642,-5.665],[-38.621,-5.657],[-38.608,-5.605],[-38.583,-5.57],[-38.56,-5.566],[-38.569,-5.521],[-38.529,-5.49],[-38.552,-5.469],[-38.517,-5.443],[-38.599,-5.367],[-38.715,-5.268],[-38.692,-5.227],[-38.708,-5.201],[-38.776,-5.204],[-38.809,-5.221],[-38.85,-5.289],[-38.923,-5.329],[-38.92,-5.419],[-38.911,-5.455],[-38.904,-5.47],[-38.909,-5.595],[-38.881,-5.656],[-38.805,-5.787]]]}},{"type":"Feature","properties":{"code":"2307106"},"geometry":{"type":"Polygon","coordinates":[[[-39.118,-7.684],[-39.106,-7.616],[-39.073,-7.626],[-39.171,-7.563],[-39.195,-7.504],[-39.254,-7.488],[-39.372,-7.458],[-39.372,-7.615],[-39.307,-7.665],[-39.266,-7.665],[-39.253,-7.705],[-39.208,-7.689],[-39.171,-7.715],[-39.147,-7.718],[-39.118,-7.684]]]}},{"type":"Feature","properties":{"code":"2306900"},"geometry":{"type":"Polygon","coordinates":[[[-38.6,-6.178],[-38.589,-6.164],[-38.562,-6.093],[-38.544,-6.073],[-38.54,-6.042],[-38.508,-6.003],[-38.512,-5.977],[-38.491,-5.925],[-38.512,-5.878],[-38.483,-5.85],[-38.485,-5.793],[-38.475,-5.779],[-38.497,-5.783],[-38.561,-5.745],[-38.676,-5.746],[-38.694,-5.759],[-38.752,-5.766],[-38.762,-5.782],[-38.805,-5.787],[-38.837,-5.813],[-38.84,-5.833],[-38.879,-5.866],[-38.882,-5.882],[-38.919,-5.949],[-38.938,-5.956],[-38.963,-6.021],[-38.976,-6.103],[-38.95,-6.081],[-38.907,-6.089],[-38.901,-6.141],[-38.821,-6.137],[-38.801,-6.122],[-38.755,-6.111],[-38.724,-6.122],[-38.736,-6.165],[-38.727,-6.2],[-38.679,-6.205],[-38.656,-6.186],[-38.613,-6.17],[-38.6,-6.178]]]}},{"type":"Feature","properties":{"code":"2307007"},"geometry":{"type":"Polygon","coordinates":[[[-37.677,-5.053],[-37.64,-4.926],[-37.589,-4.808],[-37.611,-4.768],[-37.616,-4.718],[-37.789,-4.757],[-37.789,-4.73],[-37.825,-4.742],[-37.83,-4.763],[-37.934,-4.764],[-37.9,-4.821],[-37.883,-4.854],[-37.887,-4.905],[-37.874,-4.939],[-37.809,-4.989],[-37.677,-5.053]]]}},{"type":"Feature","properties":{"code":"2306306"},"geometry":{"type":"Polygon","coordinates":[[[-39.432,-3.785],[-39.443,-3.746],[-39.496,-3.722],[-39.515,-3.669],[-39.557,-3.651],[-39.567,-3.63],[-39.596,-3.627],[-39.636,-3.623],[-39.655,-3.651],[-39.678,-3.646],[-39.702,-3.618],[-39.697,-3.64],[-39.707,-3.689],[-39.69,-3.714],[-39.685,-3.747],[-39.659,-3.765],[-39.639,-3.822],[-39.588,-3.825],[-39.544,-3.772],[-39.515,-3.746],[-39.49,-3.76],[-39.493,-3.819],[-39.477,-3.858],[-39.43,-3.856],[-39.415,-3.83],[-39.432,-3.785]]]}},{"type":"Feature","properties":{"code":"2306256"},"geometry":{"type":"Polygon","coordinates":[[[-38.575,-4.054],[-38.605,-4.059],[-38.613,-4.104],[-38.575,-4.107],[-38.566,-4.122],[-38.536,-4.079],[-38.536,-4.041],[-38.519,-4.018],[-38.509,-3.937],[-38.502,-3.888],[-38.514,-3.895],[-38.542,-3.859],[-38.556,-3.906],[-38.574,-3.996],[-38.575,-4.054]]]}},{"type":"Feature","properties":{"code":"2306207"},"geometry":{"type":"Polygon","coordinates":[[[-37.934,-4.764],[-37.83,-4.763],[-37.825,-4.742],[-37.789,-4.73],[-37.789,-4.757],[-37.616,-4.718],[-37.745,-4.72],[-37.801,-4.697],[-37.829,-4.666],[-37.845,-4.683],[-37.909,-4.664],[-37.95,-4.662],[-37.956,-4.729],[-37.934,-4.764]]]}},{"type":"Feature","properties":{"code":"2306553"},"geometry":{"type":"Polygon","coordinates":[[[-39.942,-2.866],[-39.967,-2.931],[-39.974,-3.001],[-39.984,-3.018],[-39.973,-3.074],[-39.991,-3.095],[-39.989,-3.161],[-39.997,-3.199],[-39.966,-3.239],[-39.946,-3.244],[-39.907,-3.274],[-39.889,-3.224],[-39.903,-3.208],[-39.869,-3.17],[-39.868,-3.125],[-39.709,-3.014],[-39.721,-2.997],[-39.786,-2.951],[-39.795,-2.952],[-39.862,-2.9],[-39.919,-2.868],[-39.942,-2.866]]]}},{"type":"Feature","properties":{"code":"2306504"},"geometry":{"type":"Polygon","coordinates":[[[-38.978,-4.668],[-38.953,-4.664],[-38.965,-4.704],[-38.944,-4.74],[-38.923,-4.739],[-38.883,-4.708],[-38.874,-4.679],[-38.858,-4.667],[-38.816,-4.672],[-38.783,-4.631],[-38.766,-4.623],[-38.801,-4.583],[-38.839,-4.579],[-38.842,-4.549],[-38.866,-4.551],[-38.873,-4.526],[-38.901,-4.528],[-38.95,-4.488],[-38.98,-4.497],[-38.999,-4.481],[-39.029,-4.498],[-39.028,-4.46],[-39.085,-4.472],[-39.084,-4.536],[-39.066,-4.561],[-39.13,-4.628],[-39.112,-4.643],[-39.078,-4.639],[-38.994,-4.647],[-38.978,-4.668]]]}},{"type":"Feature","properties":{"code":"2306603"},"geometry":{"type":"Polygon","coordinates":[[[-39.726,-4.75],[-39.666,-4.732],[-39.629,-4.731],[-39.576,-4.749],[-39.51,-4.725],[-39.39,-4.725],[-39.371,-4.717],[-39.401,-4.687],[-39.426,-4.679],[-39.422,-4.645],[-39.452,-4.6],[-39.443,-4.576],[-39.465,-4.563],[-39.483,-4.527],[-39.494,-4.482],[-39.53,-4.488],[-39.562,-4.471],[-39.607,-4.503],[-39.643,-4.507],[-39.704,-4.544],[-39.687,-4.576],[-39.77,-4.631],[-39.742,-4.646],[-39.718,-4.678],[-39.729,-4.696],[-39.737,-4.736],[-39.726,-4.75]]]}},{"type":"Feature","properties":{"code":"2306405"},"geometry":{"type":"Polygon","coordinates":[[[-39.596,-3.627],[-39.545,-3.575],[-39.505,-3.575],[-39.454,-3.585],[-39.402,-3.55],[-39.426,-3.471],[-39.449,-3.445],[-39.468,-3.402],[-39.481,-3.396],[-39.505,-3.341],[-39.505,-3.297],[-39.522,-3.274],[-39.504,-3.241],[-39.508,-3.202],[-39.476,-3.197],[-39.431,-3.208],[-39.379,-3.183],[-39.436,-3.148],[-39.463,-3.144],[-39.487,-3.119],[-39.551,-3.079],[-39.566,-3.131],[-39.609,-3.154],[-39.626,-3.149],[-39.68,-3.183],[-39.681,-3.205],[-39.703,-3.246],[-39.729,-3.245],[-39.703,-3.323],[-39.738,-3.357],[-39.735,-3.4],[-39.784,-3.464],[-39.786,-3.491],[-39.753,-3.561],[-39.769,-3.595],[-39.713,-3.655],[-39.702,-3.618],[-39.678,-3.646],[-39.655,-3.651],[-39.636,-3.623],[-39.596,-3.627]]]}},{"type":"Feature","properties":{"code":"2313955"},"geometry":{"type":"Polygon","coordinates":[[[-40.598,-4.202],[-40.55,-4.215],[-40.517,-4.256],[-40.451,-4.209],[-40.445,-4.163],[-40.431,-4.158],[-40.431,-4.091],[-40.472,-4.086],[-40.533,-4.098],[-40.514,-4.133],[-40.519,-4.166],[-40.546,-4.173],[-40.598,-4.202]]]}},{"type":"Feature","properties":{"code":"2314003"},"geometry":{"type":"Polygon","coordinates":[[[-39.395,-6.922],[-39.339,-6.906],[-39.266,-6.882],[-39.207,-6.877],[-39.186,-6.864],[-39.182,-6.827],[-39.125,-6.721],[-39.108,-6.715],[-39.13,-6.71],[-39.143,-6.676],[-39.173,-6.673],[-39.179,-6.613],[-39.21,-6.608],[-39.239,-6.584],[-39.298,-6.562],[-39.313,-6.585],[-39.279,-6.629],[-39.291,-6.675],[-39.32,-6.693],[-39.336,-6.725],[-39.302,-6.74],[-39.328,-6.77],[-39.382,-6.77],[-39.398,-6.756],[-39.419,-6.782],[-39.442,-6.79],[-39.478,-6.756],[-39.51,-6.777],[-39.517,-6.81],[-39.503,-6.844],[-39.478,-6.847],[-39.483,-6.898],[-39.419,-6.895],[-39.395,-6.922]]]}},{"type":"Feature","properties":{"code":"2305803"},"geometry":{"type":"Polygon","coordinates":[[[-40.793,-4.424],[-40.707,-4.483],[-40.695,-4.451],[-40.669,-4.449],[-40.642,-4.511],[-40.614,-4.552],[-40.588,-4.558],[-40.599,-4.531],[-40.584,-4.472],[-40.555,-4.44],[-40.565,-4.419],[-40.544,-4.37],[-40.523,-4.355],[-40.512,-4.326],[-40.478,-4.292],[-40.569,-4.315],[-40.621,-4.306],[-40.649,-4.294],[-40.664,-4.309],[-40.704,-4.283],[-40.687,-4.21],[-40.727,-4.204],[-40.745,-4.225],[-40.778,-4.235],[-40.803,-4.266],[-40.788,-4.319],[-40.803,-4.345],[-40.777,-4.361],[-40.793,-4.424]]]}},{"type":"Feature","properties":{"code":"2305654"},"geometry":{"type":"Polygon","coordinates":[[[-41.051,-5.026],[-40.828,-4.978],[-40.715,-4.946],[-40.651,-4.986],[-40.636,-4.925],[-40.541,-4.915],[-40.616,-4.813],[-40.628,-4.79],[-40.648,-4.809],[-40.666,-4.844],[-40.699,-4.862],[-40.723,-4.842],[-40.762,-4.867],[-40.769,-4.838],[-40.797,-4.815],[-40.825,-4.81],[-40.843,-4.785],[-40.882,-4.784],[-40.876,-4.854],[-40.928,-4.886],[-40.942,-4.883],[-40.992,-4.915],[-41.033,-4.965],[-41.051,-5.026]]]}},{"type":"Feature","properties":{"code":"2313807"},"geometry":{"type":"Polygon","coordinates":[[[-39.426,-3.656],[-39.42,-3.626],[-39.491,-3.602],[-39.505,-3.575],[-39.545,-3.575],[-39.596,-3.627],[-39.567,-3.63],[-39.557,-3.651],[-39.515,-3.669],[-39.456,-3.643],[-39.426,-3.656]]]}},{"type":"Feature","properties":{"code":"2313906"},"geometry":{"type":"Polygon","coordinates":[[[-40.849,-3.417],[-40.814,-3.426],[-40.772,-3.422],[-40.737,-3.438],[-40.723,-3.404],[-40.695,-3.401],[-40.664,-3.361],[-40.637,-3.357],[-40.605,-3.411],[-40.562,-3.406],[-40.541,-3.41],[-40.486,-3.335],[-40.48,-3.3],[-40.493,-3.26],[-40.532,-3.24],[-40.669,-3.248],[-40.728,-3.234],[-40.834,-3.208],[-40.822,-3.296],[-40.853,-3.316],[-40.829,-3.368],[-40.849,-3.417]]]}},{"type":"Feature","properties":{"code":"2305704"},"geometry":{"type":"Polygon","coordinates":[[[-38.765,-6.91],[-38.73,-6.897],[-38.675,-6.862],[-38.672,-6.847],[-38.652,-6.812],[-38.614,-6.782],[-38.652,-6.757],[-38.681,-6.755],[-38.72,-6.768],[-38.749,-6.755],[-38.78,-6.722],[-38.798,-6.725],[-38.847,-6.709],[-38.829,-6.745],[-38.811,-6.847],[-38.856,-6.859],[-38.82,-6.857],[-38.774,-6.868],[-38.785,-6.905],[-38.765,-6.91]]]}},{"type":"Feature","properties":{"code":"2306009"},"geometry":{"type":"Polygon","coordinates":[[[-38.159,-5.925],[-38.147,-5.892],[-38.151,-5.86],[-38.186,-5.843],[-38.227,-5.834],[-38.25,-5.771],[-38.249,-5.731],[-38.267,-5.678],[-38.249,-5.646],[-38.267,-5.601],[-38.433,-5.627],[-38.459,-5.678],[-38.452,-5.711],[-38.48,-5.743],[-38.475,-5.779],[-38.465,-5.821],[-38.483,-5.884],[-38.457,-5.871],[-38.403,-5.917],[-38.334,-5.919],[-38.275,-5.892],[-38.259,-5.92],[-38.232,-5.917],[-38.159,-5.925]]]}},{"type":"Feature","properties":{"code":"2306108"},"geometry":{"type":"Polygon","coordinates":[[[-39.841,-4.114],[-39.819,-4.118],[-39.794,-4.161],[-39.774,-4.174],[-39.758,-4.158],[-39.74,-4.11],[-39.665,-4.082],[-39.693,-4.022],[-39.708,-4.018],[-39.706,-3.943],[-39.718,-3.877],[-39.704,-3.851],[-39.678,-3.833],[-39.639,-3.822],[-39.659,-3.765],[-39.685,-3.747],[-39.69,-3.714],[-39.707,-3.689],[-39.697,-3.64],[-39.702,-3.618],[-39.713,-3.655],[-39.781,-3.642],[-39.812,-3.605],[-39.831,-3.603],[-39.899,-3.663],[-39.913,-3.721],[-40.015,-3.712],[-40.012,-3.76],[-39.976,-3.777],[-39.925,-3.946],[-40.007,-3.899],[-39.999,-3.93],[-39.922,-3.992],[-39.917,-4.034],[-39.872,-4.046],[-39.841,-4.114]]]}},{"type":"Feature","properties":{"code":"2314102"},"geometry":{"type":"Polygon","coordinates":[[[-41.239,-3.713],[-41.205,-3.701],[-41.147,-3.696],[-41.12,-3.712],[-41.046,-3.665],[-41.01,-3.648],[-41.01,-3.633],[-40.954,-3.601],[-40.877,-3.533],[-40.887,-3.52],[-41.004,-3.423],[-41.049,-3.392],[-41.126,-3.358],[-41.149,-3.363],[-41.17,-3.288],[-41.177,-3.379],[-41.221,-3.438],[-41.259,-3.471],[-41.303,-3.492],[-41.321,-3.498],[-41.337,-3.554],[-41.367,-3.562],[-41.344,-3.591],[-41.331,-3.625],[-41.334,-3.684],[-41.308,-3.685],[-41.239,-3.713]]]}},{"type":"Feature","properties":{"code":"2305902"},"geometry":{"type":"Polygon","coordinates":[[[-40.872,-4.712],[-40.844,-4.719],[-40.806,-4.706],[-40.732,-4.715],[-40.67,-4.705],[-40.66,-4.686],[-40.627,-4.621],[-40.596,-4.612],[-40.583,-4.577],[-40.588,-4.558],[-40.614,-4.552],[-40.642,-4.511],[-40.669,-4.449],[-40.695,-4.451],[-40.707,-4.483],[-40.793,-4.424],[-40.826,-4.459],[-40.889,-4.472],[-41.025,-4.455],[-41.061,-4.474],[-41.118,-4.478],[-41.178,-4.468],[-41.191,-4.516],[-41.221,-4.567],[-41.24,-4.574],[-41.148,-4.6],[-41.099,-4.602],[-40.987,-4.66],[-40.963,-4.688],[-40.955,-4.716],[-40.872,-4.712]]]}},{"type":"Feature","properties":{"code":"2305266"},"geometry":{"type":"Polygon","coordinates":[[[-38.874,-4.679],[-38.802,-4.741],[-38.875,-4.852],[-38.919,-4.852],[-38.891,-4.893],[-38.883,-4.935],[-38.701,-4.902],[-38.648,-4.938],[-38.639,-4.918],[-38.667,-4.869],[-38.65,-4.851],[-38.612,-4.836],[-38.581,-4.802],[-38.572,-4.765],[-38.542,-4.757],[-38.522,-4.738],[-38.529,-4.681],[-38.574,-4.67],[-38.631,-4.7],[-38.663,-4.662],[-38.689,-4.652],[-38.7,-4.612],[-38.766,-4.623],[-38.783,-4.631],[-38.816,-4.672],[-38.858,-4.667],[-38.874,-4.679]]]}},{"type":"Feature","properties":{"code":"2305233"},"geometry":{"type":"Polygon","coordinates":[[[-38.57,-4.128],[-38.382,-4.145],[-38.373,-4.079],[-38.385,-4.071],[-38.442,-4.071],[-38.504,-4.06],[-38.536,-4.041],[-38.536,-4.079],[-38.566,-4.122],[-38.57,-4.128]]]}},{"type":"Feature","properties":{"code":"2305332"},"geometry":{"type":"Polygon","coordinates":[[[-38.625,-5.067],[-38.486,-5.088],[-38.498,-5.058],[-38.481,-5.023],[-38.505,-4.983],[-38.507,-4.956],[-38.425,-4.931],[-38.418,-4.92],[-38.438,-4.875],[-38.491,-4.88],[-38.518,-4.89],[-38.592,-4.874],[-38.631,-4.902],[-38.648,-4.938],[-38.647,-4.98],[-38.678,-5.005],[-38.677,-5.028],[-38.625,-5.067]]]}},{"type":"Feature","properties":{"code":"2313500"},"geometry":{"type":"Polygon","coordinates":[[[-39.374,-3.578],[-39.315,-3.58],[-39.303,-3.534],[-39.284,-3.503],[-39.263,-3.49],[-39.254,-3.397],[-39.238,-3.36],[-39.206,-3.356],[-39.165,-3.326],[-39.228,-3.241],[-39.257,-3.22],[-39.322,-3.201],[-39.341,-3.18],[-39.379,-3.183],[-39.431,-3.208],[-39.476,-3.197],[-39.508,-3.202],[-39.504,-3.241],[-39.522,-3.274],[-39.505,-3.297],[-39.505,-3.341],[-39.481,-3.396],[-39.468,-3.402],[-39.331,-3.502],[-39.344,-3.541],[-39.374,-3.578]]]}},{"type":"Feature","properties":{"code":"2305308"},"geometry":{"type":"Polygon","coordinates":[[[-41.229,-3.968],[-41.249,-3.99],[-41.239,-4.017],[-41.183,-4.018],[-41.166,-4.0],[-41.118,-3.987],[-41.091,-4.006],[-41.074,-3.995],[-40.964,-3.982],[-40.9,-3.993],[-40.856,-3.975],[-40.838,-3.986],[-40.823,-3.956],[-40.83,-3.921],[-40.797,-3.913],[-40.777,-3.884],[-40.854,-3.895],[-40.873,-3.869],[-40.932,-3.907],[-40.978,-3.893],[-41.134,-3.942],[-41.168,-3.946],[-41.212,-3.972],[-41.229,-3.968]]]}},{"type":"Feature","properties":{"code":"2313302"},"geometry":{"type":"Polygon","coordinates":[[[-40.714,-6.04],[-40.688,-6.011],[-40.644,-6.004],[-40.611,-5.99],[-40.543,-6.004],[-40.493,-5.982],[-40.466,-6.017],[-40.494,-6.084],[-40.509,-6.144],[-40.532,-6.16],[-40.488,-6.203],[-40.499,-6.251],[-40.519,-6.269],[-40.566,-6.292],[-40.611,-6.338],[-40.548,-6.34],[-40.528,-6.348],[-40.435,-6.335],[-40.405,-6.312],[-40.262,-6.168],[-40.257,-6.15],[-40.226,-6.132],[-40.2,-6.144],[-40.165,-6.131],[-40.146,-6.112],[-40.069,-6.111],[-40.047,-6.098],[-40.0,-6.105],[-39.956,-6.1],[-39.96,-6.085],[-39.909,-6.058],[-39.856,-5.987],[-39.836,-5.977],[-39.834,-5.941],[-39.871,-5.91],[-39.871,-5.884],[-39.913,-5.899],[-39.941,-5.879],[-39.924,-5.839],[-39.975,-5.822],[-40.006,-5.777],[-40.006,-5.72],[-40.022,-5.71],[-40.043,-5.712],[-40.074,-5.665],[-40.054,-5.641],[-40.057,-5.598],[-40.077,-5.582],[-40.034,-5.564],[-40.014,-5.519],[-40.028,-5.49],[-40.054,-5.487],[-40.059,-5.397],[-40.106,-5.453],[-40.111,-5.535],[-40.124,-5.554],[-40.167,-5.543],[-40.172,-5.56],[-40.229,-5.592],[-40.236,-5.633],[-40.211,-5.691],[-40.23,-5.711],[-40.291,-5.756],[-40.322,-5.742],[-40.363,-5.743],[-40.397,-5.782],[-40.411,-5.811],[-40.452,-5.829],[-40.487,-5.835],[-40.53,-5.817],[-40.565,-5.841],[-40.599,-5.839],[-40.63,-5.853],[-40.642,-5.84],[-40.682,-5.873],[-40.672,-5.915],[-40.696,-5.912],[-40.713,-5.966],[-40.743,-5.979],[-40.734,-6.03],[-40.714,-6.04]]]}},{"type":"Feature","properties":{"code":"2305100"},"geometry":{"type":"Polygon","coordinates":[[[-38.934,-4.323],[-38.916,-4.292],[-38.891,-4.277],[-38.903,-4.249],[-38.941,-4.236],[-38.95,-4.182],[-39.006,-4.212],[-39.003,-4.261],[-38.985,-4.266],[-38.941,-4.303],[-38.934,-4.323]]]}},{"type":"Feature","properties":{"code":"2313401"},"geometry":{"type":"Polygon","coordinates":[[[-41.246,-3.896],[-41.205,-3.899],[-41.162,-3.873],[-41.132,-3.844],[-41.055,-3.84],[-41.036,-3.849],[-40.973,-3.842],[-40.953,-3.805],[-40.895,-3.781],[-40.874,-3.723],[-40.891,-3.668],[-40.904,-3.575],[-40.857,-3.536],[-40.822,-3.471],[-40.849,-3.417],[-40.884,-3.489],[-40.887,-3.52],[-40.877,-3.533],[-40.954,-3.601],[-41.01,-3.633],[-41.01,-3.648],[-41.046,-3.665],[-41.12,-3.712],[-41.147,-3.696],[-41.205,-3.701],[-41.239,-3.713],[-41.261,-3.746],[-41.254,-3.775],[-41.288,-3.822],[-41.246,-3.896]]]}},{"type":"Feature","properties":{"code":"2305209"},"geometry":{"type":"Polygon","coordinates":[[[-40.381,-4.549],[-40.346,-4.581],[-40.322,-4.577],[-40.293,-4.6],[-40.247,-4.605],[-40.233,-4.563],[-40.24,-4.53],[-40.268,-4.508],[-40.254,-4.472],[-40.257,-4.444],[-40.276,-4.431],[-40.32,-4.356],[-40.323,-4.313],[-40.302,-4.269],[-40.451,-4.26],[-40.478,-4.292],[-40.512,-4.326],[-40.523,-4.355],[-40.544,-4.37],[-40.565,-4.419],[-40.555,-4.44],[-40.584,-4.472],[-40.599,-4.531],[-40.588,-4.558],[-40.509,-4.508],[-40.461,-4.528],[-40.381,-4.549]]]}},{"type":"Feature","properties":{"code":"2313351"},"geometry":{"type":"Polygon","coordinates":[[[-39.533,-4.084],[-39.503,-4.001],[-39.486,-4.005],[-39.484,-3.974],[-39.458,-3.929],[-39.43,-3.856],[-39.477,-3.858],[-39.493,-3.819],[-39.49,-3.76],[-39.515,-3.746],[-39.544,-3.772],[-39.588,-3.825],[-39.639,-3.822],[-39.678,-3.833],[-39.704,-3.851],[-39.718,-3.877],[-39.706,-3.943],[-39.708,-4.018],[-39.693,-4.022],[-39.665,-4.082],[-39.628,-4.07],[-39.598,-4.094],[-39.557,-4.101],[-39.533,-4.084]]]}},{"type":"Feature","properties":{"code":"2313708"},"geometry":{"type":"Polygon","coordinates":[[[-38.672,-6.706],[-38.647,-6.654],[-38.649,-6.628],[-38.629,-6.605],[-38.643,-6.582],[-38.607,-6.529],[-38.611,-6.532],[-38.627,-6.532],[-38.679,-6.563],[-38.702,-6.556],[-38.735,-6.57],[-38.776,-6.612],[-38.791,-6.601],[-38.855,-6.597],[-38.877,-6.582],[-38.873,-6.612],[-38.844,-6.667],[-38.801,-6.659],[-38.672,-6.706]]]}},{"type":"Feature","properties":{"code":"2305506"},"geometry":{"type":"Polygon","coordinates":[[[-39.129,-6.409],[-39.094,-6.335],[-39.053,-6.296],[-39.056,-6.259],[-39.072,-6.235],[-39.097,-6.242],[-39.135,-6.289],[-39.163,-6.305],[-39.209,-6.29],[-39.241,-6.291],[-39.257,-6.272],[-39.286,-6.279],[-39.318,-6.266],[-39.295,-6.232],[-39.266,-6.223],[-39.277,-6.172],[-39.308,-6.175],[-39.357,-6.226],[-39.391,-6.222],[-39.417,-6.261],[-39.464,-6.28],[-39.459,-6.325],[-39.473,-6.374],[-39.408,-6.409],[-39.398,-6.465],[-39.348,-6.485],[-39.359,-6.509],[-39.34,-6.535],[-39.281,-6.526],[-39.236,-6.524],[-39.23,-6.491],[-39.205,-6.463],[-39.145,-6.442],[-39.129,-6.409]]]}},{"type":"Feature","properties":{"code":"2305605"},"geometry":{"type":"Polygon","coordinates":[[[-40.664,-5.677],[-40.624,-5.733],[-40.557,-5.742],[-40.57,-5.757],[-40.563,-5.788],[-40.565,-5.841],[-40.53,-5.817],[-40.487,-5.835],[-40.452,-5.829],[-40.411,-5.811],[-40.397,-5.782],[-40.363,-5.743],[-40.322,-5.742],[-40.291,-5.756],[-40.23,-5.711],[-40.211,-5.691],[-40.236,-5.633],[-40.229,-5.592],[-40.172,-5.56],[-40.167,-5.543],[-40.124,-5.554],[-40.111,-5.535],[-40.106,-5.453],[-40.059,-5.397],[-40.055,-5.363],[-40.021,-5.328],[-40.027,-5.297],[-40.049,-5.279],[-40.047,-5.239],[-40.024,-5.207],[-40.054,-5.18],[-40.097,-5.16],[-40.16,-5.165],[-40.191,-5.171],[-40.229,-5.153],[-40.244,-5.171],[-40.267,-5.163],[-40.304,-5.168],[-40.313,-5.155],[-40.391,-5.212],[-40.404,-5.2],[-40.414,-5.228],[-40.479,-5.274],[-40.524,-5.39],[-40.551,-5.402],[-40.555,-5.427],[-40.57,-5.439],[-40.612,-5.52],[-40.608,-5.559],[-40.637,-5.614],[-40.629,-5.636],[-40.664,-5.677]]]}},{"type":"Feature","properties":{"code":"2313757"},"geometry":{"type":"Polygon","coordinates":[[[-39.432,-3.785],[-39.367,-3.768],[-39.355,-3.739],[-39.322,-3.732],[-39.277,-3.737],[-39.278,-3.674],[-39.307,-3.664],[-39.315,-3.58],[-39.374,-3.578],[-39.39,-3.608],[-39.354,-3.662],[-39.426,-3.656],[-39.456,-3.643],[-39.515,-3.669],[-39.496,-3.722],[-39.443,-3.746],[-39.432,-3.785]]]}},{"type":"Feature","properties":{"code":"2305407"},"geometry":{"type":"Polygon","coordinates":[[[-38.611,-6.532],[-38.612,-6.513],[-38.57,-6.47],[-38.538,-6.421],[-38.572,-6.404],[-38.593,-6.378],[-38.562,-6.356],[-38.582,-6.319],[-38.57,-6.293],[-38.52,-6.223],[-38.551,-6.234],[-38.587,-6.202],[-38.6,-6.178],[-38.613,-6.17],[-38.656,-6.186],[-38.679,-6.205],[-38.727,-6.2],[-38.736,-6.165],[-38.724,-6.122],[-38.755,-6.111],[-38.801,-6.122],[-38.827,-6.218],[-38.836,-6.292],[-38.878,-6.327],[-38.916,-6.31],[-38.936,-6.34],[-38.96,-6.335],[-38.984,-6.355],[-38.983,-6.379],[-39.036,-6.376],[-39.059,-6.387],[-39.082,-6.364],[-39.129,-6.409],[-39.145,-6.442],[-39.123,-6.466],[-39.061,-6.446],[-38.958,-6.527],[-38.918,-6.55],[-38.922,-6.567],[-38.877,-6.582],[-38.855,-6.597],[-38.791,-6.601],[-38.776,-6.612],[-38.735,-6.57],[-38.702,-6.556],[-38.679,-6.563],[-38.627,-6.532],[-38.611,-6.532]]]}},{"type":"Feature","properties":{"code":"2313559"},"geometry":{"type":"Polygon","coordinates":[[[-39.505,-3.575],[-39.491,-3.602],[-39.42,-3.626],[-39.426,-3.656],[-39.354,-3.662],[-39.39,-3.608],[-39.374,-3.578],[-39.344,-3.541],[-39.331,-3.502],[-39.468,-3.402],[-39.449,-3.445],[-39.426,-3.471],[-39.402,-3.55],[-39.454,-3.585],[-39.505,-3.575]]]}},{"type":"Feature","properties":{"code":"2305357"},"geometry":{"type":"Polygon","coordinates":[[[-37.357,-4.858],[-37.253,-4.831],[-37.282,-4.752],[-37.295,-4.73],[-37.345,-4.69],[-37.408,-4.675],[-37.479,-4.646],[-37.495,-4.629],[-37.541,-4.645],[-37.557,-4.723],[-37.504,-4.792],[-37.463,-4.781],[-37.399,-4.776],[-37.356,-4.794],[-37.357,-4.858]]]}},{"type":"Feature","properties":{"code":"2313609"},"geometry":{"type":"Polygon","coordinates":[[[-40.895,-3.781],[-40.953,-3.805],[-40.973,-3.842],[-41.036,-3.849],[-41.055,-3.84],[-41.132,-3.844],[-41.162,-3.873],[-41.205,-3.899],[-41.246,-3.896],[-41.22,-3.942],[-41.229,-3.968],[-41.212,-3.972],[-41.168,-3.946],[-41.134,-3.942],[-40.978,-3.893],[-40.932,-3.907],[-40.873,-3.869],[-40.826,-3.869],[-40.79,-3.837],[-40.78,-3.786],[-40.844,-3.789],[-40.895,-3.781]]]}},{"type":"Feature","properties":{"code":"2312908"},"geometry":{"type":"Polygon","coordinates":[[[-39.841,-4.114],[-39.872,-4.046],[-39.917,-4.034],[-39.922,-3.992],[-39.999,-3.93],[-40.007,-3.899],[-39.925,-3.946],[-39.976,-3.777],[-40.012,-3.76],[-40.015,-3.712],[-40.02,-3.694],[-40.009,-3.648],[-39.993,-3.626],[-39.984,-3.576],[-40.044,-3.581],[-40.07,-3.594],[-40.111,-3.644],[-40.112,-3.69],[-40.147,-3.669],[-40.174,-3.674],[-40.213,-3.626],[-40.203,-3.604],[-40.269,-3.573],[-40.297,-3.591],[-40.31,-3.622],[-40.362,-3.616],[-40.4,-3.627],[-40.407,-3.645],[-40.458,-3.642],[-40.499,-3.63],[-40.515,-3.649],[-40.549,-3.654],[-40.611,-3.65],[-40.656,-3.797],[-40.715,-3.806],[-40.724,-3.821],[-40.679,-3.842],[-40.646,-3.841],[-40.623,-3.825],[-40.581,-3.861],[-40.501,-3.853],[-40.445,-3.835],[-40.416,-3.807],[-40.39,-3.8],[-40.37,-3.862],[-40.34,-3.783],[-40.307,-3.787],[-40.305,-3.749],[-40.236,-3.697],[-40.126,-3.701],[-40.115,-3.786],[-40.138,-3.897],[-40.189,-3.959],[-40.138,-4.031],[-40.014,-4.088],[-39.991,-4.086],[-39.963,-4.122],[-39.893,-4.143],[-39.86,-4.139],[-39.841,-4.114]]]}},{"type":"Feature","properties":{"code":"2313005"},"geometry":{"type":"Polygon","coordinates":[[[-38.976,-6.103],[-38.963,-6.021],[-38.938,-5.956],[-38.919,-5.949],[-38.882,-5.882],[-38.879,-5.866],[-38.84,-5.833],[-38.837,-5.813],[-38.805,-5.787],[-38.881,-5.656],[-38.909,-5.595],[-38.904,-5.47],[-38.911,-5.455],[-38.929,-5.486],[-38.975,-5.521],[-39.027,-5.49],[-39.163,-5.798],[-39.182,-5.86],[-39.172,-5.904],[-39.18,-5.92],[-39.17,-5.96],[-39.131,-5.984],[-39.113,-5.977],[-39.06,-6.003],[-39.051,-6.025],[-39.019,-6.005],[-38.986,-6.029],[-38.99,-6.076],[-38.976,-6.103]]]}},{"type":"Feature","properties":{"code":"2304806"},"geometry":{"type":"Polygon","coordinates":[[[-39.339,-6.906],[-39.347,-6.936],[-39.246,-6.935],[-39.236,-6.928],[-39.167,-6.936],[-39.166,-6.906],[-39.186,-6.864],[-39.207,-6.877],[-39.266,-6.882],[-39.339,-6.906]]]}}]}