{"type":"FeatureCollection","features":[{"type":"Feature","properties":{"code":"2410900"},"geometry":{"type":"Polygon","coordinates":[[[-35.797,-5.853],[-35.78,-5.815],[-35.777,-5.716],[-35.94,-5.733],[-35.924,-5.764],[-35.925,-5.8],[-35.851,-5.913],[-35.85,-5.915],[-35.833,-5.909],[-35.797,-5.853]]]}},{"type":"Feature","properties":{"code":"2402709"},"geometry":{"type":"Polygon","coordinates":[[[-36.296,-6.122],[-36.302,-6.115],[-36.281,-6.044],[-36.253,-5.982],[-36.224,-5.9],[-36.258,-5.865],[-36.285,-5.859],[-36.321,-5.866],[-36.334,-5.89],[-36.372,-5.896],[-36.363,-5.969],[-36.392,-5.99],[-36.411,-6.021],[-36.449,-6.011],[-36.444,-6.041],[-36.427,-6.093],[-36.412,-6.104],[-36.343,-6.098],[-36.296,-6.122]]]}},{"type":"Feature","properties":{"code":"2410207"},"geometry":{"type":"Polygon","coordinates":[[[-38.009,-6.096],[-37.981,-6.076],[-37.954,-6.03],[-37.983,-5.968],[-38.026,-5.991],[-38.044,-6.008],[-38.087,-6.015],[-38.033,-6.06],[-38.009,-6.096]]]}},{"type":"Feature","properties":{"code":"2402006"},"geometry":{"type":"Polygon","coordinates":[[[-36.937,-6.578],[-36.951,-6.522],[-36.958,-6.492],[-36.874,-6.419],[-36.861,-6.389],[-36.886,-6.343],[-36.924,-6.294],[-36.91,-6.243],[-36.895,-6.239],[-36.924,-6.239],[-36.927,-6.216],[-36.957,-6.191],[-37.003,-6.222],[-37.046,-6.224],[-37.081,-6.291],[-37.082,-6.354],[-37.073,-6.393],[-37.102,-6.418],[-37.141,-6.428],[-37.14,-6.449],[-37.188,-6.439],[-37.195,-6.447],[-37.217,-6.559],[-37.231,-6.569],[-37.218,-6.62],[-37.18,-6.614],[-37.15,-6.626],[-37.135,-6.65],[-37.109,-6.657],[-37.103,-6.685],[-37.035,-6.734],[-37.004,-6.71],[-36.98,-6.642],[-36.981,-6.617],[-36.937,-6.578]]]}},{"type":"Feature","properties":{"code":"2410306"},"geometry":{"type":"Polygon","coordinates":[[[-35.721,-6.173],[-35.682,-6.168],[-35.654,-6.177],[-35.639,-6.138],[-35.589,-6.097],[-35.691,-6.072],[-35.782,-6.041],[-35.799,-6.043],[-35.822,-6.073],[-35.823,-6.074],[-35.821,-6.129],[-35.808,-6.14],[-35.732,-6.143],[-35.721,-6.173]]]}},{"type":"Feature","properties":{"code":"2402105"},"geometry":{"type":"Polygon","coordinates":[[[-36.154,-6.3],[-36.134,-6.211],[-36.157,-6.166],[-36.226,-6.164],[-36.257,-6.158],[-36.258,-6.243],[-36.295,-6.292],[-36.279,-6.318],[-36.182,-6.298],[-36.154,-6.3]]]}},{"type":"Feature","properties":{"code":"2410256"},"geometry":{"type":"Polygon","coordinates":[[[-36.93,-5.131],[-36.903,-5.15],[-36.797,-5.175],[-36.749,-5.152],[-36.729,-5.175],[-36.722,-5.138],[-36.744,-5.09],[-36.716,-5.081],[-36.812,-5.026],[-36.856,-4.972],[-36.899,-4.977],[-36.908,-4.99],[-36.909,-5.081],[-36.953,-5.081],[-36.975,-5.104],[-36.975,-5.131],[-36.93,-5.131]]]}},{"type":"Feature","properties":{"code":"2410108"},"geometry":{"type":"Polygon","coordinates":[[[-35.632,-5.714],[-35.642,-5.629],[-35.658,-5.587],[-35.668,-5.496],[-35.626,-5.492],[-35.681,-5.464],[-35.745,-5.458],[-35.747,-5.62],[-35.708,-5.638],[-35.697,-5.666],[-35.632,-5.714],[-35.632,-5.714]]]}},{"type":"Feature","properties":{"code":"2401909"},"geometry":{"type":"Polygon","coordinates":[[[-35.925,-5.8],[-35.924,-5.764],[-35.94,-5.733],[-35.934,-5.715],[-35.971,-5.714],[-36.024,-5.698],[-36.062,-5.655],[-36.092,-5.749],[-36.116,-5.809],[-36.112,-5.842],[-36.1,-5.83],[-36.065,-5.849],[-36.014,-5.835],[-35.981,-5.804],[-35.925,-5.8]]]}},{"type":"Feature","properties":{"code":"2402303"},"geometry":{"type":"Polygon","coordinates":[[[-37.734,-5.912],[-37.713,-5.919],[-37.649,-5.941],[-37.593,-5.982],[-37.555,-5.959],[-37.534,-5.923],[-37.493,-5.894],[-37.447,-5.903],[-37.468,-5.752],[-37.442,-5.587],[-37.493,-5.567],[-37.579,-5.572],[-37.676,-5.635],[-37.692,-5.653],[-37.708,-5.721],[-37.721,-5.74],[-37.734,-5.912]]]}},{"type":"Feature","properties":{"code":"2410504"},"geometry":{"type":"Polygon","coordinates":[[[-38.249,-6.249],[-38.194,-6.221],[-38.17,-6.194],[-38.173,-6.17],[-38.207,-6.156],[-38.249,-6.164],[-38.278,-6.181],[-38.272,-6.223],[-38.249,-6.249]]]}},{"type":"Feature","properties":{"code":"2410405"},"geometry":{"type":"Polygon","coordinates":[[[-35.502,-5.492],[-35.482,-5.453],[-35.419,-5.333],[-35.458,-5.324],[-35.534,-5.339],[-35.586,-5.31],[-35.642,-5.335],[-35.719,-5.389],[-35.764,-5.452],[-35.745,-5.458],[-35.681,-5.464],[-35.626,-5.492],[-35.565,-5.494],[-35.538,-5.513],[-35.502,-5.492]]]}},{"type":"Feature","properties":{"code":"2402204"},"geometry":{"type":"Polygon","coordinates":[[[-35.112,-6.505],[-35.11,-6.446],[-35.127,-6.412],[-35.063,-6.362],[-35.068,-6.346],[-35.032,-6.311],[-35.033,-6.286],[-35.044,-6.284],[-35.063,-6.298],[-35.056,-6.327],[-35.084,-6.34],[-35.117,-6.334],[-35.117,-6.282],[-35.145,-6.299],[-35.167,-6.322],[-35.167,-6.354],[-35.199,-6.359],[-35.236,-6.349],[-35.272,-6.37],[-35.271,-6.372],[-35.232,-6.403],[-35.222,-6.421],[-35.185,-6.415],[-35.146,-6.533],[-35.146,-6.553],[-35.112,-6.505]]]}},{"type":"Feature","properties":{"code":"2409704"},"geometry":{"type":"Polygon","coordinates":[[[-36.47,-5.598],[-36.307,-5.65],[-36.262,-5.68],[-36.18,-5.478],[-36.223,-5.434],[-36.276,-5.29],[-36.368,-5.251],[-36.38,-5.271],[-36.381,-5.315],[-36.41,-5.334],[-36.44,-5.37],[-36.47,-5.598]]]}},{"type":"Feature","properties":{"code":"2401503"},"geometry":{"type":"Polygon","coordinates":[[[-36.032,-6.069],[-35.925,-6.011],[-35.835,-5.947],[-35.85,-5.915],[-35.851,-5.913],[-35.967,-5.901],[-35.963,-5.964],[-35.977,-5.98],[-35.977,-6.014],[-36.032,-6.069]]]}},{"type":"Feature","properties":{"code":"2401602"},"geometry":{"type":"Polygon","coordinates":[[[-35.94,-5.733],[-35.777,-5.716],[-35.656,-5.718],[-35.632,-5.714],[-35.697,-5.666],[-35.708,-5.638],[-35.747,-5.62],[-35.764,-5.638],[-35.803,-5.62],[-35.855,-5.609],[-35.885,-5.632],[-35.911,-5.63],[-35.942,-5.669],[-35.934,-5.715],[-35.94,-5.733]]]}},{"type":"Feature","properties":{"code":"2409605"},"geometry":{"type":"Polygon","coordinates":[[[-35.992,-5.464],[-36.028,-5.445],[-36.063,-5.405],[-36.129,-5.457],[-36.141,-5.5],[-36.172,-5.545],[-36.144,-5.567],[-36.143,-5.591],[-36.062,-5.655],[-35.992,-5.464]]]}},{"type":"Feature","properties":{"code":"2401404"},"geometry":{"type":"Polygon","coordinates":[[[-34.968,-6.487],[-34.975,-6.42],[-34.992,-6.371],[-35.02,-6.366],[-35.032,-6.311],[-35.068,-6.346],[-35.063,-6.362],[-35.127,-6.412],[-35.11,-6.446],[-35.112,-6.505],[-35.096,-6.498],[-35.058,-6.528],[-35.029,-6.505],[-34.992,-6.502],[-34.968,-6.487]]]}},{"type":"Feature","properties":{"code":"2401453"},"geometry":{"type":"Polygon","coordinates":[[[-37.583,-5.278],[-37.489,-5.017],[-37.498,-4.997],[-37.492,-4.925],[-37.467,-4.886],[-37.64,-4.926],[-37.677,-5.053],[-37.725,-5.071],[-37.733,-5.101],[-37.765,-5.14],[-37.788,-5.219],[-37.583,-5.278]]]}},{"type":"Feature","properties":{"code":"2401859"},"geometry":{"type":"Polygon","coordinates":[[[-36.002,-5.256],[-36.061,-5.229],[-36.042,-5.109],[-36.038,-5.051],[-36.099,-5.077],[-36.152,-5.257],[-36.103,-5.287],[-36.051,-5.299],[-36.002,-5.256]]]}},{"type":"Feature","properties":{"code":"2410009"},"geometry":{"type":"Polygon","coordinates":[[[-38.1,-6.33],[-38.056,-6.311],[-38.031,-6.321],[-37.984,-6.311],[-37.963,-6.256],[-38.063,-6.254],[-38.1,-6.33]]]}},{"type":"Feature","properties":{"code":"2401800"},"geometry":{"type":"Polygon","coordinates":[[[-35.436,-6.253],[-35.421,-6.273],[-35.401,-6.245],[-35.358,-6.25],[-35.35,-6.225],[-35.339,-6.185],[-35.352,-6.182],[-35.381,-6.159],[-35.403,-6.21],[-35.436,-6.253]]]}},{"type":"Feature","properties":{"code":"2401651"},"geometry":{"type":"Polygon","coordinates":[[[-36.547,-6.056],[-36.522,-6.047],[-36.444,-6.041],[-36.449,-6.011],[-36.411,-6.021],[-36.392,-5.99],[-36.363,-5.969],[-36.372,-5.896],[-36.334,-5.89],[-36.368,-5.875],[-36.388,-5.852],[-36.415,-5.858],[-36.435,-5.911],[-36.475,-5.927],[-36.54,-5.99],[-36.547,-6.056]]]}},{"type":"Feature","properties":{"code":"2409803"},"geometry":{"type":"Polygon","coordinates":[[[-35.146,-6.553],[-35.146,-6.533],[-35.185,-6.415],[-35.222,-6.421],[-35.232,-6.403],[-35.271,-6.372],[-35.31,-6.403],[-35.314,-6.45],[-35.279,-6.449],[-35.275,-6.481],[-35.224,-6.522],[-35.194,-6.55],[-35.146,-6.553]]]}},{"type":"Feature","properties":{"code":"2409902"},"geometry":{"type":"Polygon","coordinates":[[[-36.516,-5.402],[-36.515,-5.302],[-36.542,-5.301],[-36.535,-5.264],[-36.564,-5.218],[-36.729,-5.175],[-36.715,-5.215],[-36.726,-5.262],[-36.755,-5.273],[-36.664,-5.372],[-36.555,-5.395],[-36.537,-5.413],[-36.516,-5.402]]]}},{"type":"Feature","properties":{"code":"2401701"},"geometry":{"type":"Polygon","coordinates":[[[-35.558,-6.047],[-35.537,-5.996],[-35.556,-5.949],[-35.572,-5.932],[-35.65,-5.976],[-35.648,-6.016],[-35.571,-6.08],[-35.558,-6.047]]]}},{"type":"Feature","properties":{"code":"2409209"},"geometry":{"type":"Polygon","coordinates":[[[-35.421,-6.273],[-35.425,-6.319],[-35.389,-6.323],[-35.358,-6.25],[-35.401,-6.245],[-35.421,-6.273]]]}},{"type":"Feature","properties":{"code":"2401008"},"geometry":{"type":"Polygon","coordinates":[[[-37.913,-5.904],[-37.897,-5.94],[-37.826,-5.913],[-37.764,-5.896],[-37.734,-5.912],[-37.721,-5.74],[-37.708,-5.721],[-37.692,-5.653],[-37.676,-5.635],[-37.761,-5.578],[-37.643,-5.416],[-37.813,-5.317],[-37.847,-5.34],[-37.864,-5.374],[-37.861,-5.407],[-37.889,-5.452],[-37.902,-5.501],[-37.935,-5.505],[-37.951,-5.537],[-37.99,-5.556],[-37.998,-5.585],[-38.028,-5.623],[-38.083,-5.672],[-38.09,-5.715],[-38.047,-5.733],[-38.059,-5.755],[-37.881,-5.697],[-37.856,-5.747],[-37.88,-5.754],[-37.872,-5.879],[-37.913,-5.904]]]}},{"type":"Feature","properties":{"code":"2400901"},"geometry":{"type":"Polygon","coordinates":[[[-37.777,-6.246],[-37.798,-6.217],[-37.889,-6.167],[-37.895,-6.153],[-37.947,-6.16],[-37.993,-6.21],[-38.022,-6.21],[-38.042,-6.169],[-38.057,-6.196],[-38.063,-6.254],[-37.963,-6.256],[-37.882,-6.273],[-37.85,-6.256],[-37.794,-6.256],[-37.777,-6.246]]]}},{"type":"Feature","properties":{"code":"2409100"},"geometry":{"type":"Polygon","coordinates":[[[-35.637,-6.454],[-35.604,-6.459],[-35.581,-6.484],[-35.559,-6.43],[-35.67,-6.416],[-35.665,-6.45],[-35.637,-6.454]]]}},{"type":"Feature","properties":{"code":"2409506"},"geometry":{"type":"Polygon","coordinates":[[[-35.952,-5.237],[-35.832,-5.21],[-35.791,-5.077],[-35.886,-5.067],[-35.908,-5.059],[-35.952,-5.237]]]}},{"type":"Feature","properties":{"code":"2401305"},"geometry":{"type":"Polygon","coordinates":[[[-37.359,-6.006],[-37.383,-6.067],[-37.379,-6.085],[-37.354,-6.087],[-37.336,-6.067],[-37.296,-6.05],[-37.273,-6.056],[-37.257,-6.029],[-37.232,-6.028],[-37.174,-6.048],[-37.162,-6.021],[-37.261,-5.909],[-37.195,-5.824],[-37.225,-5.79],[-37.221,-5.718],[-37.313,-5.71],[-37.372,-5.722],[-37.468,-5.752],[-37.447,-5.903],[-37.437,-5.985],[-37.401,-5.963],[-37.359,-6.006]]]}},{"type":"Feature","properties":{"code":"2409332"},"geometry":{"type":"Polygon","coordinates":[[[-35.797,-5.853],[-35.742,-5.872],[-35.704,-5.862],[-35.683,-5.869],[-35.668,-5.794],[-35.639,-5.79],[-35.656,-5.718],[-35.777,-5.716],[-35.78,-5.815],[-35.797,-5.853]]]}},{"type":"Feature","properties":{"code":"2409308"},"geometry":{"type":"Polygon","coordinates":[[[-37.522,-6.152],[-37.577,-6.034],[-37.557,-6.016],[-37.593,-5.982],[-37.649,-5.941],[-37.657,-5.992],[-37.675,-6.017],[-37.672,-6.048],[-37.688,-6.109],[-37.709,-6.177],[-37.673,-6.191],[-37.616,-6.176],[-37.57,-6.155],[-37.54,-6.166],[-37.522,-6.152]]]}},{"type":"Feature","properties":{"code":"2401107"},"geometry":{"type":"Polygon","coordinates":[[[-37.137,-5.005],[-37.132,-5.03],[-37.153,-5.054],[-37.137,-5.105],[-37.111,-5.125],[-37.112,-5.097],[-37.051,-5.097],[-37.051,-5.06],[-37.028,-5.06],[-37.011,-5.022],[-36.966,-5.022],[-36.966,-4.986],[-36.908,-4.99],[-36.899,-4.977],[-36.856,-4.972],[-36.879,-4.951],[-36.919,-4.947],[-36.96,-4.919],[-37.003,-4.929],[-37.037,-4.95],[-37.104,-4.922],[-37.139,-4.948],[-37.147,-4.975],[-37.137,-5.005]]]}},{"type":"Feature","properties":{"code":"2409407"},"geometry":{"type":"Polygon","coordinates":[[[-38.057,-6.196],[-38.042,-6.169],[-38.044,-6.126],[-38.103,-6.114],[-38.148,-6.096],[-38.189,-6.046],[-38.215,-6.024],[-38.252,-6.01],[-38.253,-6.043],[-38.275,-6.066],[-38.261,-6.075],[-38.267,-6.112],[-38.25,-6.136],[-38.249,-6.164],[-38.207,-6.156],[-38.173,-6.17],[-38.17,-6.194],[-38.129,-6.176],[-38.057,-6.196]]]}},{"type":"Feature","properties":{"code":"2401206"},"geometry":{"type":"Polygon","coordinates":[[[-35.286,-6.205],[-35.231,-6.242],[-35.202,-6.223],[-35.15,-6.218],[-35.111,-6.187],[-35.157,-6.148],[-35.175,-6.165],[-35.22,-6.171],[-35.298,-6.161],[-35.286,-6.205]]]}},{"type":"Feature","properties":{"code":"2408706"},"geometry":{"type":"Polygon","coordinates":[[[-37.036,-5.891],[-36.994,-5.772],[-37.055,-5.746],[-37.105,-5.656],[-37.177,-5.724],[-37.221,-5.718],[-37.225,-5.79],[-37.195,-5.824],[-37.149,-5.866],[-37.101,-5.872],[-37.036,-5.891]]]}},{"type":"Feature","properties":{"code":"2400505"},"geometry":{"type":"Polygon","coordinates":[[[-38.027,-6.475],[-38.008,-6.432],[-37.942,-6.424],[-37.919,-6.412],[-37.89,-6.4],[-37.889,-6.37],[-37.859,-6.374],[-37.843,-6.333],[-37.901,-6.318],[-37.908,-6.285],[-37.882,-6.273],[-37.963,-6.256],[-37.984,-6.311],[-38.031,-6.321],[-38.056,-6.311],[-38.1,-6.33],[-38.104,-6.356],[-38.126,-6.367],[-38.09,-6.456],[-38.071,-6.464],[-38.037,-6.457],[-38.027,-6.475]]]}},{"type":"Feature","properties":{"code":"2408607"},"geometry":{"type":"Polygon","coordinates":[[[-38.344,-6.457],[-38.289,-6.506],[-38.257,-6.483],[-38.229,-6.483],[-38.253,-6.418],[-38.287,-6.392],[-38.307,-6.426],[-38.348,-6.448],[-38.344,-6.457]]]}},{"type":"Feature","properties":{"code":"2400406"},"geometry":{"type":"Polygon","coordinates":[[[-38.358,-6.218],[-38.302,-6.241],[-38.272,-6.223],[-38.278,-6.181],[-38.311,-6.176],[-38.358,-6.201],[-38.358,-6.218]]]}},{"type":"Feature","properties":{"code":"2408953"},"geometry":{"type":"Polygon","coordinates":[[[-35.482,-5.453],[-35.401,-5.437],[-35.362,-5.414],[-35.326,-5.381],[-35.355,-5.355],[-35.371,-5.285],[-35.382,-5.27],[-35.419,-5.333],[-35.482,-5.453]]]}},{"type":"Feature","properties":{"code":"2408904"},"geometry":{"type":"Polygon","coordinates":[[[-36.533,-6.734],[-36.559,-6.708],[-36.521,-6.611],[-36.55,-6.608],[-36.587,-6.585],[-36.636,-6.592],[-36.68,-6.579],[-36.669,-6.61],[-36.698,-6.62],[-36.722,-6.647],[-36.707,-6.68],[-36.712,-6.753],[-36.731,-6.792],[-36.726,-6.817],[-36.693,-6.833],[-36.676,-6.817],[-36.634,-6.818],[-36.611,-6.8],[-36.575,-6.806],[-36.56,-6.841],[-36.544,-6.842],[-36.51,-6.818],[-36.505,-6.754],[-36.533,-6.734]]]}},{"type":"Feature","properties":{"code":"2400802"},"geometry":{"type":"Polygon","coordinates":[[[-36.568,-5.758],[-36.532,-5.691],[-36.524,-5.7],[-36.444,-5.699],[-36.362,-5.708],[-36.326,-5.721],[-36.306,-5.707],[-36.273,-5.709],[-36.262,-5.68],[-36.307,-5.65],[-36.47,-5.598],[-36.573,-5.586],[-36.58,-5.529],[-36.699,-5.526],[-36.725,-5.574],[-36.771,-5.606],[-36.751,-5.647],[-36.732,-5.684],[-36.703,-5.701],[-36.675,-5.706],[-36.658,-5.742],[-36.63,-5.759],[-36.568,-5.758]]]}},{"type":"Feature","properties":{"code":"2408805"},"geometry":{"type":"Polygon","coordinates":[[[-36.051,-5.299],[-36.037,-5.301],[-36.012,-5.399],[-35.975,-5.332],[-35.832,-5.306],[-35.84,-5.235],[-35.832,-5.21],[-35.952,-5.237],[-36.002,-5.256],[-36.051,-5.299]]]}},{"type":"Feature","properties":{"code":"2400604"},"geometry":{"type":"Polygon","coordinates":[[[-37.801,-6.154],[-37.798,-6.217],[-37.777,-6.246],[-37.742,-6.189],[-37.709,-6.177],[-37.688,-6.109],[-37.711,-6.131],[-37.742,-6.122],[-37.777,-6.068],[-37.789,-6.091],[-37.81,-6.114],[-37.801,-6.154]]]}},{"type":"Feature","properties":{"code":"2400703"},"geometry":{"type":"Polygon","coordinates":[[[-36.755,-5.273],[-36.811,-5.345],[-36.838,-5.392],[-36.537,-5.413],[-36.555,-5.395],[-36.664,-5.372],[-36.755,-5.273]]]}},{"type":"Feature","properties":{"code":"2408201"},"geometry":{"type":"Polygon","coordinates":[[[-35.098,-6.14],[-35.096,-6.057],[-35.11,-6.043],[-35.106,-6.012],[-35.121,-5.982],[-35.183,-5.938],[-35.212,-5.935],[-35.246,-5.954],[-35.229,-5.991],[-35.237,-6.068],[-35.228,-6.073],[-35.226,-6.162],[-35.22,-6.171],[-35.175,-6.165],[-35.157,-6.148],[-35.098,-6.14]]]}},{"type":"Feature","properties":{"code":"2408102"},"geometry":{"type":"Polygon","coordinates":[[[-35.154,-5.898],[-35.179,-5.864],[-35.179,-5.799],[-35.204,-5.743],[-35.238,-5.714],[-35.266,-5.704],[-35.291,-5.732],[-35.287,-5.763],[-35.252,-5.777],[-35.252,-5.798],[-35.282,-5.83],[-35.282,-5.85],[-35.254,-5.866],[-35.218,-5.869],[-35.176,-5.9],[-35.154,-5.898]]]}},{"type":"Feature","properties":{"code":"2408409"},"geometry":{"type":"Polygon","coordinates":[[[-37.713,-5.919],[-37.757,-5.94],[-37.774,-5.962],[-37.772,-6.002],[-37.741,-6.013],[-37.722,-6.041],[-37.672,-6.048],[-37.675,-6.017],[-37.657,-5.992],[-37.649,-5.941],[-37.713,-5.919]]]}},{"type":"Feature","properties":{"code":"2400208"},"geometry":{"type":"Polygon","coordinates":[[[-36.898,-5.604],[-36.883,-5.573],[-36.904,-5.53],[-36.87,-5.478],[-36.86,-5.442],[-36.838,-5.404],[-36.856,-5.401],[-36.928,-5.354],[-37.029,-5.326],[-37.051,-5.294],[-37.126,-5.293],[-37.143,-5.374],[-37.173,-5.49],[-37.105,-5.656],[-37.055,-5.746],[-36.994,-5.772],[-37.036,-5.891],[-37.036,-5.891],[-37.015,-5.871],[-37.01,-5.837],[-36.977,-5.814],[-36.98,-5.785],[-36.962,-5.753],[-36.894,-5.711],[-36.883,-5.641],[-36.898,-5.604]]]}},{"type":"Feature","properties":{"code":"2408508"},"geometry":{"type":"Polygon","coordinates":[[[-37.004,-6.71],[-36.978,-6.722],[-36.973,-6.758],[-36.959,-6.783],[-36.91,-6.757],[-36.835,-6.731],[-36.843,-6.675],[-36.817,-6.68],[-36.87,-6.631],[-36.91,-6.608],[-36.937,-6.578],[-36.981,-6.617],[-36.98,-6.642],[-37.004,-6.71]]]}},{"type":"Feature","properties":{"code":"2400307"},"geometry":{"type":"Polygon","coordinates":[[[-36.47,-5.598],[-36.44,-5.37],[-36.516,-5.402],[-36.537,-5.413],[-36.838,-5.392],[-36.838,-5.404],[-36.86,-5.442],[-36.7,-5.464],[-36.699,-5.526],[-36.58,-5.529],[-36.573,-5.586],[-36.47,-5.598]]]}},{"type":"Feature","properties":{"code":"2408300"},"geometry":{"type":"Polygon","coordinates":[[[-35.341,-6.539],[-35.314,-6.45],[-35.31,-6.403],[-35.337,-6.396],[-35.373,-6.405],[-35.409,-6.381],[-35.447,-6.406],[-35.518,-6.406],[-35.544,-6.417],[-35.559,-6.43],[-35.581,-6.484],[-35.565,-6.492],[-35.512,-6.477],[-35.442,-6.487],[-35.408,-6.49],[-35.364,-6.512],[-35.341,-6.539]]]}},{"type":"Feature","properties":{"code":"2400109"},"geometry":{"type":"Polygon","coordinates":[[[-36.504,-6.386],[-36.551,-6.362],[-36.565,-6.312],[-36.605,-6.29],[-36.632,-6.269],[-36.663,-6.279],[-36.71,-6.278],[-36.716,-6.301],[-36.743,-6.308],[-36.754,-6.321],[-36.742,-6.393],[-36.761,-6.479],[-36.774,-6.473],[-36.761,-6.516],[-36.703,-6.538],[-36.68,-6.579],[-36.612,-6.499],[-36.581,-6.474],[-36.528,-6.479],[-36.531,-6.452],[-36.504,-6.386]]]}},{"type":"Feature","properties":{"code":"2407708"},"geometry":{"type":"Polygon","coordinates":[[[-35.341,-6.539],[-35.275,-6.544],[-35.224,-6.522],[-35.275,-6.481],[-35.279,-6.449],[-35.314,-6.45],[-35.341,-6.539]]]}},{"type":"Feature","properties":{"code":"2407500"},"geometry":{"type":"Polygon","coordinates":[[[-35.502,-5.492],[-35.419,-5.458],[-35.357,-5.47],[-35.331,-5.489],[-35.297,-5.487],[-35.256,-5.517],[-35.261,-5.481],[-35.288,-5.461],[-35.293,-5.433],[-35.326,-5.381],[-35.362,-5.414],[-35.401,-5.437],[-35.482,-5.453],[-35.502,-5.492]]]}},{"type":"Feature","properties":{"code":"2407609"},"geometry":{"type":"Polygon","coordinates":[[[-37.359,-6.006],[-37.426,-6.074],[-37.456,-6.097],[-37.515,-6.064],[-37.557,-6.016],[-37.577,-6.034],[-37.522,-6.152],[-37.459,-6.145],[-37.446,-6.112],[-37.394,-6.109],[-37.379,-6.085],[-37.383,-6.067],[-37.359,-6.006]]]}},{"type":"Feature","properties":{"code":"2407906"},"geometry":{"type":"Polygon","coordinates":[[[-35.773,-6.483],[-35.765,-6.419],[-35.773,-6.408],[-35.843,-6.378],[-35.855,-6.434],[-35.839,-6.453],[-35.78,-6.483],[-35.773,-6.483]]]}},{"type":"Feature","properties":{"code":"2408003"},"geometry":{"type":"Polygon","coordinates":[[[-37.173,-5.49],[-37.143,-5.374],[-37.126,-5.293],[-37.156,-5.294],[-37.157,-5.167],[-37.111,-5.167],[-37.111,-5.125],[-37.137,-5.105],[-37.153,-5.054],[-37.132,-5.03],[-37.137,-5.005],[-37.167,-5.015],[-37.177,-4.97],[-37.209,-4.992],[-37.308,-4.946],[-37.345,-4.935],[-37.365,-4.907],[-37.427,-4.912],[-37.446,-4.881],[-37.467,-4.886],[-37.492,-4.925],[-37.498,-4.997],[-37.489,-5.017],[-37.583,-5.278],[-37.426,-5.311],[-37.296,-5.391],[-37.302,-5.463],[-37.295,-5.478],[-37.173,-5.49]]]}},{"type":"Feature","properties":{"code":"2407807"},"geometry":{"type":"Polygon","coordinates":[[[-35.352,-6.182],[-35.326,-6.141],[-35.299,-6.072],[-35.323,-6.048],[-35.365,-6.056],[-35.429,-6.051],[-35.457,-6.078],[-35.513,-6.051],[-35.545,-6.056],[-35.532,-6.092],[-35.5,-6.112],[-35.466,-6.122],[-35.444,-6.141],[-35.413,-6.132],[-35.381,-6.159],[-35.352,-6.182]]]}},{"type":"Feature","properties":{"code":"2407203"},"geometry":{"type":"Polygon","coordinates":[[[-36.716,-5.081],[-36.744,-5.09],[-36.722,-5.138],[-36.729,-5.175],[-36.564,-5.218],[-36.535,-5.264],[-36.542,-5.301],[-36.515,-5.302],[-36.516,-5.402],[-36.44,-5.37],[-36.41,-5.334],[-36.381,-5.315],[-36.38,-5.271],[-36.368,-5.251],[-36.431,-5.133],[-36.407,-5.081],[-36.449,-5.066],[-36.508,-5.062],[-36.542,-5.088],[-36.611,-5.079],[-36.613,-5.094],[-36.689,-5.088],[-36.716,-5.081]]]}},{"type":"Feature","properties":{"code":"2407005"},"geometry":{"type":"Polygon","coordinates":[[[-38.348,-6.448],[-38.337,-6.374],[-38.331,-6.329],[-38.395,-6.345],[-38.409,-6.293],[-38.458,-6.33],[-38.458,-6.33],[-38.489,-6.362],[-38.483,-6.389],[-38.448,-6.403],[-38.402,-6.41],[-38.385,-6.422],[-38.373,-6.456],[-38.344,-6.457],[-38.348,-6.448]]]}},{"type":"Feature","properties":{"code":"2407104"},"geometry":{"type":"Polygon","coordinates":[[[-35.558,-6.047],[-35.547,-6.054],[-35.373,-5.987],[-35.296,-5.958],[-35.282,-5.85],[-35.282,-5.83],[-35.309,-5.836],[-35.432,-5.845],[-35.472,-5.835],[-35.489,-5.831],[-35.529,-5.882],[-35.572,-5.932],[-35.556,-5.949],[-35.537,-5.996],[-35.558,-6.047]]]}},{"type":"Feature","properties":{"code":"2407401"},"geometry":{"type":"Polygon","coordinates":[[[-37.864,-6.104],[-37.832,-6.082],[-37.846,-6.057],[-37.861,-6.031],[-37.897,-6.008],[-37.934,-6.004],[-37.954,-6.03],[-37.981,-6.076],[-37.941,-6.099],[-37.947,-6.16],[-37.895,-6.153],[-37.889,-6.167],[-37.859,-6.124],[-37.864,-6.104]]]}},{"type":"Feature","properties":{"code":"2407302"},"geometry":{"type":"Polygon","coordinates":[[[-38.1,-6.33],[-38.063,-6.254],[-38.057,-6.196],[-38.129,-6.176],[-38.17,-6.194],[-38.194,-6.221],[-38.249,-6.249],[-38.248,-6.29],[-38.248,-6.334],[-38.225,-6.357],[-38.239,-6.386],[-38.203,-6.381],[-38.188,-6.362],[-38.165,-6.387],[-38.126,-6.367],[-38.104,-6.356],[-38.1,-6.33]]]}},{"type":"Feature","properties":{"code":"2407252"},"geometry":{"type":"Polygon","coordinates":[[[-38.287,-6.392],[-38.337,-6.374],[-38.348,-6.448],[-38.307,-6.426],[-38.287,-6.392]]]}},{"type":"Feature","properties":{"code":"2414803"},"geometry":{"type":"Polygon","coordinates":[[[-35.545,-6.056],[-35.513,-6.051],[-35.457,-6.078],[-35.429,-6.051],[-35.365,-6.056],[-35.382,-6.022],[-35.373,-5.987],[-35.547,-6.054],[-35.545,-6.056]]]}},{"type":"Feature","properties":{"code":"2406601"},"geometry":{"type":"Polygon","coordinates":[[[-35.55,-6.2],[-35.527,-6.201],[-35.5,-6.18],[-35.446,-6.154],[-35.444,-6.141],[-35.466,-6.122],[-35.5,-6.112],[-35.532,-6.092],[-35.535,-6.142],[-35.55,-6.2]]]}},{"type":"Feature","properties":{"code":"2414902"},"geometry":{"type":"Polygon","coordinates":[[[-37.983,-5.968],[-37.954,-6.03],[-37.934,-6.004],[-37.921,-5.96],[-37.971,-5.957],[-37.983,-5.968]]]}},{"type":"Feature","properties":{"code":"2406700"},"geometry":{"type":"Polygon","coordinates":[[[-36.112,-5.842],[-36.116,-5.809],[-36.092,-5.749],[-36.062,-5.655],[-36.143,-5.591],[-36.144,-5.567],[-36.172,-5.545],[-36.141,-5.5],[-36.129,-5.457],[-36.16,-5.434],[-36.223,-5.434],[-36.18,-5.478],[-36.262,-5.68],[-36.273,-5.709],[-36.285,-5.859],[-36.258,-5.865],[-36.224,-5.9],[-36.213,-5.874],[-36.159,-5.85],[-36.136,-5.864],[-36.112,-5.842]]]}},{"type":"Feature","properties":{"code":"2414704"},"geometry":{"type":"Polygon","coordinates":[[[-35.31,-6.403],[-35.339,-6.381],[-35.342,-6.315],[-35.361,-6.308],[-35.35,-6.225],[-35.358,-6.25],[-35.389,-6.323],[-35.409,-6.381],[-35.373,-6.405],[-35.337,-6.396],[-35.31,-6.403]]]}},{"type":"Feature","properties":{"code":"2406502"},"geometry":{"type":"Polygon","coordinates":[[[-36.412,-6.104],[-36.427,-6.093],[-36.444,-6.041],[-36.522,-6.047],[-36.547,-6.056],[-36.639,-6.089],[-36.622,-6.132],[-36.606,-6.125],[-36.551,-6.141],[-36.509,-6.123],[-36.492,-6.137],[-36.46,-6.115],[-36.412,-6.104]]]}},{"type":"Feature","properties":{"code":"2414753"},"geometry":{"type":"Polygon","coordinates":[[[-38.562,-6.356],[-38.533,-6.342],[-38.504,-6.356],[-38.458,-6.33],[-38.458,-6.33],[-38.481,-6.304],[-38.542,-6.286],[-38.57,-6.293],[-38.582,-6.319],[-38.562,-6.356]]]}},{"type":"Feature","properties":{"code":"2406908"},"geometry":{"type":"Polygon","coordinates":[[[-37.801,-6.154],[-37.81,-6.114],[-37.789,-6.091],[-37.846,-6.057],[-37.832,-6.082],[-37.864,-6.104],[-37.801,-6.154]]]}},{"type":"Feature","properties":{"code":"2415008"},"geometry":{"type":"Polygon","coordinates":[[[-35.117,-6.282],[-35.117,-6.334],[-35.084,-6.34],[-35.056,-6.327],[-35.063,-6.298],[-35.044,-6.284],[-35.076,-6.266],[-35.117,-6.282]]]}},{"type":"Feature","properties":{"code":"2406809"},"geometry":{"type":"Polygon","coordinates":[[[-36.134,-6.211],[-36.078,-6.196],[-36.08,-6.102],[-36.121,-6.089],[-36.163,-6.106],[-36.174,-6.122],[-36.225,-6.143],[-36.226,-6.164],[-36.157,-6.166],[-36.134,-6.211]]]}},{"type":"Feature","properties":{"code":"2414308"},"geometry":{"type":"Polygon","coordinates":[[[-37.319,-6.455],[-37.26,-6.524],[-37.231,-6.569],[-37.217,-6.559],[-37.195,-6.447],[-37.188,-6.439],[-37.221,-6.43],[-37.261,-6.404],[-37.319,-6.455]]]}},{"type":"Feature","properties":{"code":"2406106"},"geometry":{"type":"Polygon","coordinates":[[[-37.141,-6.181],[-37.097,-6.231],[-37.07,-6.237],[-37.046,-6.224],[-37.003,-6.222],[-36.957,-6.191],[-36.892,-6.177],[-36.894,-6.145],[-36.925,-6.132],[-36.934,-6.089],[-36.899,-6.086],[-36.855,-6.044],[-36.849,-6.01],[-36.859,-5.985],[-36.894,-5.975],[-36.937,-5.968],[-36.951,-5.93],[-36.973,-5.913],[-36.938,-5.871],[-36.959,-5.854],[-36.977,-5.814],[-37.01,-5.837],[-37.015,-5.871],[-37.036,-5.891],[-37.067,-5.985],[-37.122,-5.955],[-37.154,-5.993],[-37.162,-6.021],[-37.174,-6.048],[-37.175,-6.142],[-37.157,-6.152],[-37.141,-6.181]]]}},{"type":"Feature","properties":{"code":"2406205"},"geometry":{"type":"Polygon","coordinates":[[[-35.67,-6.416],[-35.559,-6.43],[-35.544,-6.417],[-35.555,-6.391],[-35.597,-6.386],[-35.615,-6.35],[-35.643,-6.326],[-35.671,-6.315],[-35.683,-6.358],[-35.67,-6.416]]]}},{"type":"Feature","properties":{"code":"2414209"},"geometry":{"type":"Polygon","coordinates":[[[-35.15,-6.218],[-35.155,-6.268],[-35.145,-6.299],[-35.117,-6.282],[-35.076,-6.266],[-35.044,-6.284],[-35.033,-6.286],[-35.036,-6.235],[-35.062,-6.226],[-35.094,-6.183],[-35.111,-6.187],[-35.15,-6.218]]]}},{"type":"Feature","properties":{"code":"2406155"},"geometry":{"type":"Polygon","coordinates":[[[-35.35,-6.225],[-35.361,-6.308],[-35.342,-6.315],[-35.323,-6.271],[-35.319,-6.191],[-35.339,-6.185],[-35.35,-6.225]]]}},{"type":"Feature","properties":{"code":"2406007"},"geometry":{"type":"Polygon","coordinates":[[[-38.239,-6.386],[-38.225,-6.357],[-38.248,-6.334],[-38.248,-6.29],[-38.298,-6.278],[-38.333,-6.312],[-38.331,-6.329],[-38.337,-6.374],[-38.287,-6.392],[-38.253,-6.418],[-38.239,-6.386]]]}},{"type":"Feature","properties":{"code":"2414159"},"geometry":{"type":"Polygon","coordinates":[[[-36.704,-6.221],[-36.714,-6.205],[-36.701,-6.145],[-36.653,-6.112],[-36.72,-6.095],[-36.732,-6.106],[-36.73,-6.15],[-36.785,-6.197],[-36.704,-6.221]]]}},{"type":"Feature","properties":{"code":"2406403"},"geometry":{"type":"Polygon","coordinates":[[[-35.925,-6.011],[-35.822,-6.073],[-35.799,-6.043],[-35.778,-6.016],[-35.835,-5.947],[-35.925,-6.011]]]}},{"type":"Feature","properties":{"code":"2414605"},"geometry":{"type":"Polygon","coordinates":[[[-37.468,-5.752],[-37.372,-5.722],[-37.313,-5.71],[-37.221,-5.718],[-37.177,-5.724],[-37.105,-5.656],[-37.173,-5.49],[-37.295,-5.478],[-37.382,-5.478],[-37.442,-5.587],[-37.468,-5.752]]]}},{"type":"Feature","properties":{"code":"2414456"},"geometry":{"type":"Polygon","coordinates":[[[-37.162,-6.021],[-37.154,-5.993],[-37.122,-5.955],[-37.067,-5.985],[-37.036,-5.891],[-37.036,-5.891],[-37.101,-5.872],[-37.149,-5.866],[-37.195,-5.824],[-37.261,-5.909],[-37.162,-6.021]]]}},{"type":"Feature","properties":{"code":"2414407"},"geometry":{"type":"Polygon","coordinates":[[[-35.832,-5.306],[-35.814,-5.465],[-35.777,-5.443],[-35.764,-5.452],[-35.719,-5.389],[-35.642,-5.335],[-35.586,-5.31],[-35.534,-5.339],[-35.458,-5.324],[-35.419,-5.333],[-35.382,-5.27],[-35.417,-5.221],[-35.459,-5.197],[-35.489,-5.157],[-35.572,-5.134],[-35.617,-5.114],[-35.63,-5.199],[-35.653,-5.225],[-35.683,-5.277],[-35.705,-5.294],[-35.762,-5.294],[-35.832,-5.306]]]}},{"type":"Feature","properties":{"code":"2414506"},"geometry":{"type":"Polygon","coordinates":[[[-37.772,-6.002],[-37.774,-5.962],[-37.757,-5.94],[-37.713,-5.919],[-37.734,-5.912],[-37.764,-5.896],[-37.826,-5.913],[-37.897,-5.94],[-37.921,-5.96],[-37.934,-6.004],[-37.897,-6.008],[-37.861,-6.031],[-37.846,-6.057],[-37.789,-6.091],[-37.777,-6.068],[-37.783,-6.041],[-37.772,-6.002]]]}},{"type":"Feature","properties":{"code":"2406304"},"geometry":{"type":"Polygon","coordinates":[[[-35.436,-6.253],[-35.403,-6.21],[-35.381,-6.159],[-35.413,-6.132],[-35.444,-6.141],[-35.446,-6.154],[-35.5,-6.18],[-35.527,-6.201],[-35.55,-6.2],[-35.568,-6.206],[-35.468,-6.231],[-35.436,-6.253]]]}},{"type":"Feature","properties":{"code":"2413805"},"geometry":{"type":"Polygon","coordinates":[[[-38.121,-5.946],[-38.114,-5.959],[-38.087,-6.015],[-38.044,-6.008],[-38.026,-5.991],[-38.045,-5.936],[-38.009,-5.916],[-37.987,-5.886],[-37.951,-5.864],[-38.004,-5.857],[-38.06,-5.904],[-38.102,-5.923],[-38.121,-5.946]]]}},{"type":"Feature","properties":{"code":"2405603"},"geometry":{"type":"Polygon","coordinates":[[[-37.261,-6.404],[-37.219,-6.368],[-37.217,-6.245],[-37.193,-6.212],[-37.141,-6.181],[-37.157,-6.152],[-37.202,-6.206],[-37.234,-6.213],[-37.271,-6.252],[-37.273,-6.28],[-37.315,-6.278],[-37.334,-6.308],[-37.363,-6.322],[-37.389,-6.391],[-37.396,-6.42],[-37.381,-6.437],[-37.319,-6.455],[-37.261,-6.404]]]}},{"type":"Feature","properties":{"code":"2405702"},"geometry":{"type":"Polygon","coordinates":[[[-36.937,-6.578],[-36.91,-6.608],[-36.87,-6.631],[-36.817,-6.68],[-36.765,-6.669],[-36.722,-6.647],[-36.698,-6.62],[-36.669,-6.61],[-36.68,-6.579],[-36.703,-6.538],[-36.761,-6.516],[-36.836,-6.539],[-36.905,-6.517],[-36.951,-6.522],[-36.937,-6.578]]]}},{"type":"Feature","properties":{"code":"2405504"},"geometry":{"type":"Polygon","coordinates":[[[-35.934,-5.715],[-35.942,-5.669],[-35.911,-5.63],[-35.992,-5.464],[-36.062,-5.655],[-36.024,-5.698],[-35.971,-5.714],[-35.934,-5.715]]]}},{"type":"Feature","properties":{"code":"2413706"},"geometry":{"type":"Polygon","coordinates":[[[-36.032,-6.069],[-35.986,-6.098],[-35.987,-6.143],[-35.967,-6.172],[-35.918,-6.163],[-35.823,-6.074],[-35.822,-6.073],[-35.925,-6.011],[-36.032,-6.069]]]}},{"type":"Feature","properties":{"code":"2414100"},"geometry":{"type":"Polygon","coordinates":[[[-38.071,-6.464],[-38.09,-6.456],[-38.126,-6.367],[-38.165,-6.387],[-38.188,-6.362],[-38.203,-6.381],[-38.239,-6.386],[-38.253,-6.418],[-38.229,-6.483],[-38.192,-6.499],[-38.145,-6.494],[-38.12,-6.522],[-38.071,-6.464]]]}},{"type":"Feature","properties":{"code":"2405900"},"geometry":{"type":"Polygon","coordinates":[[[-37.777,-6.246],[-37.794,-6.256],[-37.85,-6.256],[-37.882,-6.273],[-37.908,-6.285],[-37.901,-6.318],[-37.843,-6.333],[-37.812,-6.293],[-37.765,-6.292],[-37.777,-6.246]]]}},{"type":"Feature","properties":{"code":"2413904"},"geometry":{"type":"Polygon","coordinates":[[[-35.552,-5.703],[-35.548,-5.688],[-35.494,-5.666],[-35.512,-5.65],[-35.521,-5.578],[-35.502,-5.492],[-35.538,-5.513],[-35.565,-5.494],[-35.626,-5.492],[-35.668,-5.496],[-35.658,-5.587],[-35.642,-5.629],[-35.632,-5.714],[-35.558,-5.721],[-35.552,-5.703]]]}},{"type":"Feature","properties":{"code":"2414001"},"geometry":{"type":"Polygon","coordinates":[[[-35.87,-6.363],[-35.85,-6.362],[-35.804,-6.319],[-35.783,-6.248],[-35.763,-6.202],[-35.741,-6.183],[-35.721,-6.173],[-35.732,-6.143],[-35.808,-6.14],[-35.821,-6.129],[-35.823,-6.074],[-35.918,-6.163],[-35.87,-6.363]]]}},{"type":"Feature","properties":{"code":"2405801"},"geometry":{"type":"Polygon","coordinates":[[[-35.747,-5.62],[-35.745,-5.458],[-35.764,-5.452],[-35.777,-5.443],[-35.814,-5.465],[-35.832,-5.306],[-35.975,-5.332],[-36.012,-5.399],[-36.0,-5.416],[-35.992,-5.464],[-35.911,-5.63],[-35.885,-5.632],[-35.855,-5.609],[-35.803,-5.62],[-35.764,-5.638],[-35.747,-5.62]]]}},{"type":"Feature","properties":{"code":"2413300"},"geometry":{"type":"Polygon","coordinates":[[[-35.765,-6.419],[-35.773,-6.483],[-35.707,-6.47],[-35.665,-6.45],[-35.67,-6.416],[-35.683,-6.358],[-35.765,-6.419]]]}},{"type":"Feature","properties":{"code":"2405108"},"geometry":{"type":"Polygon","coordinates":[[[-36.152,-5.257],[-36.276,-5.29],[-36.223,-5.434],[-36.16,-5.434],[-36.129,-5.457],[-36.063,-5.405],[-36.028,-5.445],[-35.992,-5.464],[-36.0,-5.416],[-36.012,-5.399],[-36.037,-5.301],[-36.051,-5.299],[-36.103,-5.287],[-36.152,-5.257]]]}},{"type":"Feature","properties":{"code":"2413359"},"geometry":{"type":"Polygon","coordinates":[[[-37.051,-5.294],[-36.928,-5.294],[-36.93,-5.131],[-36.975,-5.131],[-36.975,-5.104],[-36.953,-5.081],[-36.909,-5.081],[-36.908,-4.99],[-36.966,-4.986],[-36.966,-5.022],[-37.011,-5.022],[-37.028,-5.06],[-37.051,-5.06],[-37.051,-5.097],[-37.112,-5.097],[-37.111,-5.125],[-37.111,-5.167],[-37.157,-5.167],[-37.156,-5.294],[-37.126,-5.293],[-37.051,-5.294]]]}},{"type":"Feature","properties":{"code":"2413201"},"geometry":{"type":"Polygon","coordinates":[[[-35.098,-6.14],[-35.157,-6.148],[-35.111,-6.187],[-35.094,-6.183],[-35.098,-6.14]]]}},{"type":"Feature","properties":{"code":"2405009"},"geometry":{"type":"Polygon","coordinates":[[[-36.227,-6.434],[-36.175,-6.431],[-36.11,-6.429],[-36.096,-6.42],[-36.221,-6.403],[-36.296,-6.37],[-36.292,-6.396],[-36.251,-6.404],[-36.25,-6.437],[-36.227,-6.434]]]}},{"type":"Feature","properties":{"code":"2413557"},"geometry":{"type":"Polygon","coordinates":[[[-38.042,-6.169],[-38.022,-6.21],[-37.993,-6.21],[-37.947,-6.16],[-37.941,-6.099],[-37.981,-6.076],[-38.009,-6.096],[-38.044,-6.126],[-38.042,-6.169]]]}},{"type":"Feature","properties":{"code":"2413607"},"geometry":{"type":"Polygon","coordinates":[[[-38.014,-5.854],[-37.975,-5.816],[-37.91,-5.784],[-37.881,-5.697],[-38.059,-5.755],[-38.014,-5.854]]]}},{"type":"Feature","properties":{"code":"2405405"},"geometry":{"type":"Polygon","coordinates":[[[-35.87,-6.489],[-35.78,-6.483],[-35.839,-6.453],[-35.855,-6.434],[-35.843,-6.378],[-35.87,-6.363],[-35.907,-6.353],[-35.927,-6.373],[-35.965,-6.388],[-35.965,-6.471],[-35.965,-6.484],[-35.944,-6.493],[-35.87,-6.489]]]}},{"type":"Feature","properties":{"code":"2413409"},"geometry":{"type":"Polygon","coordinates":[[[-37.218,-6.62],[-37.231,-6.569],[-37.26,-6.524],[-37.319,-6.455],[-37.381,-6.437],[-37.391,-6.453],[-37.396,-6.51],[-37.421,-6.533],[-37.465,-6.533],[-37.48,-6.605],[-37.466,-6.66],[-37.485,-6.71],[-37.407,-6.697],[-37.343,-6.701],[-37.314,-6.689],[-37.302,-6.652],[-37.251,-6.647],[-37.218,-6.62]]]}},{"type":"Feature","properties":{"code":"2405207"},"geometry":{"type":"Polygon","coordinates":[[[-37.557,-6.016],[-37.515,-6.064],[-37.456,-6.097],[-37.426,-6.074],[-37.359,-6.006],[-37.401,-5.963],[-37.437,-5.985],[-37.447,-5.903],[-37.493,-5.894],[-37.534,-5.923],[-37.555,-5.959],[-37.593,-5.982],[-37.557,-6.016]]]}},{"type":"Feature","properties":{"code":"2413508"},"geometry":{"type":"Polygon","coordinates":[[[-35.643,-6.326],[-35.553,-6.285],[-35.503,-6.298],[-35.469,-6.274],[-35.468,-6.231],[-35.568,-6.206],[-35.622,-6.205],[-35.66,-6.222],[-35.666,-6.239],[-35.643,-6.326]]]}},{"type":"Feature","properties":{"code":"2405306"},"geometry":{"type":"Polygon","coordinates":[[[-35.741,-6.183],[-35.663,-6.198],[-35.66,-6.222],[-35.622,-6.205],[-35.568,-6.206],[-35.55,-6.2],[-35.535,-6.142],[-35.532,-6.092],[-35.545,-6.056],[-35.547,-6.054],[-35.558,-6.047],[-35.571,-6.08],[-35.589,-6.097],[-35.639,-6.138],[-35.654,-6.177],[-35.682,-6.168],[-35.721,-6.173],[-35.741,-6.183]]]}},{"type":"Feature","properties":{"code":"2404606"},"geometry":{"type":"Polygon","coordinates":[[[-35.529,-5.882],[-35.489,-5.831],[-35.472,-5.835],[-35.447,-5.733],[-35.458,-5.718],[-35.5,-5.717],[-35.552,-5.703],[-35.558,-5.721],[-35.632,-5.714],[-35.632,-5.714],[-35.656,-5.718],[-35.639,-5.79],[-35.594,-5.867],[-35.529,-5.882]]]}},{"type":"Feature","properties":{"code":"2412807"},"geometry":{"type":"Polygon","coordinates":[[[-36.894,-5.975],[-36.818,-5.913],[-36.774,-5.861],[-36.776,-5.802],[-36.79,-5.755],[-36.849,-5.724],[-36.894,-5.711],[-36.962,-5.753],[-36.98,-5.785],[-36.977,-5.814],[-36.959,-5.854],[-36.938,-5.871],[-36.973,-5.913],[-36.951,-5.93],[-36.937,-5.968],[-36.894,-5.975]]]}},{"type":"Feature","properties":{"code":"2412708"},"geometry":{"type":"Polygon","coordinates":[[[-35.683,-5.869],[-35.688,-5.919],[-35.668,-5.984],[-35.65,-5.976],[-35.572,-5.932],[-35.529,-5.882],[-35.594,-5.867],[-35.639,-5.79],[-35.668,-5.794],[-35.683,-5.869]]]}},{"type":"Feature","properties":{"code":"2404507"},"geometry":{"type":"Polygon","coordinates":[[[-36.368,-5.251],[-36.276,-5.29],[-36.276,-5.207],[-36.288,-5.125],[-36.308,-5.102],[-36.332,-5.087],[-36.372,-5.089],[-36.407,-5.081],[-36.431,-5.133],[-36.368,-5.251]]]}},{"type":"Feature","properties":{"code":"2404853"},"geometry":{"type":"Polygon","coordinates":[[[-36.894,-5.711],[-36.849,-5.724],[-36.79,-5.755],[-36.755,-5.759],[-36.745,-5.74],[-36.703,-5.701],[-36.732,-5.684],[-36.751,-5.647],[-36.816,-5.643],[-36.898,-5.604],[-36.883,-5.641],[-36.894,-5.711]]]}},{"type":"Feature","properties":{"code":"2413003"},"geometry":{"type":"Polygon","coordinates":[[[-36.704,-6.221],[-36.743,-6.308],[-36.716,-6.301],[-36.71,-6.278],[-36.663,-6.279],[-36.632,-6.269],[-36.605,-6.29],[-36.592,-6.248],[-36.599,-6.216],[-36.619,-6.192],[-36.628,-6.155],[-36.622,-6.132],[-36.639,-6.089],[-36.653,-6.112],[-36.701,-6.145],[-36.714,-6.205],[-36.704,-6.221]]]}},{"type":"Feature","properties":{"code":"2413102"},"geometry":{"type":"Polygon","coordinates":[[[-35.589,-6.097],[-35.571,-6.08],[-35.648,-6.016],[-35.65,-5.976],[-35.668,-5.984],[-35.709,-6.001],[-35.778,-6.016],[-35.799,-6.043],[-35.782,-6.041],[-35.691,-6.072],[-35.589,-6.097]]]}},{"type":"Feature","properties":{"code":"2404903"},"geometry":{"type":"Polygon","coordinates":[[[-38.014,-5.854],[-38.004,-5.857],[-37.951,-5.864],[-37.917,-5.853],[-37.913,-5.904],[-37.872,-5.879],[-37.88,-5.754],[-37.856,-5.747],[-37.881,-5.697],[-37.91,-5.784],[-37.975,-5.816],[-38.014,-5.854]]]}},{"type":"Feature","properties":{"code":"2412906"},"geometry":{"type":"Polygon","coordinates":[[[-36.032,-6.069],[-35.977,-6.014],[-35.977,-5.98],[-35.963,-5.964],[-35.967,-5.901],[-36.014,-5.835],[-36.065,-5.849],[-36.1,-5.83],[-36.112,-5.842],[-36.136,-5.864],[-36.159,-5.85],[-36.213,-5.874],[-36.224,-5.9],[-36.253,-5.982],[-36.281,-6.044],[-36.302,-6.115],[-36.296,-6.122],[-36.257,-6.158],[-36.226,-6.164],[-36.225,-6.143],[-36.174,-6.122],[-36.163,-6.106],[-36.121,-6.089],[-36.08,-6.102],[-36.032,-6.069]]]}},{"type":"Feature","properties":{"code":"2404705"},"geometry":{"type":"Polygon","coordinates":[[[-36.86,-5.442],[-36.87,-5.478],[-36.904,-5.53],[-36.883,-5.573],[-36.898,-5.604],[-36.816,-5.643],[-36.751,-5.647],[-36.771,-5.606],[-36.725,-5.574],[-36.699,-5.526],[-36.7,-5.464],[-36.86,-5.442]]]}},{"type":"Feature","properties":{"code":"2404804"},"geometry":{"type":"Polygon","coordinates":[[[-37.264,-6.732],[-37.269,-6.762],[-37.255,-6.811],[-37.235,-6.825],[-37.193,-6.826],[-37.152,-6.798],[-37.128,-6.766],[-37.075,-6.754],[-37.096,-6.724],[-37.158,-6.74],[-37.204,-6.762],[-37.264,-6.732]]]}},{"type":"Feature","properties":{"code":"2404101"},"geometry":{"type":"Polygon","coordinates":[[[-36.308,-5.102],[-36.288,-5.125],[-36.276,-5.207],[-36.276,-5.29],[-36.152,-5.257],[-36.099,-5.077],[-36.16,-5.096],[-36.242,-5.096],[-36.29,-5.088],[-36.308,-5.102]]]}},{"type":"Feature","properties":{"code":"2412302"},"geometry":{"type":"Polygon","coordinates":[[[-35.683,-6.358],[-35.671,-6.315],[-35.643,-6.326],[-35.666,-6.239],[-35.66,-6.222],[-35.663,-6.198],[-35.741,-6.183],[-35.763,-6.202],[-35.783,-6.248],[-35.804,-6.319],[-35.85,-6.362],[-35.87,-6.363],[-35.843,-6.378],[-35.773,-6.408],[-35.765,-6.419],[-35.683,-6.358]]]}},{"type":"Feature","properties":{"code":"2412104"},"geometry":{"type":"Polygon","coordinates":[[[-37.264,-6.732],[-37.204,-6.762],[-37.158,-6.74],[-37.096,-6.724],[-37.075,-6.754],[-37.035,-6.734],[-37.103,-6.685],[-37.109,-6.657],[-37.135,-6.65],[-37.15,-6.626],[-37.18,-6.614],[-37.218,-6.62],[-37.251,-6.647],[-37.302,-6.652],[-37.314,-6.689],[-37.264,-6.732]]]}},{"type":"Feature","properties":{"code":"2412203"},"geometry":{"type":"Polygon","coordinates":[[[-35.352,-6.182],[-35.339,-6.185],[-35.319,-6.191],[-35.286,-6.205],[-35.298,-6.161],[-35.22,-6.171],[-35.226,-6.162],[-35.228,-6.073],[-35.237,-6.068],[-35.229,-5.991],[-35.246,-5.954],[-35.296,-5.958],[-35.373,-5.987],[-35.382,-6.022],[-35.365,-6.056],[-35.323,-6.048],[-35.299,-6.072],[-35.326,-6.141],[-35.352,-6.182]]]}},{"type":"Feature","properties":{"code":"2404002"},"geometry":{"type":"Polygon","coordinates":[[[-37.889,-6.167],[-37.798,-6.217],[-37.801,-6.154],[-37.864,-6.104],[-37.859,-6.124],[-37.889,-6.167]]]}},{"type":"Feature","properties":{"code":"2412500"},"geometry":{"type":"Polygon","coordinates":[[[-38.52,-6.223],[-38.57,-6.293],[-38.542,-6.286],[-38.481,-6.304],[-38.481,-6.252],[-38.449,-6.222],[-38.418,-6.219],[-38.365,-6.173],[-38.349,-6.123],[-38.374,-6.167],[-38.409,-6.178],[-38.466,-6.121],[-38.475,-6.157],[-38.527,-6.193],[-38.52,-6.223]]]}},{"type":"Feature","properties":{"code":"2404309"},"geometry":{"type":"Polygon","coordinates":[[[-37.579,-5.572],[-37.493,-5.567],[-37.442,-5.587],[-37.382,-5.478],[-37.295,-5.478],[-37.302,-5.463],[-37.296,-5.391],[-37.426,-5.311],[-37.583,-5.278],[-37.788,-5.219],[-37.786,-5.224],[-37.786,-5.297],[-37.813,-5.317],[-37.643,-5.416],[-37.562,-5.492],[-37.579,-5.572]]]}},{"type":"Feature","properties":{"code":"2412609"},"geometry":{"type":"Polygon","coordinates":[[[-35.778,-6.016],[-35.709,-6.001],[-35.668,-5.984],[-35.688,-5.919],[-35.683,-5.869],[-35.704,-5.862],[-35.742,-5.872],[-35.797,-5.853],[-35.833,-5.909],[-35.85,-5.915],[-35.835,-5.947],[-35.778,-6.016]]]}},{"type":"Feature","properties":{"code":"2404408"},"geometry":{"type":"Polygon","coordinates":[[[-37.137,-5.005],[-37.147,-4.975],[-37.139,-4.948],[-37.158,-4.945],[-37.221,-4.881],[-37.269,-4.912],[-37.27,-4.946],[-37.308,-4.946],[-37.209,-4.992],[-37.177,-4.97],[-37.167,-5.015],[-37.137,-5.005]]]}},{"type":"Feature","properties":{"code":"2412559"},"geometry":{"type":"Polygon","coordinates":[[[-35.832,-5.306],[-35.762,-5.294],[-35.705,-5.294],[-35.683,-5.277],[-35.653,-5.225],[-35.63,-5.199],[-35.617,-5.114],[-35.639,-5.12],[-35.71,-5.103],[-35.791,-5.077],[-35.832,-5.21],[-35.84,-5.235],[-35.832,-5.306]]]}},{"type":"Feature","properties":{"code":"2412401"},"geometry":{"type":"Polygon","coordinates":[[[-36.951,-6.522],[-36.905,-6.517],[-36.836,-6.539],[-36.761,-6.516],[-36.774,-6.473],[-36.803,-6.464],[-36.82,-6.439],[-36.874,-6.419],[-36.958,-6.492],[-36.951,-6.522]]]}},{"type":"Feature","properties":{"code":"2404200"},"geometry":{"type":"Polygon","coordinates":[[[-35.272,-6.37],[-35.236,-6.349],[-35.199,-6.359],[-35.167,-6.354],[-35.167,-6.322],[-35.145,-6.299],[-35.155,-6.268],[-35.15,-6.218],[-35.202,-6.223],[-35.231,-6.242],[-35.286,-6.205],[-35.267,-6.324],[-35.272,-6.37]]]}},{"type":"Feature","properties":{"code":"2411809"},"geometry":{"type":"Polygon","coordinates":[[[-37.188,-6.439],[-37.14,-6.449],[-37.141,-6.428],[-37.102,-6.418],[-37.073,-6.393],[-37.082,-6.354],[-37.081,-6.291],[-37.046,-6.224],[-37.07,-6.237],[-37.097,-6.231],[-37.141,-6.181],[-37.193,-6.212],[-37.217,-6.245],[-37.219,-6.368],[-37.261,-6.404],[-37.221,-6.43],[-37.188,-6.439]]]}},{"type":"Feature","properties":{"code":"2403608"},"geometry":{"type":"Polygon","coordinates":[[[-35.266,-5.704],[-35.238,-5.714],[-35.204,-5.743],[-35.192,-5.701],[-35.218,-5.671],[-35.217,-5.631],[-35.227,-5.612],[-35.285,-5.624],[-35.361,-5.729],[-35.313,-5.738],[-35.266,-5.704]]]}},{"type":"Feature","properties":{"code":"2411601"},"geometry":{"type":"Polygon","coordinates":[[[-35.952,-5.237],[-35.908,-5.059],[-35.981,-5.042],[-36.038,-5.051],[-36.042,-5.109],[-36.061,-5.229],[-36.002,-5.256],[-35.952,-5.237]]]}},{"type":"Feature","properties":{"code":"2403400"},"geometry":{"type":"Polygon","coordinates":[[[-36.76,-6.915],[-36.767,-6.936],[-36.737,-6.973],[-36.709,-6.975],[-36.687,-6.926],[-36.655,-6.928],[-36.604,-6.931],[-36.568,-6.875],[-36.56,-6.841],[-36.575,-6.806],[-36.611,-6.8],[-36.634,-6.818],[-36.676,-6.817],[-36.693,-6.833],[-36.726,-6.817],[-36.73,-6.836],[-36.76,-6.915]]]}},{"type":"Feature","properties":{"code":"2411700"},"geometry":{"type":"Polygon","coordinates":[[[-35.965,-6.471],[-36.034,-6.299],[-36.071,-6.302],[-36.139,-6.33],[-36.096,-6.42],[-36.077,-6.406],[-36.037,-6.444],[-36.017,-6.452],[-36.005,-6.481],[-35.965,-6.484],[-35.965,-6.471]]]}},{"type":"Feature","properties":{"code":"2403509"},"geometry":{"type":"Polygon","coordinates":[[[-35.342,-6.315],[-35.339,-6.381],[-35.31,-6.403],[-35.271,-6.372],[-35.272,-6.37],[-35.267,-6.324],[-35.286,-6.205],[-35.319,-6.191],[-35.323,-6.271],[-35.342,-6.315]]]}},{"type":"Feature","properties":{"code":"2412005"},"geometry":{"type":"Polygon","coordinates":[[[-35.472,-5.835],[-35.432,-5.845],[-35.309,-5.836],[-35.282,-5.83],[-35.252,-5.798],[-35.252,-5.777],[-35.287,-5.763],[-35.291,-5.732],[-35.266,-5.704],[-35.313,-5.738],[-35.361,-5.729],[-35.413,-5.737],[-35.447,-5.733],[-35.472,-5.835]]]}},{"type":"Feature","properties":{"code":"2403806"},"geometry":{"type":"Polygon","coordinates":[[[-36.704,-6.221],[-36.785,-6.197],[-36.73,-6.15],[-36.732,-6.106],[-36.72,-6.095],[-36.731,-6.057],[-36.767,-6.056],[-36.793,-6.04],[-36.812,-6.053],[-36.855,-6.044],[-36.899,-6.086],[-36.934,-6.089],[-36.925,-6.132],[-36.894,-6.145],[-36.892,-6.177],[-36.957,-6.191],[-36.927,-6.216],[-36.924,-6.239],[-36.895,-6.239],[-36.838,-6.27],[-36.814,-6.304],[-36.773,-6.298],[-36.754,-6.321],[-36.743,-6.308],[-36.704,-6.221]]]}},{"type":"Feature","properties":{"code":"2403905"},"geometry":{"type":"Polygon","coordinates":[[[-38.009,-6.096],[-38.033,-6.06],[-38.087,-6.015],[-38.114,-5.959],[-38.144,-5.972],[-38.184,-6.018],[-38.189,-6.046],[-38.148,-6.096],[-38.103,-6.114],[-38.044,-6.126],[-38.009,-6.096]]]}},{"type":"Feature","properties":{"code":"2411908"},"geometry":{"type":"Polygon","coordinates":[[[-38.252,-6.01],[-38.215,-6.024],[-38.189,-6.046],[-38.184,-6.018],[-38.144,-5.972],[-38.114,-5.959],[-38.121,-5.946],[-38.163,-5.939],[-38.202,-5.962],[-38.252,-6.01]]]}},{"type":"Feature","properties":{"code":"2403707"},"geometry":{"type":"Polygon","coordinates":[[[-37.676,-5.635],[-37.579,-5.572],[-37.562,-5.492],[-37.643,-5.416],[-37.761,-5.578],[-37.676,-5.635]]]}},{"type":"Feature","properties":{"code":"2403756"},"geometry":{"type":"Polygon","coordinates":[[[-36.568,-5.758],[-36.55,-5.769],[-36.509,-5.756],[-36.389,-5.795],[-36.356,-5.849],[-36.285,-5.859],[-36.273,-5.709],[-36.306,-5.707],[-36.326,-5.721],[-36.362,-5.708],[-36.444,-5.699],[-36.524,-5.7],[-36.532,-5.691],[-36.568,-5.758]]]}},{"type":"Feature","properties":{"code":"2403103"},"geometry":{"type":"Polygon","coordinates":[[[-36.622,-6.132],[-36.628,-6.155],[-36.619,-6.192],[-36.599,-6.216],[-36.592,-6.248],[-36.605,-6.29],[-36.565,-6.312],[-36.551,-6.362],[-36.504,-6.386],[-36.5,-6.358],[-36.433,-6.363],[-36.395,-6.294],[-36.363,-6.31],[-36.344,-6.303],[-36.314,-6.283],[-36.295,-6.292],[-36.258,-6.243],[-36.257,-6.158],[-36.296,-6.122],[-36.343,-6.098],[-36.412,-6.104],[-36.46,-6.115],[-36.492,-6.137],[-36.509,-6.123],[-36.551,-6.141],[-36.606,-6.125],[-36.622,-6.132]]]}},{"type":"Feature","properties":{"code":"2411106"},"geometry":{"type":"Polygon","coordinates":[[[-35.967,-5.901],[-35.851,-5.913],[-35.925,-5.8],[-35.981,-5.804],[-36.014,-5.835],[-35.967,-5.901]]]}},{"type":"Feature","properties":{"code":"2402907"},"geometry":{"type":"Polygon","coordinates":[[[-38.481,-6.304],[-38.458,-6.33],[-38.409,-6.293],[-38.379,-6.263],[-38.358,-6.218],[-38.358,-6.201],[-38.365,-6.173],[-38.418,-6.219],[-38.449,-6.222],[-38.481,-6.252],[-38.481,-6.304]]]}},{"type":"Feature","properties":{"code":"2411205"},"geometry":{"type":"Polygon","coordinates":[[[-35.965,-6.471],[-35.965,-6.388],[-35.927,-6.373],[-35.907,-6.353],[-35.87,-6.363],[-35.918,-6.163],[-35.967,-6.172],[-35.987,-6.143],[-35.986,-6.098],[-36.032,-6.069],[-36.08,-6.102],[-36.078,-6.196],[-36.134,-6.211],[-36.154,-6.3],[-36.139,-6.33],[-36.071,-6.302],[-36.034,-6.299],[-35.965,-6.471]]]}},{"type":"Feature","properties":{"code":"2403004"},"geometry":{"type":"Polygon","coordinates":[[[-36.874,-6.419],[-36.82,-6.439],[-36.803,-6.464],[-36.774,-6.473],[-36.761,-6.479],[-36.742,-6.393],[-36.754,-6.321],[-36.773,-6.298],[-36.814,-6.304],[-36.838,-6.27],[-36.895,-6.239],[-36.91,-6.243],[-36.924,-6.294],[-36.886,-6.343],[-36.861,-6.389],[-36.874,-6.419]]]}},{"type":"Feature","properties":{"code":"2411502"},"geometry":{"type":"Polygon","coordinates":[[[-35.544,-6.417],[-35.518,-6.406],[-35.447,-6.406],[-35.409,-6.381],[-35.389,-6.323],[-35.425,-6.319],[-35.421,-6.273],[-35.436,-6.253],[-35.468,-6.231],[-35.469,-6.274],[-35.503,-6.298],[-35.553,-6.285],[-35.643,-6.326],[-35.615,-6.35],[-35.597,-6.386],[-35.555,-6.391],[-35.544,-6.417]]]}},{"type":"Feature","properties":{"code":"2403301"},"geometry":{"type":"Polygon","coordinates":[[[-38.249,-6.164],[-38.25,-6.136],[-38.267,-6.112],[-38.261,-6.075],[-38.275,-6.066],[-38.306,-6.087],[-38.34,-6.078],[-38.349,-6.123],[-38.365,-6.173],[-38.358,-6.201],[-38.311,-6.176],[-38.278,-6.181],[-38.249,-6.164]]]}},{"type":"Feature","properties":{"code":"2403202"},"geometry":{"type":"Polygon","coordinates":[[[-38.34,-6.078],[-38.368,-6.088],[-38.382,-6.053],[-38.405,-6.057],[-38.433,-6.078],[-38.466,-6.121],[-38.409,-6.178],[-38.374,-6.167],[-38.349,-6.123],[-38.34,-6.078]]]}},{"type":"Feature","properties":{"code":"2403251"},"geometry":{"type":"Polygon","coordinates":[[[-35.121,-5.982],[-35.153,-5.947],[-35.154,-5.898],[-35.176,-5.9],[-35.218,-5.869],[-35.254,-5.866],[-35.282,-5.85],[-35.296,-5.958],[-35.246,-5.954],[-35.212,-5.935],[-35.183,-5.938],[-35.121,-5.982]]]}},{"type":"Feature","properties":{"code":"2411429"},"geometry":{"type":"Polygon","coordinates":[[[-36.817,-6.68],[-36.843,-6.675],[-36.835,-6.731],[-36.773,-6.787],[-36.77,-6.839],[-36.73,-6.836],[-36.726,-6.817],[-36.731,-6.792],[-36.712,-6.753],[-36.707,-6.68],[-36.722,-6.647],[-36.765,-6.669],[-36.817,-6.68]]]}},{"type":"Feature","properties":{"code":"2411403"},"geometry":{"type":"Polygon","coordinates":[[[-36.653,-6.112],[-36.639,-6.089],[-36.547,-6.056],[-36.54,-5.99],[-36.475,-5.927],[-36.435,-5.911],[-36.415,-5.858],[-36.388,-5.852],[-36.368,-5.875],[-36.334,-5.89],[-36.321,-5.866],[-36.285,-5.859],[-36.356,-5.849],[-36.389,-5.795],[-36.509,-5.756],[-36.55,-5.769],[-36.568,-5.758],[-36.63,-5.759],[-36.658,-5.742],[-36.675,-5.706],[-36.703,-5.701],[-36.745,-5.74],[-36.755,-5.759],[-36.79,-5.755],[-36.776,-5.802],[-36.774,-5.861],[-36.818,-5.913],[-36.894,-5.975],[-36.859,-5.985],[-36.849,-6.01],[-36.855,-6.044],[-36.812,-6.053],[-36.793,-6.04],[-36.767,-6.056],[-36.731,-6.057],[-36.72,-6.095],[-36.653,-6.112]]]}},{"type":"Feature","properties":{"code":"2410702"},"geometry":{"type":"Polygon","coordinates":[[[-37.951,-5.864],[-37.987,-5.886],[-38.009,-5.916],[-38.045,-5.936],[-38.026,-5.991],[-37.983,-5.968],[-37.971,-5.957],[-37.921,-5.96],[-37.897,-5.94],[-37.913,-5.904],[-37.917,-5.853],[-37.951,-5.864]]]}},{"type":"Feature","properties":{"code":"2410801"},"geometry":{"type":"Polygon","coordinates":[[[-38.331,-6.329],[-38.333,-6.312],[-38.298,-6.278],[-38.248,-6.29],[-38.249,-6.249],[-38.272,-6.223],[-38.302,-6.241],[-38.358,-6.218],[-38.379,-6.263],[-38.409,-6.293],[-38.395,-6.345],[-38.331,-6.329]]]}},{"type":"Feature","properties":{"code":"2402600"},"geometry":{"type":"Polygon","coordinates":[[[-35.552,-5.703],[-35.5,-5.717],[-35.458,-5.718],[-35.447,-5.733],[-35.413,-5.737],[-35.361,-5.729],[-35.285,-5.624],[-35.227,-5.612],[-35.228,-5.575],[-35.245,-5.556],[-35.256,-5.517],[-35.297,-5.487],[-35.331,-5.489],[-35.357,-5.47],[-35.419,-5.458],[-35.502,-5.492],[-35.521,-5.578],[-35.512,-5.65],[-35.494,-5.666],[-35.548,-5.688],[-35.552,-5.703]]]}},{"type":"Feature","properties":{"code":"2410603"},"geometry":{"type":"Polygon","coordinates":[[[-37.672,-6.048],[-37.722,-6.041],[-37.741,-6.013],[-37.772,-6.002],[-37.783,-6.041],[-37.777,-6.068],[-37.742,-6.122],[-37.711,-6.131],[-37.688,-6.109],[-37.672,-6.048]]]}},{"type":"Feature","properties":{"code":"2402402"},"geometry":{"type":"Polygon","coordinates":[[[-36.438,-6.629],[-36.442,-6.565],[-36.479,-6.54],[-36.481,-6.521],[-36.526,-6.501],[-36.528,-6.479],[-36.581,-6.474],[-36.612,-6.499],[-36.68,-6.579],[-36.636,-6.592],[-36.587,-6.585],[-36.55,-6.608],[-36.521,-6.611],[-36.514,-6.594],[-36.438,-6.629]]]}},{"type":"Feature","properties":{"code":"2402501"},"geometry":{"type":"Polygon","coordinates":[[[-36.838,-5.392],[-36.811,-5.345],[-36.755,-5.273],[-36.726,-5.262],[-36.715,-5.215],[-36.729,-5.175],[-36.749,-5.152],[-36.797,-5.175],[-36.903,-5.15],[-36.93,-5.131],[-36.928,-5.294],[-37.051,-5.294],[-37.029,-5.326],[-36.928,-5.354],[-36.856,-5.401],[-36.838,-5.404],[-36.838,-5.392]]]}},{"type":"Feature","properties":{"code":"2411007"},"geometry":{"type":"Polygon","coordinates":[[[-38.159,-5.925],[-38.163,-5.939],[-38.121,-5.946],[-38.102,-5.923],[-38.06,-5.904],[-38.004,-5.857],[-38.014,-5.854],[-38.059,-5.755],[-38.119,-5.833],[-38.123,-5.882],[-38.159,-5.925]]]}},{"type":"Feature","properties":{"code":"2402808"},"geometry":{"type":"Polygon","coordinates":[[[-36.296,-6.37],[-36.221,-6.403],[-36.096,-6.42],[-36.096,-6.42],[-36.139,-6.33],[-36.154,-6.3],[-36.182,-6.298],[-36.279,-6.318],[-36.277,-6.34],[-36.296,-6.37]]]}},{"type":"Feature","properties":{"code":"2411056"},"geometry":{"type":"Polygon","coordinates":[[[-37.308,-4.946],[-37.27,-4.946],[-37.269,-4.912],[-37.221,-4.881],[-37.253,-4.831],[-37.357,-4.858],[-37.446,-4.881],[-37.427,-4.912],[-37.365,-4.907],[-37.345,-4.935],[-37.308,-4.946]]]}}]}