{"type":"FeatureCollection","features":[{"type":"Feature","properties":{"code":"2500304"},"geometry":{"type":"Polygon","coordinates":[[[-35.678,-7.146],[-35.628,-7.133],[-35.533,-7.121],[-35.494,-7.093],[-35.492,-7.072],[-35.514,-7.031],[-35.575,-6.96],[-35.593,-6.949],[-35.602,-6.969],[-35.648,-6.987],[-35.688,-7.03],[-35.68,-7.041],[-35.712,-7.089],[-35.706,-7.104],[-35.678,-7.146]]]}},{"type":"Feature","properties":{"code":"2508604"},"geometry":{"type":"Polygon","coordinates":[[[-34.869,-6.978],[-34.856,-6.961],[-34.866,-6.93],[-34.854,-6.904],[-34.899,-6.866],[-34.933,-6.89],[-35.002,-6.912],[-34.869,-6.978]]]}},{"type":"Feature","properties":{"code":"2516755"},"geometry":{"type":"Polygon","coordinates":[[[-36.676,-7.016],[-36.635,-7.02],[-36.594,-6.976],[-36.596,-6.938],[-36.556,-6.894],[-36.568,-6.875],[-36.604,-6.931],[-36.655,-6.928],[-36.668,-6.973],[-36.701,-7.008],[-36.676,-7.016]]]}},{"type":"Feature","properties":{"code":"2500403"},"geometry":{"type":"Polygon","coordinates":[[[-35.712,-7.089],[-35.68,-7.041],[-35.688,-7.03],[-35.734,-7.021],[-35.78,-7.026],[-35.838,-7.025],[-35.855,-7.051],[-35.826,-7.07],[-35.813,-7.102],[-35.737,-7.105],[-35.712,-7.089]]]}},{"type":"Feature","properties":{"code":"2516607"},"geometry":{"type":"Polygon","coordinates":[[[-37.903,-7.698],[-37.857,-7.652],[-37.81,-7.644],[-37.786,-7.626],[-37.767,-7.657],[-37.753,-7.626],[-37.8,-7.615],[-37.864,-7.563],[-37.897,-7.563],[-37.899,-7.536],[-37.92,-7.475],[-37.956,-7.499],[-37.981,-7.526],[-37.984,-7.54],[-37.93,-7.571],[-37.958,-7.593],[-37.958,-7.637],[-37.935,-7.673],[-37.903,-7.698]]]}},{"type":"Feature","properties":{"code":"2508554"},"geometry":{"type":"Polygon","coordinates":[[[-35.454,-6.612],[-35.43,-6.618],[-35.405,-6.526],[-35.408,-6.49],[-35.442,-6.487],[-35.426,-6.513],[-35.454,-6.612]]]}},{"type":"Feature","properties":{"code":"2508406"},"geometry":{"type":"Polygon","coordinates":[[[-38.127,-6.597],[-38.154,-6.574],[-38.153,-6.556],[-38.12,-6.522],[-38.145,-6.494],[-38.192,-6.499],[-38.229,-6.483],[-38.197,-6.551],[-38.256,-6.608],[-38.183,-6.599],[-38.164,-6.622],[-38.127,-6.597]]]}},{"type":"Feature","properties":{"code":"2500205"},"geometry":{"type":"Polygon","coordinates":[[[-38.295,-7.154],[-38.278,-7.178],[-38.172,-7.161],[-38.225,-7.155],[-38.232,-7.132],[-38.177,-7.109],[-38.146,-7.089],[-38.075,-7.083],[-38.058,-7.089],[-38.089,-7.012],[-38.201,-7.01],[-38.264,-6.992],[-38.29,-7.021],[-38.323,-7.062],[-38.32,-7.098],[-38.343,-7.105],[-38.33,-7.142],[-38.305,-7.128],[-38.295,-7.154]]]}},{"type":"Feature","properties":{"code":"2508802"},"geometry":{"type":"Polygon","coordinates":[[[-37.482,-6.916],[-37.497,-6.9],[-37.5,-6.862],[-37.527,-6.821],[-37.505,-6.814],[-37.505,-6.781],[-37.523,-6.769],[-37.554,-6.775],[-37.554,-6.801],[-37.576,-6.812],[-37.582,-6.874],[-37.572,-6.921],[-37.54,-6.947],[-37.545,-6.969],[-37.52,-7.002],[-37.522,-6.973],[-37.454,-6.961],[-37.482,-6.916]]]}},{"type":"Feature","properties":{"code":"2500601"},"geometry":{"type":"Polygon","coordinates":[[[-34.851,-7.44],[-34.881,-7.417],[-34.911,-7.411],[-34.857,-7.343],[-34.919,-7.303],[-34.943,-7.249],[-34.965,-7.283],[-34.999,-7.268],[-35.044,-7.279],[-34.956,-7.35],[-34.967,-7.367],[-34.955,-7.406],[-34.917,-7.443],[-34.886,-7.46],[-34.851,-7.44]]]}},{"type":"Feature","properties":{"code":"2500577"},"geometry":{"type":"Polygon","coordinates":[[[-36.111,-6.932],[-36.077,-6.971],[-36.027,-6.975],[-36.012,-6.946],[-35.953,-6.912],[-35.937,-6.889],[-35.906,-6.889],[-35.87,-6.86],[-35.846,-6.857],[-35.807,-6.874],[-35.803,-6.866],[-35.81,-6.864],[-35.828,-6.858],[-35.888,-6.795],[-35.898,-6.794],[-35.972,-6.856],[-36.035,-6.879],[-36.111,-6.932]]]}},{"type":"Feature","properties":{"code":"2517001"},"geometry":{"type":"Polygon","coordinates":[[[-35.825,-7.75],[-35.79,-7.74],[-35.736,-7.71],[-35.695,-7.694],[-35.68,-7.704],[-35.632,-7.681],[-35.62,-7.662],[-35.657,-7.617],[-35.679,-7.639],[-35.711,-7.642],[-35.757,-7.651],[-35.764,-7.638],[-35.814,-7.662],[-35.833,-7.661],[-35.828,-7.699],[-35.837,-7.721],[-35.825,-7.75]]]}},{"type":"Feature","properties":{"code":"2516904"},"geometry":{"type":"Polygon","coordinates":[[[-38.342,-6.586],[-38.298,-6.563],[-38.312,-6.527],[-38.289,-6.506],[-38.344,-6.457],[-38.373,-6.456],[-38.385,-6.422],[-38.402,-6.41],[-38.448,-6.403],[-38.463,-6.414],[-38.449,-6.444],[-38.451,-6.499],[-38.467,-6.53],[-38.502,-6.529],[-38.494,-6.57],[-38.438,-6.575],[-38.398,-6.599],[-38.372,-6.572],[-38.342,-6.586]]]}},{"type":"Feature","properties":{"code":"2500536"},"geometry":{"type":"Polygon","coordinates":[[[-36.127,-7.784],[-36.069,-7.781],[-36.022,-7.81],[-35.956,-7.653],[-35.996,-7.59],[-36.051,-7.592],[-36.072,-7.604],[-36.127,-7.638],[-36.13,-7.67],[-36.104,-7.718],[-36.127,-7.771],[-36.127,-7.784]]]}},{"type":"Feature","properties":{"code":"2508703"},"geometry":{"type":"Polygon","coordinates":[[[-37.397,-7.308],[-37.38,-7.295],[-37.401,-7.259],[-37.334,-7.228],[-37.334,-7.217],[-37.359,-7.203],[-37.387,-7.166],[-37.427,-7.163],[-37.429,-7.182],[-37.474,-7.199],[-37.494,-7.227],[-37.541,-7.29],[-37.57,-7.316],[-37.516,-7.318],[-37.456,-7.312],[-37.434,-7.324],[-37.419,-7.302],[-37.397,-7.308]]]}},{"type":"Feature","properties":{"code":"2500502"},"geometry":{"type":"Polygon","coordinates":[[[-35.514,-7.031],[-35.459,-6.963],[-35.471,-6.924],[-35.531,-6.923],[-35.565,-6.909],[-35.584,-6.922],[-35.593,-6.949],[-35.575,-6.96],[-35.514,-7.031]]]}},{"type":"Feature","properties":{"code":"2516201"},"geometry":{"type":"Polygon","coordinates":[[[-38.153,-6.895],[-38.12,-6.85],[-38.143,-6.782],[-38.138,-6.755],[-38.099,-6.725],[-38.09,-6.694],[-38.104,-6.645],[-38.107,-6.604],[-38.127,-6.597],[-38.164,-6.622],[-38.183,-6.599],[-38.256,-6.608],[-38.288,-6.641],[-38.315,-6.613],[-38.349,-6.615],[-38.344,-6.657],[-38.357,-6.685],[-38.345,-6.736],[-38.354,-6.772],[-38.29,-6.767],[-38.318,-6.828],[-38.325,-6.875],[-38.312,-6.9],[-38.276,-6.911],[-38.256,-6.905],[-38.264,-6.885],[-38.166,-6.872],[-38.153,-6.895]]]}},{"type":"Feature","properties":{"code":"2508000"},"geometry":{"type":"Polygon","coordinates":[[[-37.746,-7.609],[-37.735,-7.597],[-37.751,-7.557],[-37.73,-7.542],[-37.701,-7.461],[-37.726,-7.439],[-37.725,-7.387],[-37.841,-7.417],[-37.852,-7.433],[-37.92,-7.475],[-37.899,-7.536],[-37.897,-7.563],[-37.864,-7.563],[-37.8,-7.615],[-37.753,-7.626],[-37.746,-7.609]]]}},{"type":"Feature","properties":{"code":"2516102"},"geometry":{"type":"Polygon","coordinates":[[[-36.224,-7.198],[-36.219,-7.162],[-36.233,-7.105],[-36.282,-7.091],[-36.342,-6.952],[-36.376,-6.974],[-36.477,-6.994],[-36.49,-7.035],[-36.474,-7.129],[-36.488,-7.166],[-36.485,-7.189],[-36.419,-7.2],[-36.396,-7.223],[-36.326,-7.189],[-36.224,-7.198]]]}},{"type":"Feature","properties":{"code":"2507903"},"geometry":{"type":"Polygon","coordinates":[[[-35.28,-7.388],[-35.249,-7.375],[-35.191,-7.398],[-35.154,-7.393],[-35.15,-7.372],[-35.181,-7.352],[-35.194,-7.311],[-35.219,-7.3],[-35.271,-7.364],[-35.28,-7.388]]]}},{"type":"Feature","properties":{"code":"2516151"},"geometry":{"type":"Polygon","coordinates":[[[-36.261,-6.837],[-36.106,-6.669],[-36.136,-6.68],[-36.175,-6.678],[-36.242,-6.642],[-36.25,-6.685],[-36.259,-6.81],[-36.261,-6.837]]]}},{"type":"Feature","properties":{"code":"2516508"},"geometry":{"type":"Polygon","coordinates":[[[-37.015,-7.249],[-36.962,-7.286],[-36.856,-7.322],[-36.798,-7.331],[-36.767,-7.306],[-36.747,-7.305],[-36.73,-7.262],[-36.707,-7.27],[-36.673,-7.232],[-36.656,-7.187],[-36.66,-7.129],[-36.69,-7.125],[-36.714,-7.139],[-36.779,-7.109],[-36.803,-7.144],[-36.818,-7.14],[-36.881,-7.16],[-36.931,-7.15],[-36.934,-7.173],[-37.02,-7.191],[-37.015,-7.249]]]}},{"type":"Feature","properties":{"code":"2508307"},"geometry":{"type":"Polygon","coordinates":[[[-35.835,-7.196],[-35.825,-7.174],[-35.786,-7.151],[-35.786,-7.136],[-35.828,-7.125],[-35.868,-7.111],[-35.895,-7.086],[-35.931,-7.107],[-35.934,-7.134],[-35.907,-7.18],[-35.885,-7.171],[-35.86,-7.207],[-35.835,-7.196]]]}},{"type":"Feature","properties":{"code":"2500106"},"geometry":{"type":"Polygon","coordinates":[[[-37.725,-7.387],[-37.726,-7.439],[-37.701,-7.461],[-37.73,-7.542],[-37.751,-7.557],[-37.735,-7.597],[-37.656,-7.523],[-37.62,-7.526],[-37.61,-7.508],[-37.572,-7.489],[-37.569,-7.455],[-37.596,-7.417],[-37.64,-7.412],[-37.671,-7.377],[-37.721,-7.383],[-37.725,-7.387]]]}},{"type":"Feature","properties":{"code":"2516300"},"geometry":{"type":"Polygon","coordinates":[[[-36.765,-7.728],[-36.796,-7.674],[-36.804,-7.642],[-36.826,-7.604],[-36.843,-7.596],[-36.833,-7.548],[-36.878,-7.539],[-36.978,-7.454],[-36.985,-7.476],[-37.025,-7.497],[-36.978,-7.543],[-37.002,-7.568],[-36.998,-7.625],[-37.077,-7.599],[-37.063,-7.616],[-37.004,-7.655],[-37.026,-7.717],[-37.014,-7.749],[-36.961,-7.831],[-36.818,-7.821],[-36.783,-7.827],[-36.727,-7.776],[-36.765,-7.728]]]}},{"type":"Feature","properties":{"code":"2508109"},"geometry":{"type":"Polygon","coordinates":[[[-37.803,-6.595],[-37.831,-6.592],[-37.828,-6.559],[-37.864,-6.545],[-37.902,-6.542],[-37.941,-6.525],[-37.981,-6.53],[-37.963,-6.57],[-37.969,-6.613],[-37.943,-6.626],[-37.901,-6.618],[-37.861,-6.638],[-37.783,-6.642],[-37.788,-6.598],[-37.803,-6.595]]]}},{"type":"Feature","properties":{"code":"2516409"},"geometry":{"type":"Polygon","coordinates":[[[-35.511,-6.648],[-35.489,-6.621],[-35.454,-6.612],[-35.426,-6.513],[-35.442,-6.487],[-35.512,-6.477],[-35.565,-6.492],[-35.581,-6.484],[-35.604,-6.459],[-35.637,-6.454],[-35.653,-6.492],[-35.584,-6.522],[-35.557,-6.546],[-35.565,-6.566],[-35.54,-6.596],[-35.525,-6.608],[-35.526,-6.645],[-35.511,-6.648]]]}},{"type":"Feature","properties":{"code":"2508208"},"geometry":{"type":"Polygon","coordinates":[[[-35.349,-6.75],[-35.32,-6.709],[-35.32,-6.671],[-35.34,-6.649],[-35.329,-6.622],[-35.36,-6.632],[-35.414,-6.676],[-35.4,-6.71],[-35.378,-6.719],[-35.349,-6.75]]]}},{"type":"Feature","properties":{"code":"2515708"},"geometry":{"type":"Polygon","coordinates":[[[-38.406,-7.206],[-38.404,-7.25],[-38.42,-7.266],[-38.423,-7.312],[-38.352,-7.233],[-38.331,-7.178],[-38.315,-7.164],[-38.408,-7.202],[-38.406,-7.206]]]}},{"type":"Feature","properties":{"code":"2507507"},"geometry":{"type":"Polygon","coordinates":[[[-34.806,-7.245],[-34.793,-7.155],[-34.822,-7.13],[-34.83,-7.073],[-34.842,-7.056],[-34.863,-7.061],[-34.891,-7.094],[-34.894,-7.122],[-34.919,-7.135],[-34.936,-7.167],[-34.971,-7.174],[-34.969,-7.215],[-34.929,-7.226],[-34.89,-7.214],[-34.842,-7.237],[-34.806,-7.245]]]}},{"type":"Feature","properties":{"code":"2515609"},"geometry":{"type":"Polygon","coordinates":[[[-35.422,-6.668],[-35.447,-6.676],[-35.498,-6.732],[-35.474,-6.74],[-35.434,-6.708],[-35.414,-6.676],[-35.422,-6.668]]]}},{"type":"Feature","properties":{"code":"2515971"},"geometry":{"type":"Polygon","coordinates":[[[-35.261,-7.138],[-35.258,-7.164],[-35.281,-7.188],[-35.332,-7.175],[-35.333,-7.179],[-35.304,-7.216],[-35.233,-7.205],[-35.187,-7.178],[-35.228,-7.161],[-35.239,-7.131],[-35.261,-7.138]]]}},{"type":"Feature","properties":{"code":"2507408"},"geometry":{"type":"Polygon","coordinates":[[[-37.803,-6.595],[-37.8,-6.574],[-37.765,-6.555],[-37.742,-6.487],[-37.733,-6.487],[-37.748,-6.463],[-37.794,-6.463],[-37.816,-6.448],[-37.843,-6.44],[-37.864,-6.45],[-37.902,-6.542],[-37.864,-6.545],[-37.828,-6.559],[-37.831,-6.592],[-37.803,-6.595]]]}},{"type":"Feature","properties":{"code":"2515930"},"geometry":{"type":"Polygon","coordinates":[[[-35.443,-6.753],[-35.409,-6.766],[-35.374,-6.757],[-35.412,-6.733],[-35.434,-6.708],[-35.474,-6.74],[-35.443,-6.753]]]}},{"type":"Feature","properties":{"code":"2516003"},"geometry":{"type":"Polygon","coordinates":[[[-35.691,-6.818],[-35.642,-6.801],[-35.644,-6.775],[-35.676,-6.728],[-35.687,-6.682],[-35.684,-6.66],[-35.714,-6.66],[-35.742,-6.677],[-35.78,-6.691],[-35.789,-6.75],[-35.808,-6.767],[-35.783,-6.825],[-35.74,-6.815],[-35.691,-6.818]]]}},{"type":"Feature","properties":{"code":"2507804"},"geometry":{"type":"Polygon","coordinates":[[[-36.775,-6.915],[-36.875,-7.021],[-36.865,-7.063],[-36.797,-7.039],[-36.765,-7.042],[-36.744,-7.029],[-36.726,-7.007],[-36.701,-7.008],[-36.668,-6.973],[-36.655,-6.928],[-36.687,-6.926],[-36.709,-6.975],[-36.737,-6.973],[-36.767,-6.936],[-36.76,-6.915],[-36.775,-6.915]]]}},{"type":"Feature","properties":{"code":"2515807"},"geometry":{"type":"Polygon","coordinates":[[[-35.671,-7.209],[-35.658,-7.19],[-35.605,-7.169],[-35.628,-7.133],[-35.678,-7.146],[-35.712,-7.17],[-35.699,-7.219],[-35.671,-7.209]]]}},{"type":"Feature","properties":{"code":"2507606"},"geometry":{"type":"Polygon","coordinates":[[[-35.628,-7.133],[-35.605,-7.169],[-35.595,-7.202],[-35.567,-7.188],[-35.543,-7.201],[-35.515,-7.204],[-35.54,-7.155],[-35.533,-7.121],[-35.628,-7.133]]]}},{"type":"Feature","properties":{"code":"2515906"},"geometry":{"type":"Polygon","coordinates":[[[-35.657,-6.868],[-35.588,-6.839],[-35.576,-6.823],[-35.575,-6.807],[-35.607,-6.812],[-35.642,-6.801],[-35.691,-6.818],[-35.71,-6.837],[-35.693,-6.86],[-35.657,-6.868]]]}},{"type":"Feature","properties":{"code":"2507705"},"geometry":{"type":"Polygon","coordinates":[[[-36.563,-7.182],[-36.485,-7.189],[-36.488,-7.166],[-36.474,-7.129],[-36.49,-7.035],[-36.477,-6.994],[-36.472,-6.949],[-36.556,-6.894],[-36.596,-6.938],[-36.594,-6.976],[-36.635,-7.02],[-36.676,-7.016],[-36.656,-7.05],[-36.668,-7.079],[-36.66,-7.129],[-36.613,-7.13],[-36.592,-7.173],[-36.563,-7.182]]]}},{"type":"Feature","properties":{"code":"2515203"},"geometry":{"type":"Polygon","coordinates":[[[-36.955,-8.299],[-36.968,-8.267],[-36.956,-8.249],[-36.964,-8.181],[-36.939,-8.163],[-36.935,-8.134],[-36.899,-8.09],[-36.879,-8.017],[-36.929,-8.037],[-36.965,-8.06],[-37.038,-8.044],[-37.028,-8.1],[-37.076,-8.102],[-37.106,-8.127],[-37.144,-8.125],[-37.16,-8.17],[-37.127,-8.174],[-37.123,-8.209],[-37.082,-8.262],[-37.04,-8.266],[-37.021,-8.29],[-36.991,-8.303],[-36.955,-8.299]]]}},{"type":"Feature","properties":{"code":"2507002"},"geometry":{"type":"Polygon","coordinates":[[[-38.053,-7.318],[-38.086,-7.295],[-38.091,-7.235],[-38.156,-7.222],[-38.158,-7.19],[-38.172,-7.161],[-38.278,-7.178],[-38.266,-7.235],[-38.277,-7.263],[-38.248,-7.271],[-38.27,-7.3],[-38.323,-7.33],[-38.253,-7.393],[-38.24,-7.365],[-38.203,-7.377],[-38.174,-7.369],[-38.141,-7.397],[-38.07,-7.357],[-38.053,-7.318]]]}},{"type":"Feature","properties":{"code":"2515104"},"geometry":{"type":"Polygon","coordinates":[[[-35.828,-7.125],[-35.813,-7.102],[-35.826,-7.07],[-35.855,-7.051],[-35.885,-7.055],[-35.897,-7.08],[-35.898,-7.08],[-35.895,-7.086],[-35.868,-7.111],[-35.828,-7.125]]]}},{"type":"Feature","properties":{"code":"2506905"},"geometry":{"type":"Polygon","coordinates":[[[-35.333,-7.415],[-35.28,-7.388],[-35.271,-7.364],[-35.291,-7.321],[-35.321,-7.293],[-35.379,-7.252],[-35.422,-7.273],[-35.401,-7.317],[-35.432,-7.318],[-35.405,-7.332],[-35.417,-7.369],[-35.405,-7.408],[-35.363,-7.443],[-35.343,-7.422],[-35.333,-7.415]]]}},{"type":"Feature","properties":{"code":"2515401"},"geometry":{"type":"Polygon","coordinates":[[[-36.329,-6.935],[-36.361,-6.912],[-36.405,-6.856],[-36.415,-6.849],[-36.504,-6.85],[-36.544,-6.842],[-36.56,-6.841],[-36.568,-6.875],[-36.556,-6.894],[-36.472,-6.949],[-36.477,-6.994],[-36.376,-6.974],[-36.342,-6.952],[-36.329,-6.935]]]}},{"type":"Feature","properties":{"code":"2515500"},"geometry":{"type":"Polygon","coordinates":[[[-36.657,-7.686],[-36.7,-7.677],[-36.716,-7.591],[-36.599,-7.584],[-36.53,-7.528],[-36.63,-7.393],[-36.674,-7.383],[-36.726,-7.406],[-36.74,-7.437],[-36.85,-7.499],[-36.878,-7.539],[-36.833,-7.548],[-36.843,-7.596],[-36.826,-7.604],[-36.804,-7.642],[-36.796,-7.674],[-36.765,-7.728],[-36.725,-7.701],[-36.657,-7.686]]]}},{"type":"Feature","properties":{"code":"2507309"},"geometry":{"type":"Polygon","coordinates":[[[-35.228,-6.689],[-35.177,-6.662],[-35.14,-6.656],[-35.202,-6.598],[-35.194,-6.55],[-35.224,-6.522],[-35.275,-6.544],[-35.341,-6.539],[-35.364,-6.512],[-35.396,-6.563],[-35.392,-6.591],[-35.326,-6.603],[-35.329,-6.622],[-35.275,-6.63],[-35.246,-6.661],[-35.243,-6.696],[-35.228,-6.689]]]}},{"type":"Feature","properties":{"code":"2515302"},"geometry":{"type":"Polygon","coordinates":[[[-35.187,-7.178],[-35.152,-7.152],[-35.118,-7.07],[-35.158,-7.027],[-35.13,-7.009],[-35.145,-6.975],[-35.134,-6.943],[-35.177,-6.952],[-35.205,-6.941],[-35.264,-6.956],[-35.255,-6.978],[-35.255,-7.068],[-35.289,-7.109],[-35.261,-7.138],[-35.239,-7.131],[-35.228,-7.161],[-35.187,-7.178]]]}},{"type":"Feature","properties":{"code":"2507101"},"geometry":{"type":"Polygon","coordinates":[[[-35.349,-6.775],[-35.316,-6.789],[-35.325,-6.825],[-35.297,-6.852],[-35.266,-6.848],[-35.231,-6.87],[-35.163,-6.851],[-35.231,-6.761],[-35.287,-6.752],[-35.349,-6.775]]]}},{"type":"Feature","properties":{"code":"2507200"},"geometry":{"type":"Polygon","coordinates":[[[-35.537,-7.386],[-35.619,-7.333],[-35.641,-7.342],[-35.703,-7.337],[-35.756,-7.472],[-35.724,-7.466],[-35.687,-7.477],[-35.674,-7.46],[-35.584,-7.451],[-35.546,-7.434],[-35.534,-7.394],[-35.537,-7.386]]]}},{"type":"Feature","properties":{"code":"2514651"},"geometry":{"type":"Polygon","coordinates":[[[-37.234,-6.213],[-37.271,-6.186],[-37.302,-6.189],[-37.335,-6.17],[-37.377,-6.176],[-37.428,-6.197],[-37.485,-6.242],[-37.47,-6.271],[-37.44,-6.29],[-37.371,-6.282],[-37.334,-6.308],[-37.315,-6.278],[-37.273,-6.28],[-37.271,-6.252],[-37.234,-6.213]]]}},{"type":"Feature","properties":{"code":"2514701"},"geometry":{"type":"Polygon","coordinates":[[[-36.91,-6.757],[-36.901,-6.818],[-36.864,-6.84],[-36.865,-6.857],[-36.831,-6.885],[-36.797,-6.885],[-36.775,-6.915],[-36.76,-6.915],[-36.73,-6.836],[-36.77,-6.839],[-36.773,-6.787],[-36.835,-6.731],[-36.91,-6.757]]]}},{"type":"Feature","properties":{"code":"2506509"},"geometry":{"type":"Polygon","coordinates":[[[-36.556,-7.321],[-36.576,-7.324],[-36.601,-7.352],[-36.529,-7.349],[-36.529,-7.338],[-36.473,-7.315],[-36.381,-7.298],[-36.349,-7.313],[-36.331,-7.308],[-36.326,-7.189],[-36.396,-7.223],[-36.419,-7.2],[-36.485,-7.189],[-36.563,-7.182],[-36.551,-7.188],[-36.548,-7.234],[-36.568,-7.246],[-36.556,-7.321]]]}},{"type":"Feature","properties":{"code":"2514552"},"geometry":{"type":"Polygon","coordinates":[[[-38.12,-7.819],[-38.077,-7.831],[-38.069,-7.772],[-38.08,-7.732],[-38.061,-7.693],[-38.057,-7.652],[-38.084,-7.642],[-38.082,-7.589],[-38.104,-7.571],[-38.129,-7.604],[-38.134,-7.628],[-38.108,-7.661],[-38.131,-7.735],[-38.114,-7.747],[-38.131,-7.796],[-38.12,-7.819]]]}},{"type":"Feature","properties":{"code":"2514503"},"geometry":{"type":"Polygon","coordinates":[[[-38.408,-7.202],[-38.315,-7.164],[-38.295,-7.154],[-38.305,-7.128],[-38.33,-7.142],[-38.343,-7.105],[-38.368,-7.046],[-38.36,-6.99],[-38.387,-6.988],[-38.502,-6.992],[-38.553,-7.033],[-38.58,-7.035],[-38.593,-7.057],[-38.666,-7.037],[-38.67,-7.048],[-38.677,-7.067],[-38.656,-7.092],[-38.678,-7.133],[-38.682,-7.187],[-38.644,-7.184],[-38.572,-7.183],[-38.539,-7.167],[-38.518,-7.183],[-38.457,-7.184],[-38.44,-7.199],[-38.408,-7.202]]]}},{"type":"Feature","properties":{"code":"2514602"},"geometry":{"type":"Polygon","coordinates":[[[-37.334,-7.217],[-37.309,-7.197],[-37.248,-7.199],[-37.235,-7.137],[-37.245,-7.11],[-37.287,-7.077],[-37.313,-7.086],[-37.337,-7.14],[-37.389,-7.148],[-37.387,-7.166],[-37.359,-7.203],[-37.334,-7.217]]]}},{"type":"Feature","properties":{"code":"2506400"},"geometry":{"type":"Polygon","coordinates":[[[-35.349,-7.195],[-35.357,-7.158],[-35.348,-7.122],[-35.377,-7.033],[-35.452,-7.074],[-35.492,-7.072],[-35.494,-7.093],[-35.533,-7.121],[-35.54,-7.155],[-35.515,-7.204],[-35.492,-7.206],[-35.484,-7.235],[-35.448,-7.257],[-35.419,-7.239],[-35.374,-7.239],[-35.383,-7.21],[-35.349,-7.195]]]}},{"type":"Feature","properties":{"code":"2514909"},"geometry":{"type":"Polygon","coordinates":[[[-36.943,-7.041],[-36.936,-7.011],[-36.941,-6.961],[-36.963,-6.934],[-36.987,-6.935],[-37.035,-6.904],[-37.01,-6.871],[-37.057,-6.844],[-37.084,-6.815],[-37.133,-6.793],[-37.152,-6.798],[-37.193,-6.826],[-37.235,-6.825],[-37.222,-6.842],[-37.212,-6.905],[-37.178,-6.924],[-37.173,-6.983],[-37.103,-7.023],[-37.075,-7.014],[-37.059,-7.04],[-37.007,-7.052],[-36.979,-7.058],[-36.943,-7.041]]]}},{"type":"Feature","properties":{"code":"2506707"},"geometry":{"type":"Polygon","coordinates":[[[-37.721,-7.383],[-37.671,-7.377],[-37.64,-7.412],[-37.596,-7.417],[-37.569,-7.455],[-37.572,-7.489],[-37.528,-7.465],[-37.522,-7.439],[-37.488,-7.389],[-37.496,-7.365],[-37.432,-7.357],[-37.386,-7.357],[-37.397,-7.308],[-37.419,-7.302],[-37.434,-7.324],[-37.456,-7.312],[-37.516,-7.318],[-37.57,-7.316],[-37.587,-7.333],[-37.669,-7.321],[-37.7,-7.338],[-37.721,-7.383]]]}},{"type":"Feature","properties":{"code":"2515005"},"geometry":{"type":"Polygon","coordinates":[[[-35.194,-7.311],[-35.172,-7.278],[-35.169,-7.252],[-35.148,-7.205],[-35.187,-7.178],[-35.233,-7.205],[-35.242,-7.241],[-35.219,-7.3],[-35.194,-7.311]]]}},{"type":"Feature","properties":{"code":"2506806"},"geometry":{"type":"Polygon","coordinates":[[[-35.735,-7.324],[-35.703,-7.337],[-35.641,-7.342],[-35.619,-7.333],[-35.537,-7.386],[-35.561,-7.302],[-35.54,-7.237],[-35.543,-7.201],[-35.567,-7.188],[-35.595,-7.202],[-35.605,-7.169],[-35.658,-7.19],[-35.671,-7.209],[-35.627,-7.226],[-35.636,-7.25],[-35.684,-7.271],[-35.704,-7.26],[-35.735,-7.324]]]}},{"type":"Feature","properties":{"code":"2514800"},"geometry":{"type":"Polygon","coordinates":[[[-36.878,-7.539],[-36.85,-7.499],[-36.74,-7.437],[-36.726,-7.406],[-36.674,-7.383],[-36.71,-7.379],[-36.777,-7.32],[-36.774,-7.374],[-36.841,-7.374],[-36.912,-7.388],[-36.975,-7.387],[-37.014,-7.404],[-37.024,-7.434],[-36.985,-7.476],[-36.978,-7.454],[-36.878,-7.539]]]}},{"type":"Feature","properties":{"code":"2506608"},"geometry":{"type":"Polygon","coordinates":[[[-38.439,-7.591],[-38.389,-7.595],[-38.385,-7.535],[-38.327,-7.531],[-38.31,-7.519],[-38.328,-7.478],[-38.315,-7.457],[-38.377,-7.419],[-38.401,-7.424],[-38.43,-7.424],[-38.491,-7.438],[-38.476,-7.518],[-38.423,-7.551],[-38.439,-7.591]]]}},{"type":"Feature","properties":{"code":"2514206"},"geometry":{"type":"Polygon","coordinates":[[[-38.089,-7.012],[-38.074,-6.974],[-38.039,-6.975],[-38.006,-6.944],[-38.015,-6.884],[-38.069,-6.877],[-38.139,-6.905],[-38.153,-6.895],[-38.166,-6.872],[-38.264,-6.885],[-38.256,-6.905],[-38.238,-6.937],[-38.264,-6.992],[-38.201,-7.01],[-38.089,-7.012]]]}},{"type":"Feature","properties":{"code":"2506004"},"geometry":{"type":"Polygon","coordinates":[[[-35.957,-7.017],[-35.927,-7.017],[-35.903,-7.04],[-35.897,-7.08],[-35.885,-7.055],[-35.855,-7.051],[-35.838,-7.025],[-35.78,-7.026],[-35.777,-7.021],[-35.799,-7.018],[-35.814,-6.982],[-35.868,-6.958],[-35.886,-6.961],[-35.907,-6.936],[-35.943,-6.939],[-35.977,-6.986],[-35.957,-7.017]]]}},{"type":"Feature","properties":{"code":"2514008"},"geometry":{"type":"Polygon","coordinates":[[[-36.599,-7.584],[-36.588,-7.635],[-36.577,-7.625],[-36.536,-7.64],[-36.494,-7.637],[-36.478,-7.653],[-36.44,-7.478],[-36.331,-7.308],[-36.349,-7.313],[-36.381,-7.298],[-36.473,-7.315],[-36.529,-7.338],[-36.529,-7.349],[-36.601,-7.352],[-36.601,-7.378],[-36.63,-7.393],[-36.53,-7.528],[-36.599,-7.584]]]}},{"type":"Feature","properties":{"code":"2505808"},"geometry":{"type":"Polygon","coordinates":[[[-35.349,-6.75],[-35.378,-6.719],[-35.4,-6.71],[-35.414,-6.676],[-35.434,-6.708],[-35.412,-6.733],[-35.374,-6.757],[-35.37,-6.756],[-35.349,-6.75]]]}},{"type":"Feature","properties":{"code":"2514107"},"geometry":{"type":"Polygon","coordinates":[[[-36.879,-8.017],[-36.899,-8.09],[-36.935,-8.134],[-36.939,-8.163],[-36.964,-8.181],[-36.956,-8.249],[-36.968,-8.267],[-36.955,-8.299],[-36.947,-8.277],[-36.908,-8.253],[-36.862,-8.222],[-36.788,-8.19],[-36.762,-8.196],[-36.75,-8.176],[-36.687,-8.156],[-36.694,-8.141],[-36.629,-8.111],[-36.654,-8.07],[-36.629,-8.057],[-36.628,-7.986],[-36.612,-7.949],[-36.587,-7.959],[-36.573,-7.936],[-36.816,-7.958],[-36.879,-8.017]]]}},{"type":"Feature","properties":{"code":"2505907"},"geometry":{"type":"Polygon","coordinates":[[[-37.704,-7.176],[-37.667,-7.155],[-37.68,-7.016],[-37.712,-7.022],[-37.869,-7.016],[-37.823,-7.06],[-37.82,-7.098],[-37.806,-7.124],[-37.776,-7.142],[-37.76,-7.14],[-37.739,-7.175],[-37.704,-7.176]]]}},{"type":"Feature","properties":{"code":"2514404"},"geometry":{"type":"Polygon","coordinates":[[[-37.235,-6.825],[-37.255,-6.811],[-37.269,-6.762],[-37.264,-6.732],[-37.314,-6.689],[-37.343,-6.701],[-37.407,-6.697],[-37.485,-6.71],[-37.52,-6.711],[-37.537,-6.719],[-37.554,-6.775],[-37.523,-6.769],[-37.505,-6.781],[-37.505,-6.814],[-37.527,-6.821],[-37.5,-6.862],[-37.497,-6.9],[-37.482,-6.916],[-37.443,-6.919],[-37.412,-6.935],[-37.212,-6.905],[-37.222,-6.842],[-37.235,-6.825]]]}},{"type":"Feature","properties":{"code":"2506202"},"geometry":{"type":"Polygon","coordinates":[[[-36.481,-6.521],[-36.459,-6.519],[-36.419,-6.473],[-36.44,-6.455],[-36.437,-6.425],[-36.412,-6.405],[-36.39,-6.413],[-36.372,-6.395],[-36.367,-6.36],[-36.344,-6.303],[-36.363,-6.31],[-36.395,-6.294],[-36.433,-6.363],[-36.5,-6.358],[-36.504,-6.386],[-36.531,-6.452],[-36.528,-6.479],[-36.526,-6.501],[-36.481,-6.521]]]}},{"type":"Feature","properties":{"code":"2506301"},"geometry":{"type":"Polygon","coordinates":[[[-35.471,-6.924],[-35.459,-6.963],[-35.427,-6.936],[-35.38,-6.933],[-35.39,-6.848],[-35.433,-6.813],[-35.465,-6.812],[-35.486,-6.819],[-35.503,-6.82],[-35.535,-6.872],[-35.5,-6.88],[-35.471,-6.924]]]}},{"type":"Feature","properties":{"code":"2514453"},"geometry":{"type":"Polygon","coordinates":[[[-35.321,-7.293],[-35.299,-7.291],[-35.287,-7.265],[-35.304,-7.216],[-35.333,-7.179],[-35.349,-7.195],[-35.383,-7.21],[-35.374,-7.239],[-35.419,-7.239],[-35.448,-7.257],[-35.422,-7.273],[-35.379,-7.252],[-35.321,-7.293]]]}},{"type":"Feature","properties":{"code":"2514305"},"geometry":{"type":"Polygon","coordinates":[[[-38.323,-7.33],[-38.27,-7.3],[-38.248,-7.271],[-38.277,-7.263],[-38.266,-7.235],[-38.278,-7.178],[-38.295,-7.154],[-38.315,-7.164],[-38.331,-7.178],[-38.352,-7.233],[-38.423,-7.312],[-38.414,-7.341],[-38.383,-7.324],[-38.323,-7.33]]]}},{"type":"Feature","properties":{"code":"2506251"},"geometry":{"type":"Polygon","coordinates":[[[-35.875,-7.512],[-35.885,-7.542],[-35.858,-7.547],[-35.834,-7.576],[-35.867,-7.589],[-35.878,-7.613],[-35.869,-7.663],[-35.833,-7.661],[-35.814,-7.662],[-35.764,-7.638],[-35.757,-7.651],[-35.711,-7.642],[-35.735,-7.622],[-35.745,-7.584],[-35.796,-7.535],[-35.816,-7.524],[-35.83,-7.494],[-35.825,-7.46],[-35.854,-7.508],[-35.875,-7.512]]]}},{"type":"Feature","properties":{"code":"2506103"},"geometry":{"type":"Polygon","coordinates":[[[-35.756,-7.472],[-35.703,-7.337],[-35.735,-7.324],[-35.799,-7.319],[-35.838,-7.331],[-35.838,-7.391],[-35.822,-7.417],[-35.836,-7.436],[-35.825,-7.46],[-35.797,-7.472],[-35.756,-7.472]]]}},{"type":"Feature","properties":{"code":"2513653"},"geometry":{"type":"Polygon","coordinates":[[[-38.502,-6.529],[-38.467,-6.53],[-38.451,-6.499],[-38.449,-6.444],[-38.463,-6.414],[-38.49,-6.439],[-38.522,-6.445],[-38.51,-6.457],[-38.521,-6.493],[-38.504,-6.518],[-38.502,-6.529]]]}},{"type":"Feature","properties":{"code":"2513703"},"geometry":{"type":"Polygon","coordinates":[[[-34.929,-7.226],[-34.969,-7.215],[-34.971,-7.174],[-34.936,-7.167],[-34.954,-7.148],[-34.941,-7.123],[-34.891,-7.094],[-34.863,-7.061],[-34.859,-7.03],[-34.869,-6.978],[-35.002,-6.912],[-35.099,-6.939],[-35.134,-6.943],[-35.145,-6.975],[-35.13,-7.009],[-35.158,-7.027],[-35.059,-7.081],[-35.04,-7.143],[-35.067,-7.229],[-35.044,-7.279],[-34.999,-7.268],[-34.965,-7.283],[-34.943,-7.249],[-34.929,-7.226]]]}},{"type":"Feature","properties":{"code":"2505501"},"geometry":{"type":"Polygon","coordinates":[[[-37.554,-6.775],[-37.537,-6.719],[-37.52,-6.711],[-37.575,-6.721],[-37.639,-6.725],[-37.603,-6.73],[-37.6,-6.799],[-37.576,-6.812],[-37.554,-6.801],[-37.554,-6.775]]]}},{"type":"Feature","properties":{"code":"2513505"},"geometry":{"type":"Polygon","coordinates":[[[-38.184,-7.614],[-38.248,-7.569],[-38.267,-7.574],[-38.31,-7.519],[-38.327,-7.531],[-38.385,-7.535],[-38.389,-7.595],[-38.439,-7.591],[-38.439,-7.637],[-38.45,-7.668],[-38.434,-7.721],[-38.41,-7.731],[-38.355,-7.678],[-38.327,-7.694],[-38.311,-7.739],[-38.274,-7.695],[-38.25,-7.685],[-38.231,-7.647],[-38.179,-7.64],[-38.184,-7.614]]]}},{"type":"Feature","properties":{"code":"2505303"},"geometry":{"type":"Polygon","coordinates":[[[-38.104,-7.571],[-38.074,-7.528],[-38.1,-7.481],[-38.149,-7.487],[-38.159,-7.466],[-38.23,-7.488],[-38.256,-7.488],[-38.232,-7.537],[-38.248,-7.569],[-38.184,-7.614],[-38.148,-7.6],[-38.104,-7.571]]]}},{"type":"Feature","properties":{"code":"2513604"},"geometry":{"type":"Polygon","coordinates":[[[-37.92,-7.475],[-37.852,-7.433],[-37.841,-7.417],[-37.856,-7.409],[-37.865,-7.345],[-37.893,-7.337],[-37.901,-7.306],[-37.959,-7.317],[-38.01,-7.285],[-38.053,-7.318],[-38.07,-7.357],[-38.08,-7.39],[-38.051,-7.394],[-38.048,-7.417],[-37.996,-7.448],[-37.97,-7.5],[-37.956,-7.499],[-37.92,-7.475]]]}},{"type":"Feature","properties":{"code":"2505402"},"geometry":{"type":"Polygon","coordinates":[[[-37.053,-7.38],[-37.015,-7.249],[-37.047,-7.256],[-37.077,-7.234],[-37.143,-7.246],[-37.177,-7.31],[-37.168,-7.332],[-37.086,-7.358],[-37.053,-7.38]]]}},{"type":"Feature","properties":{"code":"2505352"},"geometry":{"type":"Polygon","coordinates":[[[-35.924,-6.721],[-35.894,-6.692],[-35.866,-6.679],[-35.877,-6.578],[-35.879,-6.563],[-35.967,-6.585],[-36.006,-6.673],[-35.981,-6.703],[-35.947,-6.698],[-35.924,-6.721]]]}},{"type":"Feature","properties":{"code":"2513901"},"geometry":{"type":"Polygon","coordinates":[[[-37.465,-6.533],[-37.421,-6.533],[-37.396,-6.51],[-37.391,-6.453],[-37.381,-6.437],[-37.396,-6.42],[-37.389,-6.391],[-37.465,-6.397],[-37.511,-6.413],[-37.523,-6.407],[-37.577,-6.422],[-37.589,-6.442],[-37.563,-6.471],[-37.536,-6.475],[-37.51,-6.527],[-37.488,-6.51],[-37.465,-6.533]]]}},{"type":"Feature","properties":{"code":"2505709"},"geometry":{"type":"Polygon","coordinates":[[[-35.684,-6.66],[-35.663,-6.635],[-35.627,-6.656],[-35.609,-6.652],[-35.578,-6.606],[-35.54,-6.596],[-35.565,-6.566],[-35.557,-6.546],[-35.623,-6.551],[-35.644,-6.573],[-35.689,-6.591],[-35.732,-6.619],[-35.767,-6.627],[-35.742,-6.677],[-35.714,-6.66],[-35.684,-6.66]]]}},{"type":"Feature","properties":{"code":"2513984"},"geometry":{"type":"Polygon","coordinates":[[[-38.09,-6.694],[-38.065,-6.679],[-38.017,-6.67],[-38.017,-6.646],[-37.969,-6.613],[-37.992,-6.622],[-38.033,-6.62],[-38.053,-6.584],[-38.078,-6.583],[-38.107,-6.604],[-38.104,-6.645],[-38.09,-6.694]]]}},{"type":"Feature","properties":{"code":"2513968"},"geometry":{"type":"Polygon","coordinates":[[[-38.023,-6.764],[-37.995,-6.821],[-38.011,-6.851],[-38.0,-6.873],[-37.943,-6.872],[-37.92,-6.844],[-37.877,-6.826],[-37.883,-6.792],[-37.901,-6.785],[-37.904,-6.733],[-37.985,-6.749],[-38.023,-6.764]]]}},{"type":"Feature","properties":{"code":"2513943"},"geometry":{"type":"Polygon","coordinates":[[[-36.478,-7.653],[-36.446,-7.672],[-36.357,-7.675],[-36.367,-7.646],[-36.349,-7.599],[-36.321,-7.611],[-36.302,-7.597],[-36.351,-7.548],[-36.376,-7.514],[-36.44,-7.478],[-36.478,-7.653]]]}},{"type":"Feature","properties":{"code":"2513927"},"geometry":{"type":"Polygon","coordinates":[[[-37.785,-6.879],[-37.754,-6.89],[-37.741,-6.952],[-37.721,-6.996],[-37.694,-6.96],[-37.677,-6.944],[-37.685,-6.918],[-37.668,-6.884],[-37.636,-6.859],[-37.631,-6.806],[-37.734,-6.799],[-37.751,-6.839],[-37.784,-6.848],[-37.785,-6.879]]]}},{"type":"Feature","properties":{"code":"2505600"},"geometry":{"type":"Polygon","coordinates":[[[-38.401,-7.424],[-38.377,-7.419],[-38.315,-7.457],[-38.328,-7.478],[-38.31,-7.519],[-38.267,-7.574],[-38.248,-7.569],[-38.232,-7.537],[-38.256,-7.488],[-38.26,-7.455],[-38.242,-7.424],[-38.253,-7.393],[-38.323,-7.33],[-38.383,-7.324],[-38.414,-7.341],[-38.41,-7.4],[-38.401,-7.424]]]}},{"type":"Feature","properties":{"code":"2513851"},"geometry":{"type":"Polygon","coordinates":[[[-36.556,-7.321],[-36.568,-7.246],[-36.548,-7.234],[-36.551,-7.188],[-36.563,-7.182],[-36.592,-7.173],[-36.613,-7.13],[-36.66,-7.129],[-36.656,-7.187],[-36.673,-7.232],[-36.707,-7.27],[-36.664,-7.27],[-36.651,-7.286],[-36.587,-7.293],[-36.556,-7.321]]]}},{"type":"Feature","properties":{"code":"2513802"},"geometry":{"type":"Polygon","coordinates":[[[-37.52,-7.002],[-37.512,-7.111],[-37.543,-7.11],[-37.494,-7.227],[-37.474,-7.199],[-37.429,-7.182],[-37.427,-7.163],[-37.387,-7.166],[-37.389,-7.148],[-37.36,-7.127],[-37.345,-7.098],[-37.35,-7.056],[-37.372,-6.998],[-37.41,-7.006],[-37.477,-6.992],[-37.52,-7.002]]]}},{"type":"Feature","properties":{"code":"2513158"},"geometry":{"type":"Polygon","coordinates":[[[-35.943,-7.79],[-35.898,-7.789],[-35.881,-7.766],[-35.882,-7.754],[-35.825,-7.75],[-35.837,-7.721],[-35.828,-7.699],[-35.833,-7.661],[-35.869,-7.663],[-35.931,-7.683],[-35.956,-7.653],[-36.022,-7.81],[-36.003,-7.813],[-35.959,-7.787],[-35.943,-7.79]]]}},{"type":"Feature","properties":{"code":"2513109"},"geometry":{"type":"Polygon","coordinates":[[[-35.495,-7.484],[-35.45,-7.453],[-35.434,-7.471],[-35.425,-7.474],[-35.363,-7.443],[-35.405,-7.408],[-35.417,-7.369],[-35.405,-7.332],[-35.432,-7.318],[-35.455,-7.329],[-35.464,-7.361],[-35.516,-7.377],[-35.534,-7.394],[-35.546,-7.434],[-35.549,-7.468],[-35.495,-7.484]]]}},{"type":"Feature","properties":{"code":"2513208"},"geometry":{"type":"Polygon","coordinates":[[[-37.969,-6.613],[-37.963,-6.57],[-37.981,-6.53],[-38.013,-6.528],[-38.027,-6.475],[-38.037,-6.457],[-38.071,-6.464],[-38.12,-6.522],[-38.153,-6.556],[-38.154,-6.574],[-38.127,-6.597],[-38.107,-6.604],[-38.078,-6.583],[-38.053,-6.584],[-38.033,-6.62],[-37.992,-6.622],[-37.969,-6.613]]]}},{"type":"Feature","properties":{"code":"2505006"},"geometry":{"type":"Polygon","coordinates":[[[-36.329,-6.935],[-36.305,-6.941],[-36.261,-6.837],[-36.259,-6.81],[-36.286,-6.809],[-36.319,-6.788],[-36.342,-6.796],[-36.405,-6.856],[-36.361,-6.912],[-36.329,-6.935]]]}},{"type":"Feature","properties":{"code":"2513000"},"geometry":{"type":"Polygon","coordinates":[[[-36.779,-7.109],[-36.755,-7.084],[-36.744,-7.029],[-36.765,-7.042],[-36.797,-7.039],[-36.865,-7.063],[-36.915,-7.081],[-36.931,-7.15],[-36.881,-7.16],[-36.818,-7.14],[-36.803,-7.144],[-36.779,-7.109]]]}},{"type":"Feature","properties":{"code":"2504801"},"geometry":{"type":"Polygon","coordinates":[[[-38.058,-7.089],[-38.049,-7.125],[-38.031,-7.138],[-38.033,-7.168],[-37.991,-7.174],[-37.98,-7.124],[-37.948,-7.09],[-37.884,-7.083],[-37.82,-7.098],[-37.823,-7.06],[-37.869,-7.016],[-37.93,-6.995],[-38.006,-6.944],[-38.039,-6.975],[-38.074,-6.974],[-38.089,-7.012],[-38.058,-7.089]]]}},{"type":"Feature","properties":{"code":"2504900"},"geometry":{"type":"Polygon","coordinates":[[[-35.067,-7.229],[-35.04,-7.143],[-35.059,-7.081],[-35.158,-7.027],[-35.118,-7.07],[-35.152,-7.152],[-35.187,-7.178],[-35.148,-7.205],[-35.11,-7.23],[-35.067,-7.229]]]}},{"type":"Feature","properties":{"code":"2504850"},"geometry":{"type":"Polygon","coordinates":[[[-36.619,-7.706],[-36.577,-7.711],[-36.546,-7.669],[-36.588,-7.635],[-36.599,-7.584],[-36.716,-7.591],[-36.7,-7.677],[-36.657,-7.686],[-36.619,-7.706]]]}},{"type":"Feature","properties":{"code":"2513406"},"geometry":{"type":"Polygon","coordinates":[[[-36.865,-7.063],[-36.875,-7.021],[-36.775,-6.915],[-36.797,-6.885],[-36.831,-6.885],[-36.865,-6.857],[-36.864,-6.84],[-36.901,-6.818],[-36.91,-6.757],[-36.959,-6.783],[-36.957,-6.816],[-37.01,-6.871],[-37.035,-6.904],[-36.987,-6.935],[-36.963,-6.934],[-36.941,-6.961],[-36.936,-7.011],[-36.943,-7.041],[-36.923,-7.053],[-36.915,-7.081],[-36.865,-7.063]]]}},{"type":"Feature","properties":{"code":"2505204"},"geometry":{"type":"Polygon","coordinates":[[[-35.471,-6.924],[-35.5,-6.88],[-35.535,-6.872],[-35.565,-6.886],[-35.565,-6.909],[-35.531,-6.923],[-35.471,-6.924]]]}},{"type":"Feature","properties":{"code":"2513356"},"geometry":{"type":"Polygon","coordinates":[[[-38.594,-7.754],[-38.497,-7.75],[-38.457,-7.718],[-38.477,-7.678],[-38.471,-7.648],[-38.503,-7.653],[-38.524,-7.627],[-38.528,-7.596],[-38.598,-7.604],[-38.633,-7.587],[-38.683,-7.579],[-38.704,-7.581],[-38.715,-7.622],[-38.687,-7.635],[-38.626,-7.696],[-38.594,-7.754]]]}},{"type":"Feature","properties":{"code":"2505279"},"geometry":{"type":"Polygon","coordinates":[[[-35.37,-6.756],[-35.349,-6.775],[-35.287,-6.752],[-35.231,-6.761],[-35.215,-6.713],[-35.228,-6.689],[-35.243,-6.696],[-35.299,-6.717],[-35.32,-6.709],[-35.349,-6.75],[-35.37,-6.756]]]}},{"type":"Feature","properties":{"code":"2505238"},"geometry":{"type":"Polygon","coordinates":[[[-35.264,-6.956],[-35.205,-6.941],[-35.177,-6.952],[-35.191,-6.921],[-35.231,-6.87],[-35.266,-6.848],[-35.297,-6.852],[-35.303,-6.883],[-35.289,-6.939],[-35.264,-6.956]]]}},{"type":"Feature","properties":{"code":"2513307"},"geometry":{"type":"Polygon","coordinates":[[[-38.571,-6.798],[-38.518,-6.795],[-38.495,-6.785],[-38.493,-6.721],[-38.52,-6.704],[-38.579,-6.704],[-38.594,-6.674],[-38.649,-6.628],[-38.647,-6.654],[-38.672,-6.706],[-38.652,-6.757],[-38.614,-6.782],[-38.571,-6.798]]]}},{"type":"Feature","properties":{"code":"2505105"},"geometry":{"type":"Polygon","coordinates":[[[-36.106,-6.669],[-36.023,-6.631],[-35.967,-6.585],[-35.879,-6.563],[-35.877,-6.578],[-35.867,-6.545],[-35.87,-6.489],[-35.944,-6.493],[-35.965,-6.484],[-36.005,-6.481],[-36.017,-6.452],[-36.037,-6.444],[-36.077,-6.406],[-36.096,-6.42],[-36.096,-6.42],[-36.11,-6.429],[-36.175,-6.431],[-36.181,-6.47],[-36.225,-6.559],[-36.232,-6.597],[-36.242,-6.642],[-36.175,-6.678],[-36.136,-6.68],[-36.106,-6.669]]]}},{"type":"Feature","properties":{"code":"2512606"},"geometry":{"type":"Polygon","coordinates":[[[-37.189,-7.059],[-37.086,-7.109],[-37.083,-7.072],[-37.007,-7.052],[-37.059,-7.04],[-37.075,-7.014],[-37.103,-7.023],[-37.173,-6.983],[-37.228,-7.019],[-37.223,-7.053],[-37.189,-7.059]]]}},{"type":"Feature","properties":{"code":"2504405"},"geometry":{"type":"Polygon","coordinates":[[[-38.434,-7.721],[-38.45,-7.668],[-38.439,-7.637],[-38.439,-7.591],[-38.423,-7.551],[-38.476,-7.518],[-38.491,-7.438],[-38.43,-7.424],[-38.401,-7.424],[-38.41,-7.4],[-38.414,-7.341],[-38.477,-7.375],[-38.519,-7.367],[-38.549,-7.335],[-38.596,-7.416],[-38.585,-7.435],[-38.603,-7.458],[-38.645,-7.46],[-38.631,-7.487],[-38.646,-7.502],[-38.653,-7.553],[-38.683,-7.579],[-38.633,-7.587],[-38.598,-7.604],[-38.528,-7.596],[-38.524,-7.627],[-38.503,-7.653],[-38.471,-7.648],[-38.477,-7.678],[-38.457,-7.718],[-38.434,-7.721]]]}},{"type":"Feature","properties":{"code":"2512705"},"geometry":{"type":"Polygon","coordinates":[[[-35.777,-7.021],[-35.775,-6.962],[-35.787,-6.945],[-35.785,-6.907],[-35.807,-6.874],[-35.846,-6.857],[-35.87,-6.86],[-35.906,-6.889],[-35.937,-6.889],[-35.953,-6.912],[-35.943,-6.939],[-35.907,-6.936],[-35.886,-6.961],[-35.868,-6.958],[-35.814,-6.982],[-35.799,-7.018],[-35.777,-7.021]]]}},{"type":"Feature","properties":{"code":"2504504"},"geometry":{"type":"Polygon","coordinates":[[[-37.631,-6.806],[-37.636,-6.859],[-37.668,-6.884],[-37.685,-6.918],[-37.677,-6.944],[-37.694,-6.96],[-37.677,-6.971],[-37.68,-7.016],[-37.627,-6.991],[-37.52,-7.002],[-37.545,-6.969],[-37.54,-6.947],[-37.572,-6.921],[-37.582,-6.874],[-37.576,-6.812],[-37.6,-6.799],[-37.603,-6.73],[-37.639,-6.725],[-37.657,-6.722],[-37.621,-6.784],[-37.631,-6.806]]]}},{"type":"Feature","properties":{"code":"2512507"},"geometry":{"type":"Polygon","coordinates":[[[-36.009,-7.454],[-35.963,-7.491],[-35.922,-7.514],[-35.875,-7.512],[-35.854,-7.508],[-35.825,-7.46],[-35.825,-7.46],[-35.836,-7.436],[-35.822,-7.417],[-35.838,-7.391],[-35.838,-7.331],[-35.841,-7.304],[-35.888,-7.287],[-35.948,-7.28],[-35.976,-7.305],[-35.982,-7.364],[-36.002,-7.384],[-36.009,-7.454]]]}},{"type":"Feature","properties":{"code":"2504306"},"geometry":{"type":"Polygon","coordinates":[[[-37.733,-6.487],[-37.734,-6.39],[-37.623,-6.423],[-37.589,-6.442],[-37.577,-6.422],[-37.599,-6.389],[-37.613,-6.272],[-37.616,-6.176],[-37.673,-6.191],[-37.709,-6.177],[-37.742,-6.189],[-37.777,-6.246],[-37.765,-6.292],[-37.812,-6.293],[-37.843,-6.333],[-37.795,-6.366],[-37.816,-6.448],[-37.794,-6.463],[-37.748,-6.463],[-37.733,-6.487]]]}},{"type":"Feature","properties":{"code":"2504355"},"geometry":{"type":"Polygon","coordinates":[[[-36.049,-7.484],[-36.009,-7.454],[-36.002,-7.384],[-36.038,-7.366],[-36.124,-7.362],[-36.099,-7.39],[-36.095,-7.456],[-36.049,-7.484]]]}},{"type":"Feature","properties":{"code":"2504702"},"geometry":{"type":"Polygon","coordinates":[[[-36.727,-7.776],[-36.692,-7.839],[-36.65,-7.882],[-36.618,-7.898],[-36.573,-7.936],[-36.572,-7.904],[-36.536,-7.902],[-36.568,-7.86],[-36.554,-7.808],[-36.621,-7.752],[-36.619,-7.706],[-36.657,-7.686],[-36.725,-7.701],[-36.765,-7.728],[-36.727,-7.776]]]}},{"type":"Feature","properties":{"code":"2512903"},"geometry":{"type":"Polygon","coordinates":[[[-35.123,-6.896],[-35.099,-6.939],[-35.002,-6.912],[-34.933,-6.89],[-34.899,-6.866],[-34.925,-6.768],[-34.953,-6.767],[-34.97,-6.793],[-34.999,-6.797],[-35.058,-6.775],[-35.092,-6.738],[-35.082,-6.722],[-35.027,-6.708],[-35.039,-6.675],[-35.02,-6.619],[-35.005,-6.598],[-35.049,-6.603],[-35.088,-6.625],[-35.121,-6.648],[-35.114,-6.679],[-35.133,-6.767],[-35.097,-6.852],[-35.101,-6.89],[-35.123,-6.896]]]}},{"type":"Feature","properties":{"code":"2512762"},"geometry":{"type":"Polygon","coordinates":[[[-35.332,-7.175],[-35.281,-7.188],[-35.258,-7.164],[-35.261,-7.138],[-35.289,-7.109],[-35.332,-7.175]]]}},{"type":"Feature","properties":{"code":"2512754"},"geometry":{"type":"Polygon","coordinates":[[[-35.704,-7.26],[-35.684,-7.271],[-35.636,-7.25],[-35.627,-7.226],[-35.671,-7.209],[-35.699,-7.219],[-35.704,-7.26]]]}},{"type":"Feature","properties":{"code":"2512747"},"geometry":{"type":"Polygon","coordinates":[[[-35.653,-6.492],[-35.673,-6.508],[-35.688,-6.551],[-35.721,-6.566],[-35.689,-6.591],[-35.644,-6.573],[-35.623,-6.551],[-35.557,-6.546],[-35.584,-6.522],[-35.653,-6.492]]]}},{"type":"Feature","properties":{"code":"2512721"},"geometry":{"type":"Polygon","coordinates":[[[-35.32,-6.709],[-35.299,-6.717],[-35.243,-6.696],[-35.246,-6.661],[-35.275,-6.63],[-35.329,-6.622],[-35.34,-6.649],[-35.32,-6.671],[-35.32,-6.709]]]}},{"type":"Feature","properties":{"code":"2512804"},"geometry":{"type":"Polygon","coordinates":[[[-37.51,-6.527],[-37.536,-6.475],[-37.563,-6.471],[-37.589,-6.442],[-37.623,-6.423],[-37.734,-6.39],[-37.733,-6.487],[-37.666,-6.537],[-37.664,-6.548],[-37.616,-6.527],[-37.574,-6.551],[-37.54,-6.546],[-37.51,-6.527]]]}},{"type":"Feature","properties":{"code":"2512788"},"geometry":{"type":"Polygon","coordinates":[[[-36.19,-7.641],[-36.16,-7.689],[-36.167,-7.704],[-36.154,-7.757],[-36.127,-7.771],[-36.104,-7.718],[-36.13,-7.67],[-36.127,-7.638],[-36.072,-7.604],[-36.087,-7.601],[-36.102,-7.602],[-36.158,-7.639],[-36.19,-7.641]]]}},{"type":"Feature","properties":{"code":"2504603"},"geometry":{"type":"Polygon","coordinates":[[[-34.803,-7.388],[-34.794,-7.333],[-34.806,-7.245],[-34.842,-7.237],[-34.89,-7.214],[-34.929,-7.226],[-34.943,-7.249],[-34.919,-7.303],[-34.857,-7.343],[-34.819,-7.35],[-34.803,-7.388]]]}},{"type":"Feature","properties":{"code":"2512101"},"geometry":{"type":"Polygon","coordinates":[[[-37.869,-7.016],[-37.92,-6.97],[-37.887,-6.942],[-37.875,-6.908],[-37.839,-6.87],[-37.785,-6.879],[-37.784,-6.848],[-37.751,-6.839],[-37.734,-6.799],[-37.631,-6.806],[-37.621,-6.784],[-37.657,-6.722],[-37.783,-6.642],[-37.861,-6.638],[-37.901,-6.618],[-37.943,-6.626],[-37.969,-6.613],[-38.017,-6.646],[-38.017,-6.67],[-37.982,-6.695],[-38.024,-6.721],[-38.023,-6.764],[-37.985,-6.749],[-37.904,-6.733],[-37.901,-6.785],[-37.883,-6.792],[-37.877,-6.826],[-37.92,-6.844],[-37.943,-6.872],[-38.0,-6.873],[-38.015,-6.884],[-38.006,-6.944],[-37.93,-6.995],[-37.869,-7.016]]]}},{"type":"Feature","properties":{"code":"2512077"},"geometry":{"type":"Polygon","coordinates":[[[-38.496,-6.663],[-38.483,-6.66],[-38.469,-6.618],[-38.438,-6.575],[-38.494,-6.57],[-38.502,-6.529],[-38.504,-6.518],[-38.531,-6.526],[-38.54,-6.55],[-38.537,-6.596],[-38.525,-6.636],[-38.496,-6.663]]]}},{"type":"Feature","properties":{"code":"2503902"},"geometry":{"type":"Polygon","coordinates":[[[-36.929,-8.037],[-36.879,-8.017],[-36.816,-7.958],[-36.573,-7.936],[-36.618,-7.898],[-36.65,-7.882],[-36.692,-7.839],[-36.727,-7.776],[-36.783,-7.827],[-36.818,-7.821],[-36.961,-7.831],[-36.931,-7.871],[-36.925,-8.012],[-36.929,-8.037]]]}},{"type":"Feature","properties":{"code":"2512002"},"geometry":{"type":"Polygon","coordinates":[[[-36.233,-7.105],[-36.219,-7.162],[-36.224,-7.198],[-36.169,-7.202],[-36.142,-7.167],[-36.095,-7.154],[-36.065,-7.166],[-36.025,-7.166],[-35.98,-7.1],[-35.968,-7.071],[-35.957,-7.017],[-35.977,-6.986],[-35.943,-6.939],[-35.953,-6.912],[-36.012,-6.946],[-36.027,-6.975],[-36.077,-6.971],[-36.111,-6.932],[-36.16,-6.946],[-36.152,-6.97],[-36.177,-6.98],[-36.2,-7.029],[-36.201,-7.064],[-36.241,-7.075],[-36.233,-7.105]]]}},{"type":"Feature","properties":{"code":"2503803"},"geometry":{"type":"Polygon","coordinates":[[[-35.377,-7.033],[-35.348,-7.122],[-35.357,-7.158],[-35.349,-7.195],[-35.333,-7.179],[-35.332,-7.175],[-35.289,-7.109],[-35.316,-7.115],[-35.377,-7.033]]]}},{"type":"Feature","properties":{"code":"2503753"},"geometry":{"type":"Polygon","coordinates":[[[-37.869,-7.016],[-37.712,-7.022],[-37.68,-7.016],[-37.677,-6.971],[-37.694,-6.96],[-37.721,-6.996],[-37.741,-6.952],[-37.754,-6.89],[-37.785,-6.879],[-37.839,-6.87],[-37.875,-6.908],[-37.887,-6.942],[-37.92,-6.97],[-37.869,-7.016]]]}},{"type":"Feature","properties":{"code":"2512036"},"geometry":{"type":"Polygon","coordinates":[[[-38.538,-6.421],[-38.522,-6.445],[-38.49,-6.439],[-38.463,-6.414],[-38.448,-6.403],[-38.483,-6.389],[-38.489,-6.362],[-38.458,-6.33],[-38.504,-6.356],[-38.533,-6.342],[-38.562,-6.356],[-38.593,-6.378],[-38.572,-6.404],[-38.538,-6.421]]]}},{"type":"Feature","properties":{"code":"2504157"},"geometry":{"type":"Polygon","coordinates":[[[-35.783,-6.825],[-35.808,-6.767],[-35.789,-6.75],[-35.78,-6.691],[-35.828,-6.676],[-35.866,-6.679],[-35.894,-6.692],[-35.924,-6.721],[-35.899,-6.744],[-35.898,-6.794],[-35.888,-6.795],[-35.828,-6.858],[-35.81,-6.864],[-35.811,-6.839],[-35.783,-6.825]]]}},{"type":"Feature","properties":{"code":"2512408"},"geometry":{"type":"Polygon","coordinates":[[[-36.025,-7.166],[-35.987,-7.161],[-35.963,-7.195],[-35.939,-7.175],[-35.907,-7.18],[-35.934,-7.134],[-35.931,-7.107],[-35.966,-7.113],[-35.98,-7.1],[-36.025,-7.166]]]}},{"type":"Feature","properties":{"code":"2504207"},"geometry":{"type":"Polygon","coordinates":[[[-37.494,-7.227],[-37.543,-7.11],[-37.512,-7.111],[-37.52,-7.002],[-37.627,-6.991],[-37.68,-7.016],[-37.667,-7.155],[-37.704,-7.176],[-37.68,-7.172],[-37.673,-7.211],[-37.613,-7.271],[-37.599,-7.27],[-37.57,-7.316],[-37.541,-7.29],[-37.494,-7.227]]]}},{"type":"Feature","properties":{"code":"2504033"},"geometry":{"type":"Polygon","coordinates":[[[-35.123,-6.896],[-35.158,-6.894],[-35.163,-6.851],[-35.231,-6.87],[-35.191,-6.921],[-35.177,-6.952],[-35.134,-6.943],[-35.099,-6.939],[-35.123,-6.896]]]}},{"type":"Feature","properties":{"code":"2512200"},"geometry":{"type":"Polygon","coordinates":[[[-37.15,-7.717],[-37.139,-7.745],[-37.152,-7.78],[-37.079,-7.763],[-37.026,-7.717],[-37.004,-7.655],[-37.063,-7.616],[-37.077,-7.599],[-37.1,-7.599],[-37.085,-7.643],[-37.108,-7.64],[-37.147,-7.668],[-37.161,-7.698],[-37.15,-7.717]]]}},{"type":"Feature","properties":{"code":"2504009"},"geometry":{"type":"Polygon","coordinates":[[[-36.002,-7.384],[-35.982,-7.364],[-35.976,-7.305],[-35.948,-7.28],[-35.888,-7.287],[-35.841,-7.304],[-35.838,-7.331],[-35.799,-7.319],[-35.735,-7.324],[-35.704,-7.26],[-35.731,-7.277],[-35.764,-7.281],[-35.842,-7.25],[-35.814,-7.207],[-35.835,-7.196],[-35.86,-7.207],[-35.885,-7.171],[-35.907,-7.18],[-35.939,-7.175],[-35.963,-7.195],[-35.987,-7.161],[-36.025,-7.166],[-36.065,-7.166],[-36.095,-7.154],[-36.092,-7.198],[-36.115,-7.271],[-36.124,-7.362],[-36.038,-7.366],[-36.002,-7.384]]]}},{"type":"Feature","properties":{"code":"2512309"},"geometry":{"type":"Polygon","coordinates":[[[-37.958,-7.766],[-37.921,-7.713],[-37.903,-7.698],[-37.935,-7.673],[-37.958,-7.637],[-37.958,-7.593],[-37.93,-7.571],[-37.984,-7.54],[-37.981,-7.526],[-38.021,-7.53],[-38.046,-7.514],[-38.048,-7.548],[-38.104,-7.571],[-38.082,-7.589],[-38.084,-7.642],[-38.057,-7.652],[-38.061,-7.693],[-38.08,-7.732],[-38.069,-7.772],[-38.04,-7.748],[-38.001,-7.779],[-37.958,-7.766]]]}},{"type":"Feature","properties":{"code":"2504108"},"geometry":{"type":"Polygon","coordinates":[[[-38.29,-7.021],[-38.327,-7.014],[-38.36,-6.99],[-38.368,-7.046],[-38.343,-7.105],[-38.32,-7.098],[-38.323,-7.062],[-38.29,-7.021]]]}},{"type":"Feature","properties":{"code":"2511608"},"geometry":{"type":"Polygon","coordinates":[[[-35.565,-6.909],[-35.565,-6.886],[-35.588,-6.839],[-35.657,-6.868],[-35.65,-6.911],[-35.584,-6.922],[-35.565,-6.909]]]}},{"type":"Feature","properties":{"code":"2504074"},"geometry":{"type":"Polygon","coordinates":[[[-36.446,-7.916],[-36.43,-7.887],[-36.43,-7.827],[-36.399,-7.81],[-36.408,-7.763],[-36.446,-7.672],[-36.478,-7.653],[-36.494,-7.637],[-36.536,-7.64],[-36.577,-7.625],[-36.588,-7.635],[-36.546,-7.669],[-36.577,-7.711],[-36.619,-7.706],[-36.621,-7.752],[-36.554,-7.808],[-36.568,-7.86],[-36.536,-7.902],[-36.48,-7.925],[-36.446,-7.916]]]}},{"type":"Feature","properties":{"code":"2503407"},"geometry":{"type":"Polygon","coordinates":[[[-37.175,-7.228],[-37.169,-7.197],[-37.09,-7.169],[-37.097,-7.119],[-37.086,-7.109],[-37.189,-7.059],[-37.232,-7.088],[-37.245,-7.11],[-37.235,-7.137],[-37.248,-7.199],[-37.231,-7.198],[-37.175,-7.228]]]}},{"type":"Feature","properties":{"code":"2511509"},"geometry":{"type":"Polygon","coordinates":[[[-35.219,-7.3],[-35.242,-7.241],[-35.233,-7.205],[-35.304,-7.216],[-35.287,-7.265],[-35.299,-7.291],[-35.321,-7.293],[-35.291,-7.321],[-35.271,-7.364],[-35.219,-7.3]]]}},{"type":"Feature","properties":{"code":"2503308"},"geometry":{"type":"Polygon","coordinates":[[[-38.674,-7.046],[-38.667,-7.016],[-38.645,-6.984],[-38.635,-6.918],[-38.647,-6.878],[-38.672,-6.847],[-38.675,-6.862],[-38.73,-6.897],[-38.765,-6.91],[-38.742,-6.974],[-38.765,-6.994],[-38.691,-7.029],[-38.674,-7.046]]]}},{"type":"Feature","properties":{"code":"2511905"},"geometry":{"type":"Polygon","coordinates":[[[-34.834,-7.549],[-34.809,-7.51],[-34.814,-7.489],[-34.803,-7.388],[-34.819,-7.35],[-34.857,-7.343],[-34.911,-7.411],[-34.881,-7.417],[-34.851,-7.44],[-34.854,-7.54],[-34.834,-7.549]]]}},{"type":"Feature","properties":{"code":"2503704"},"geometry":{"type":"Polygon","coordinates":[[[-38.67,-7.048],[-38.666,-7.037],[-38.593,-7.057],[-38.58,-7.035],[-38.553,-7.033],[-38.502,-6.992],[-38.387,-6.988],[-38.424,-6.967],[-38.428,-6.931],[-38.42,-6.821],[-38.492,-6.806],[-38.571,-6.798],[-38.606,-6.816],[-38.637,-6.852],[-38.647,-6.878],[-38.635,-6.918],[-38.645,-6.984],[-38.667,-7.016],[-38.674,-7.046],[-38.67,-7.048]]]}},{"type":"Feature","properties":{"code":"2503555"},"geometry":{"type":"Polygon","coordinates":[[[-37.015,-7.249],[-37.02,-7.191],[-37.054,-7.156],[-37.09,-7.169],[-37.169,-7.197],[-37.175,-7.228],[-37.143,-7.246],[-37.077,-7.234],[-37.047,-7.256],[-37.015,-7.249]]]}},{"type":"Feature","properties":{"code":"2511707"},"geometry":{"type":"Polygon","coordinates":[[[-35.535,-6.872],[-35.503,-6.82],[-35.486,-6.819],[-35.576,-6.823],[-35.588,-6.839],[-35.565,-6.886],[-35.535,-6.872]]]}},{"type":"Feature","properties":{"code":"2503506"},"geometry":{"type":"Polygon","coordinates":[[[-35.742,-6.677],[-35.767,-6.627],[-35.732,-6.619],[-35.741,-6.597],[-35.789,-6.585],[-35.867,-6.545],[-35.877,-6.578],[-35.866,-6.679],[-35.828,-6.676],[-35.78,-6.691],[-35.742,-6.677]]]}},{"type":"Feature","properties":{"code":"2511806"},"geometry":{"type":"Polygon","coordinates":[[[-35.465,-6.812],[-35.409,-6.766],[-35.443,-6.753],[-35.497,-6.777],[-35.521,-6.758],[-35.53,-6.771],[-35.575,-6.807],[-35.576,-6.823],[-35.486,-6.819],[-35.465,-6.812]]]}},{"type":"Feature","properties":{"code":"2503605"},"geometry":{"type":"Polygon","coordinates":[[[-35.329,-6.622],[-35.326,-6.603],[-35.392,-6.591],[-35.396,-6.563],[-35.364,-6.512],[-35.408,-6.49],[-35.405,-6.526],[-35.43,-6.618],[-35.454,-6.612],[-35.489,-6.621],[-35.511,-6.648],[-35.422,-6.668],[-35.414,-6.676],[-35.36,-6.632],[-35.329,-6.622]]]}},{"type":"Feature","properties":{"code":"2511103"},"geometry":{"type":"Polygon","coordinates":[[[-36.544,-6.842],[-36.504,-6.85],[-36.415,-6.849],[-36.405,-6.856],[-36.342,-6.796],[-36.319,-6.788],[-36.286,-6.809],[-36.259,-6.81],[-36.25,-6.685],[-36.269,-6.692],[-36.281,-6.679],[-36.308,-6.685],[-36.337,-6.712],[-36.343,-6.742],[-36.368,-6.738],[-36.402,-6.756],[-36.458,-6.718],[-36.509,-6.723],[-36.533,-6.734],[-36.505,-6.754],[-36.51,-6.818],[-36.544,-6.842]]]}},{"type":"Feature","properties":{"code":"2502904"},"geometry":{"type":"Polygon","coordinates":[[[-37.864,-6.45],[-37.843,-6.44],[-37.816,-6.448],[-37.795,-6.366],[-37.843,-6.333],[-37.859,-6.374],[-37.889,-6.37],[-37.89,-6.4],[-37.919,-6.412],[-37.864,-6.45]]]}},{"type":"Feature","properties":{"code":"2511004"},"geometry":{"type":"Polygon","coordinates":[[[-38.104,-7.571],[-38.048,-7.548],[-38.046,-7.514],[-38.046,-7.452],[-38.08,-7.39],[-38.07,-7.357],[-38.141,-7.397],[-38.12,-7.425],[-38.1,-7.481],[-38.074,-7.528],[-38.104,-7.571]]]}},{"type":"Feature","properties":{"code":"2502805"},"geometry":{"type":"Polygon","coordinates":[[[-37.389,-6.391],[-37.363,-6.322],[-37.334,-6.308],[-37.371,-6.282],[-37.44,-6.29],[-37.47,-6.271],[-37.485,-6.242],[-37.542,-6.24],[-37.583,-6.25],[-37.613,-6.272],[-37.599,-6.389],[-37.577,-6.422],[-37.523,-6.407],[-37.511,-6.413],[-37.465,-6.397],[-37.389,-6.391]]]}},{"type":"Feature","properties":{"code":"2511400"},"geometry":{"type":"Polygon","coordinates":[[[-36.269,-6.692],[-36.277,-6.656],[-36.271,-6.608],[-36.299,-6.563],[-36.252,-6.58],[-36.232,-6.597],[-36.225,-6.559],[-36.227,-6.434],[-36.25,-6.437],[-36.251,-6.404],[-36.292,-6.396],[-36.296,-6.37],[-36.277,-6.34],[-36.279,-6.318],[-36.295,-6.292],[-36.314,-6.283],[-36.344,-6.303],[-36.367,-6.36],[-36.372,-6.395],[-36.39,-6.413],[-36.412,-6.405],[-36.437,-6.425],[-36.44,-6.455],[-36.419,-6.473],[-36.459,-6.519],[-36.481,-6.521],[-36.479,-6.54],[-36.442,-6.565],[-36.438,-6.629],[-36.403,-6.662],[-36.364,-6.599],[-36.308,-6.647],[-36.281,-6.679],[-36.269,-6.692]]]}},{"type":"Feature","properties":{"code":"2503209"},"geometry":{"type":"Polygon","coordinates":[[[-34.863,-7.061],[-34.842,-7.056],[-34.859,-7.03],[-34.863,-7.061]]]}},{"type":"Feature","properties":{"code":"2511202"},"geometry":{"type":"Polygon","coordinates":[[[-34.985,-7.5],[-34.981,-7.456],[-34.955,-7.406],[-34.967,-7.367],[-34.956,-7.35],[-35.044,-7.279],[-35.067,-7.229],[-35.11,-7.23],[-35.148,-7.205],[-35.169,-7.252],[-35.172,-7.278],[-35.194,-7.311],[-35.181,-7.352],[-35.15,-7.372],[-35.154,-7.393],[-35.108,-7.405],[-35.071,-7.399],[-34.985,-7.462],[-34.985,-7.5]]]}},{"type":"Feature","properties":{"code":"2503001"},"geometry":{"type":"Polygon","coordinates":[[[-34.854,-7.54],[-34.851,-7.44],[-34.886,-7.46],[-34.917,-7.443],[-34.955,-7.406],[-34.981,-7.456],[-34.985,-7.5],[-34.961,-7.539],[-34.933,-7.529],[-34.917,-7.542],[-34.854,-7.54]]]}},{"type":"Feature","properties":{"code":"2511301"},"geometry":{"type":"Polygon","coordinates":[[[-37.901,-7.306],[-37.826,-7.229],[-37.808,-7.159],[-37.776,-7.142],[-37.806,-7.124],[-37.82,-7.098],[-37.884,-7.083],[-37.948,-7.09],[-37.98,-7.124],[-37.991,-7.174],[-38.033,-7.168],[-38.031,-7.138],[-38.049,-7.125],[-38.058,-7.089],[-38.075,-7.151],[-38.05,-7.188],[-38.063,-7.222],[-38.091,-7.235],[-38.086,-7.295],[-38.053,-7.318],[-38.01,-7.285],[-37.959,-7.317],[-37.901,-7.306]]]}},{"type":"Feature","properties":{"code":"2503100"},"geometry":{"type":"Polygon","coordinates":[[[-36.222,-7.544],[-36.217,-7.445],[-36.194,-7.425],[-36.194,-7.397],[-36.175,-7.381],[-36.146,-7.391],[-36.143,-7.356],[-36.176,-7.347],[-36.196,-7.362],[-36.236,-7.37],[-36.346,-7.367],[-36.331,-7.308],[-36.44,-7.478],[-36.376,-7.514],[-36.351,-7.548],[-36.302,-7.597],[-36.288,-7.567],[-36.255,-7.543],[-36.222,-7.544]]]}},{"type":"Feature","properties":{"code":"2510659"},"geometry":{"type":"Polygon","coordinates":[[[-36.601,-7.352],[-36.576,-7.324],[-36.556,-7.321],[-36.587,-7.293],[-36.651,-7.286],[-36.664,-7.27],[-36.707,-7.27],[-36.73,-7.262],[-36.747,-7.305],[-36.767,-7.306],[-36.777,-7.32],[-36.71,-7.379],[-36.674,-7.383],[-36.63,-7.393],[-36.601,-7.378],[-36.601,-7.352]]]}},{"type":"Feature","properties":{"code":"2510600"},"geometry":{"type":"Polygon","coordinates":[[[-37.079,-7.517],[-37.118,-7.534],[-37.164,-7.575],[-37.198,-7.635],[-37.195,-7.652],[-37.161,-7.698],[-37.147,-7.668],[-37.108,-7.64],[-37.085,-7.643],[-37.1,-7.599],[-37.079,-7.517]]]}},{"type":"Feature","properties":{"code":"2502409"},"geometry":{"type":"Polygon","coordinates":[[[-38.549,-7.335],[-38.519,-7.367],[-38.477,-7.375],[-38.414,-7.341],[-38.423,-7.312],[-38.42,-7.266],[-38.404,-7.25],[-38.406,-7.206],[-38.428,-7.226],[-38.467,-7.209],[-38.544,-7.238],[-38.554,-7.252],[-38.535,-7.29],[-38.549,-7.335]]]}},{"type":"Feature","properties":{"code":"2510501"},"geometry":{"type":"Polygon","coordinates":[[[-36.233,-7.105],[-36.241,-7.075],[-36.201,-7.064],[-36.2,-7.029],[-36.177,-6.98],[-36.152,-6.97],[-36.16,-6.946],[-36.206,-6.904],[-36.261,-6.837],[-36.305,-6.941],[-36.329,-6.935],[-36.342,-6.952],[-36.282,-7.091],[-36.233,-7.105]]]}},{"type":"Feature","properties":{"code":"2502300"},"geometry":{"type":"Polygon","coordinates":[[[-37.902,-6.542],[-37.864,-6.45],[-37.919,-6.412],[-37.942,-6.424],[-38.008,-6.432],[-38.027,-6.475],[-38.013,-6.528],[-37.981,-6.53],[-37.941,-6.525],[-37.902,-6.542]]]}},{"type":"Feature","properties":{"code":"2510808"},"geometry":{"type":"Polygon","coordinates":[[[-37.52,-7.002],[-37.477,-6.992],[-37.41,-7.006],[-37.372,-6.998],[-37.35,-7.056],[-37.345,-7.098],[-37.36,-7.127],[-37.389,-7.148],[-37.337,-7.14],[-37.313,-7.086],[-37.287,-7.077],[-37.245,-7.11],[-37.232,-7.088],[-37.189,-7.059],[-37.223,-7.053],[-37.228,-7.019],[-37.173,-6.983],[-37.178,-6.924],[-37.212,-6.905],[-37.412,-6.935],[-37.443,-6.919],[-37.482,-6.916],[-37.454,-6.961],[-37.522,-6.973],[-37.52,-7.002]]]}},{"type":"Feature","properties":{"code":"2502607"},"geometry":{"type":"Polygon","coordinates":[[[-38.091,-7.235],[-38.063,-7.222],[-38.05,-7.188],[-38.075,-7.151],[-38.058,-7.089],[-38.075,-7.083],[-38.146,-7.089],[-38.177,-7.109],[-38.232,-7.132],[-38.225,-7.155],[-38.172,-7.161],[-38.158,-7.19],[-38.156,-7.222],[-38.091,-7.235]]]}},{"type":"Feature","properties":{"code":"2510907"},"geometry":{"type":"Polygon","coordinates":[[[-37.639,-6.725],[-37.575,-6.721],[-37.52,-6.711],[-37.485,-6.71],[-37.466,-6.66],[-37.48,-6.605],[-37.465,-6.533],[-37.488,-6.51],[-37.51,-6.527],[-37.54,-6.546],[-37.574,-6.551],[-37.616,-6.527],[-37.664,-6.548],[-37.743,-6.578],[-37.755,-6.596],[-37.788,-6.598],[-37.783,-6.642],[-37.657,-6.722],[-37.639,-6.725]]]}},{"type":"Feature","properties":{"code":"2502706"},"geometry":{"type":"Polygon","coordinates":[[[-35.642,-6.801],[-35.607,-6.812],[-35.575,-6.807],[-35.53,-6.771],[-35.567,-6.792],[-35.644,-6.775],[-35.642,-6.801]]]}},{"type":"Feature","properties":{"code":"2510709"},"geometry":{"type":"Polygon","coordinates":[[[-37.086,-7.109],[-37.097,-7.119],[-37.09,-7.169],[-37.054,-7.156],[-37.02,-7.191],[-36.994,-7.167],[-36.993,-7.119],[-37.007,-7.052],[-37.083,-7.072],[-37.086,-7.109]]]}},{"type":"Feature","properties":{"code":"2502508"},"geometry":{"type":"Polygon","coordinates":[[[-36.222,-7.544],[-36.217,-7.596],[-36.19,-7.641],[-36.158,-7.639],[-36.102,-7.602],[-36.087,-7.601],[-36.115,-7.572],[-36.06,-7.519],[-36.049,-7.484],[-36.095,-7.456],[-36.099,-7.39],[-36.124,-7.362],[-36.143,-7.356],[-36.146,-7.391],[-36.175,-7.381],[-36.194,-7.397],[-36.194,-7.425],[-36.217,-7.445],[-36.222,-7.544]]]}},{"type":"Feature","properties":{"code":"2510105"},"geometry":{"type":"Polygon","coordinates":[[[-36.225,-6.559],[-36.181,-6.47],[-36.175,-6.431],[-36.227,-6.434],[-36.225,-6.559]]]}},{"type":"Feature","properties":{"code":"2501906"},"geometry":{"type":"Polygon","coordinates":[[[-35.474,-6.74],[-35.498,-6.732],[-35.447,-6.676],[-35.422,-6.668],[-35.511,-6.648],[-35.526,-6.645],[-35.531,-6.675],[-35.55,-6.711],[-35.521,-6.758],[-35.497,-6.777],[-35.443,-6.753],[-35.474,-6.74]]]}},{"type":"Feature","properties":{"code":"2509909"},"geometry":{"type":"Polygon","coordinates":[[[-35.62,-7.662],[-35.588,-7.65],[-35.56,-7.661],[-35.527,-7.645],[-35.518,-7.604],[-35.537,-7.581],[-35.502,-7.513],[-35.495,-7.484],[-35.549,-7.468],[-35.546,-7.434],[-35.584,-7.451],[-35.6,-7.589],[-35.589,-7.604],[-35.657,-7.617],[-35.62,-7.662]]]}},{"type":"Feature","properties":{"code":"2501708"},"geometry":{"type":"Polygon","coordinates":[[[-36.264,-7.832],[-36.24,-7.818],[-36.254,-7.796],[-36.217,-7.764],[-36.184,-7.784],[-36.127,-7.784],[-36.127,-7.771],[-36.154,-7.757],[-36.167,-7.704],[-36.16,-7.689],[-36.19,-7.641],[-36.217,-7.596],[-36.222,-7.544],[-36.255,-7.543],[-36.288,-7.567],[-36.302,-7.597],[-36.321,-7.611],[-36.349,-7.599],[-36.367,-7.646],[-36.357,-7.675],[-36.446,-7.672],[-36.408,-7.763],[-36.399,-7.81],[-36.302,-7.808],[-36.264,-7.832]]]}},{"type":"Feature","properties":{"code":"2510006"},"geometry":{"type":"Polygon","coordinates":[[[-38.29,-7.021],[-38.264,-6.992],[-38.238,-6.937],[-38.256,-6.905],[-38.276,-6.911],[-38.312,-6.9],[-38.325,-6.875],[-38.352,-6.886],[-38.384,-6.928],[-38.428,-6.931],[-38.424,-6.967],[-38.387,-6.988],[-38.36,-6.99],[-38.327,-7.014],[-38.29,-7.021]]]}},{"type":"Feature","properties":{"code":"2501807"},"geometry":{"type":"Polygon","coordinates":[[[-34.936,-7.167],[-34.919,-7.135],[-34.894,-7.122],[-34.891,-7.094],[-34.941,-7.123],[-34.954,-7.148],[-34.936,-7.167]]]}},{"type":"Feature","properties":{"code":"2510303"},"geometry":{"type":"Polygon","coordinates":[[[-36.533,-6.734],[-36.509,-6.723],[-36.458,-6.718],[-36.402,-6.756],[-36.368,-6.738],[-36.343,-6.742],[-36.337,-6.712],[-36.308,-6.685],[-36.281,-6.679],[-36.308,-6.647],[-36.364,-6.599],[-36.403,-6.662],[-36.438,-6.629],[-36.514,-6.594],[-36.521,-6.611],[-36.559,-6.708],[-36.533,-6.734]]]}},{"type":"Feature","properties":{"code":"2502102"},"geometry":{"type":"Polygon","coordinates":[[[-38.253,-7.393],[-38.242,-7.424],[-38.26,-7.455],[-38.256,-7.488],[-38.23,-7.488],[-38.159,-7.466],[-38.149,-7.487],[-38.1,-7.481],[-38.12,-7.425],[-38.141,-7.397],[-38.174,-7.369],[-38.203,-7.377],[-38.24,-7.365],[-38.253,-7.393]]]}},{"type":"Feature","properties":{"code":"2510402"},"geometry":{"type":"Polygon","coordinates":[[[-37.901,-7.306],[-37.893,-7.337],[-37.865,-7.345],[-37.856,-7.409],[-37.841,-7.417],[-37.725,-7.387],[-37.721,-7.383],[-37.7,-7.338],[-37.669,-7.321],[-37.587,-7.333],[-37.57,-7.316],[-37.599,-7.27],[-37.613,-7.271],[-37.673,-7.211],[-37.68,-7.172],[-37.704,-7.176],[-37.739,-7.175],[-37.76,-7.14],[-37.776,-7.142],[-37.808,-7.159],[-37.826,-7.229],[-37.901,-7.306]]]}},{"type":"Feature","properties":{"code":"2502201"},"geometry":{"type":"Polygon","coordinates":[[[-38.647,-6.878],[-38.637,-6.852],[-38.606,-6.816],[-38.571,-6.798],[-38.614,-6.782],[-38.652,-6.812],[-38.672,-6.847],[-38.647,-6.878]]]}},{"type":"Feature","properties":{"code":"2510204"},"geometry":{"type":"Polygon","coordinates":[[[-37.956,-7.499],[-37.97,-7.5],[-37.996,-7.448],[-38.048,-7.417],[-38.051,-7.394],[-38.08,-7.39],[-38.046,-7.452],[-38.046,-7.514],[-38.021,-7.53],[-37.981,-7.526],[-37.956,-7.499]]]}},{"type":"Feature","properties":{"code":"2502151"},"geometry":{"type":"Polygon","coordinates":[[[-36.331,-7.308],[-36.346,-7.367],[-36.236,-7.37],[-36.196,-7.362],[-36.176,-7.347],[-36.143,-7.356],[-36.124,-7.362],[-36.115,-7.271],[-36.092,-7.198],[-36.095,-7.154],[-36.142,-7.167],[-36.169,-7.202],[-36.224,-7.198],[-36.326,-7.189],[-36.331,-7.308]]]}},{"type":"Feature","properties":{"code":"2502003"},"geometry":{"type":"Polygon","coordinates":[[[-37.616,-6.176],[-37.613,-6.272],[-37.583,-6.25],[-37.542,-6.24],[-37.485,-6.242],[-37.428,-6.197],[-37.377,-6.176],[-37.335,-6.17],[-37.302,-6.189],[-37.271,-6.186],[-37.234,-6.213],[-37.202,-6.206],[-37.157,-6.152],[-37.175,-6.142],[-37.174,-6.048],[-37.232,-6.028],[-37.257,-6.029],[-37.273,-6.056],[-37.296,-6.05],[-37.336,-6.067],[-37.354,-6.087],[-37.379,-6.085],[-37.394,-6.109],[-37.446,-6.112],[-37.459,-6.145],[-37.522,-6.152],[-37.54,-6.166],[-37.57,-6.155],[-37.616,-6.176]]]}},{"type":"Feature","properties":{"code":"2502052"},"geometry":{"type":"Polygon","coordinates":[[[-38.607,-6.529],[-38.568,-6.51],[-38.533,-6.512],[-38.521,-6.493],[-38.51,-6.457],[-38.522,-6.445],[-38.538,-6.421],[-38.57,-6.47],[-38.612,-6.513],[-38.611,-6.532],[-38.607,-6.529]]]}},{"type":"Feature","properties":{"code":"2501351"},"geometry":{"type":"Polygon","coordinates":[[[-36.779,-7.109],[-36.714,-7.139],[-36.69,-7.125],[-36.66,-7.129],[-36.668,-7.079],[-36.656,-7.05],[-36.676,-7.016],[-36.701,-7.008],[-36.726,-7.007],[-36.744,-7.029],[-36.755,-7.084],[-36.779,-7.109]]]}},{"type":"Feature","properties":{"code":"2509602"},"geometry":{"type":"Polygon","coordinates":[[[-38.554,-7.252],[-38.544,-7.238],[-38.467,-7.209],[-38.428,-7.226],[-38.406,-7.206],[-38.408,-7.202],[-38.44,-7.199],[-38.457,-7.184],[-38.518,-7.183],[-38.539,-7.167],[-38.572,-7.183],[-38.644,-7.184],[-38.625,-7.191],[-38.62,-7.22],[-38.593,-7.248],[-38.554,-7.252]]]}},{"type":"Feature","properties":{"code":"2501401"},"geometry":{"type":"Polygon","coordinates":[[[-34.931,-6.721],[-34.931,-6.688],[-34.953,-6.673],[-34.965,-6.603],[-35.005,-6.598],[-35.02,-6.619],[-35.039,-6.675],[-35.027,-6.708],[-35.0,-6.705],[-34.931,-6.721]]]}},{"type":"Feature","properties":{"code":"2509404"},"geometry":{"type":"Polygon","coordinates":[[[-35.534,-7.394],[-35.516,-7.377],[-35.464,-7.361],[-35.455,-7.329],[-35.432,-7.318],[-35.401,-7.317],[-35.422,-7.273],[-35.448,-7.257],[-35.484,-7.235],[-35.492,-7.206],[-35.515,-7.204],[-35.543,-7.201],[-35.54,-7.237],[-35.561,-7.302],[-35.537,-7.386],[-35.534,-7.394]]]}},{"type":"Feature","properties":{"code":"2509396"},"geometry":{"type":"Polygon","coordinates":[[[-37.386,-7.357],[-37.349,-7.335],[-37.357,-7.321],[-37.328,-7.288],[-37.314,-7.289],[-37.312,-7.256],[-37.334,-7.228],[-37.401,-7.259],[-37.38,-7.295],[-37.397,-7.308],[-37.386,-7.357]]]}},{"type":"Feature","properties":{"code":"2501203"},"geometry":{"type":"Polygon","coordinates":[[[-35.897,-7.08],[-35.903,-7.04],[-35.927,-7.017],[-35.957,-7.017],[-35.968,-7.071],[-35.898,-7.08],[-35.897,-7.08]]]}},{"type":"Feature","properties":{"code":"2509503"},"geometry":{"type":"Polygon","coordinates":[[[-35.898,-7.08],[-35.968,-7.071],[-35.98,-7.1],[-35.966,-7.113],[-35.931,-7.107],[-35.895,-7.086],[-35.898,-7.08]]]}},{"type":"Feature","properties":{"code":"2501302"},"geometry":{"type":"Polygon","coordinates":[[[-35.711,-7.642],[-35.679,-7.639],[-35.657,-7.617],[-35.589,-7.604],[-35.6,-7.589],[-35.584,-7.451],[-35.674,-7.46],[-35.687,-7.477],[-35.724,-7.466],[-35.756,-7.472],[-35.797,-7.472],[-35.825,-7.46],[-35.825,-7.46],[-35.83,-7.494],[-35.816,-7.524],[-35.796,-7.535],[-35.745,-7.584],[-35.735,-7.622],[-35.711,-7.642]]]}},{"type":"Feature","properties":{"code":"2509800"},"geometry":{"type":"Polygon","coordinates":[[[-35.514,-7.031],[-35.492,-7.072],[-35.452,-7.074],[-35.377,-7.033],[-35.357,-6.989],[-35.316,-6.987],[-35.342,-6.954],[-35.38,-6.933],[-35.427,-6.936],[-35.459,-6.963],[-35.514,-7.031]]]}},{"type":"Feature","properties":{"code":"2501609"},"geometry":{"type":"Polygon","coordinates":[[[-36.111,-6.932],[-36.035,-6.879],[-35.972,-6.856],[-35.898,-6.794],[-35.899,-6.744],[-35.924,-6.721],[-35.947,-6.698],[-35.981,-6.703],[-36.006,-6.673],[-35.967,-6.585],[-36.023,-6.631],[-36.106,-6.669],[-36.261,-6.837],[-36.206,-6.904],[-36.16,-6.946],[-36.111,-6.932]]]}},{"type":"Feature","properties":{"code":"2501575"},"geometry":{"type":"Polygon","coordinates":[[[-35.869,-7.663],[-35.878,-7.613],[-35.867,-7.589],[-35.834,-7.576],[-35.858,-7.547],[-35.885,-7.542],[-35.875,-7.512],[-35.922,-7.514],[-35.963,-7.491],[-36.009,-7.454],[-36.049,-7.484],[-36.06,-7.519],[-36.115,-7.572],[-36.087,-7.601],[-36.072,-7.604],[-36.051,-7.592],[-35.996,-7.59],[-35.956,-7.653],[-35.931,-7.683],[-35.869,-7.663]]]}},{"type":"Feature","properties":{"code":"2509701"},"geometry":{"type":"Polygon","coordinates":[[[-36.929,-8.037],[-36.925,-8.012],[-36.931,-7.871],[-36.961,-7.831],[-37.014,-7.749],[-37.026,-7.717],[-37.079,-7.763],[-37.152,-7.78],[-37.171,-7.8],[-37.183,-7.791],[-37.217,-7.807],[-37.223,-7.836],[-37.247,-7.847],[-37.244,-7.874],[-37.287,-7.904],[-37.309,-7.934],[-37.35,-7.949],[-37.34,-7.98],[-37.292,-7.965],[-37.22,-7.973],[-37.16,-7.997],[-37.15,-8.024],[-37.096,-8.052],[-37.068,-8.033],[-37.038,-8.044],[-36.965,-8.06],[-36.929,-8.037]]]}},{"type":"Feature","properties":{"code":"2501500"},"geometry":{"type":"Polygon","coordinates":[[[-35.53,-6.771],[-35.521,-6.758],[-35.55,-6.711],[-35.531,-6.675],[-35.526,-6.645],[-35.525,-6.608],[-35.54,-6.596],[-35.578,-6.606],[-35.609,-6.652],[-35.627,-6.656],[-35.663,-6.635],[-35.684,-6.66],[-35.687,-6.682],[-35.676,-6.728],[-35.644,-6.775],[-35.567,-6.792],[-35.53,-6.771]]]}},{"type":"Feature","properties":{"code":"2501534"},"geometry":{"type":"Polygon","coordinates":[[[-36.232,-6.597],[-36.252,-6.58],[-36.299,-6.563],[-36.271,-6.608],[-36.277,-6.656],[-36.269,-6.692],[-36.25,-6.685],[-36.242,-6.642],[-36.232,-6.597]]]}},{"type":"Feature","properties":{"code":"2509057"},"geometry":{"type":"Polygon","coordinates":[[[-35.027,-6.708],[-35.082,-6.722],[-35.092,-6.738],[-35.058,-6.775],[-34.999,-6.797],[-34.97,-6.793],[-34.953,-6.767],[-34.925,-6.768],[-34.931,-6.721],[-35.0,-6.705],[-35.027,-6.708]]]}},{"type":"Feature","properties":{"code":"2517209"},"geometry":{"type":"Polygon","coordinates":[[[-38.256,-6.608],[-38.197,-6.551],[-38.229,-6.483],[-38.257,-6.483],[-38.289,-6.506],[-38.312,-6.527],[-38.298,-6.563],[-38.342,-6.586],[-38.349,-6.615],[-38.315,-6.613],[-38.288,-6.641],[-38.256,-6.608]]]}},{"type":"Feature","properties":{"code":"2509008"},"geometry":{"type":"Polygon","coordinates":[[[-38.222,-7.82],[-38.164,-7.78],[-38.131,-7.796],[-38.114,-7.747],[-38.131,-7.735],[-38.108,-7.661],[-38.134,-7.628],[-38.129,-7.604],[-38.104,-7.571],[-38.148,-7.6],[-38.184,-7.614],[-38.179,-7.64],[-38.231,-7.647],[-38.25,-7.685],[-38.274,-7.695],[-38.311,-7.739],[-38.296,-7.775],[-38.293,-7.823],[-38.276,-7.834],[-38.222,-7.82]]]}},{"type":"Feature","properties":{"code":"2500809"},"geometry":{"type":"Polygon","coordinates":[[[-35.264,-6.956],[-35.289,-6.939],[-35.303,-6.883],[-35.297,-6.852],[-35.325,-6.825],[-35.316,-6.789],[-35.349,-6.775],[-35.37,-6.756],[-35.374,-6.757],[-35.409,-6.766],[-35.465,-6.812],[-35.433,-6.813],[-35.39,-6.848],[-35.38,-6.933],[-35.342,-6.954],[-35.316,-6.987],[-35.264,-6.956]]]}},{"type":"Feature","properties":{"code":"2509107"},"geometry":{"type":"Polygon","coordinates":[[[-35.289,-7.109],[-35.255,-7.068],[-35.255,-6.978],[-35.264,-6.956],[-35.316,-6.987],[-35.357,-6.989],[-35.377,-7.033],[-35.316,-7.115],[-35.289,-7.109]]]}},{"type":"Feature","properties":{"code":"2500908"},"geometry":{"type":"Polygon","coordinates":[[[-35.803,-6.866],[-35.769,-6.879],[-35.681,-6.89],[-35.65,-6.911],[-35.657,-6.868],[-35.693,-6.86],[-35.71,-6.837],[-35.691,-6.818],[-35.74,-6.815],[-35.783,-6.825],[-35.811,-6.839],[-35.81,-6.864],[-35.803,-6.866]]]}},{"type":"Feature","properties":{"code":"2517100"},"geometry":{"type":"Polygon","coordinates":[[[-37.01,-6.871],[-36.957,-6.816],[-36.959,-6.783],[-36.973,-6.758],[-36.978,-6.722],[-37.004,-6.71],[-37.035,-6.734],[-37.075,-6.754],[-37.128,-6.766],[-37.152,-6.798],[-37.133,-6.793],[-37.084,-6.815],[-37.057,-6.844],[-37.01,-6.871]]]}},{"type":"Feature","properties":{"code":"2500734"},"geometry":{"type":"Polygon","coordinates":[[[-37.077,-7.599],[-36.998,-7.625],[-37.002,-7.568],[-36.978,-7.543],[-37.025,-7.497],[-37.026,-7.497],[-37.079,-7.517],[-37.1,-7.599],[-37.077,-7.599]]]}},{"type":"Feature","properties":{"code":"2508901"},"geometry":{"type":"Polygon","coordinates":[[[-35.123,-6.896],[-35.101,-6.89],[-35.097,-6.852],[-35.133,-6.767],[-35.114,-6.679],[-35.121,-6.648],[-35.088,-6.625],[-35.129,-6.587],[-35.133,-6.557],[-35.117,-6.542],[-35.112,-6.505],[-35.146,-6.553],[-35.194,-6.55],[-35.202,-6.598],[-35.14,-6.656],[-35.177,-6.662],[-35.228,-6.689],[-35.215,-6.713],[-35.231,-6.761],[-35.163,-6.851],[-35.158,-6.894],[-35.123,-6.896]]]}},{"type":"Feature","properties":{"code":"2500700"},"geometry":{"type":"Polygon","coordinates":[[[-38.428,-6.931],[-38.384,-6.928],[-38.352,-6.886],[-38.379,-6.847],[-38.352,-6.788],[-38.354,-6.772],[-38.345,-6.736],[-38.357,-6.685],[-38.344,-6.657],[-38.349,-6.615],[-38.342,-6.586],[-38.372,-6.572],[-38.398,-6.599],[-38.438,-6.575],[-38.469,-6.618],[-38.483,-6.66],[-38.496,-6.663],[-38.523,-6.672],[-38.52,-6.704],[-38.493,-6.721],[-38.495,-6.785],[-38.518,-6.795],[-38.571,-6.798],[-38.492,-6.806],[-38.42,-6.821],[-38.428,-6.931]]]}},{"type":"Feature","properties":{"code":"2500775"},"geometry":{"type":"Polygon","coordinates":[[[-38.153,-6.895],[-38.139,-6.905],[-38.069,-6.877],[-38.015,-6.884],[-38.0,-6.873],[-38.011,-6.851],[-37.995,-6.821],[-38.023,-6.764],[-38.024,-6.721],[-37.982,-6.695],[-38.017,-6.67],[-38.065,-6.679],[-38.09,-6.694],[-38.099,-6.725],[-38.138,-6.755],[-38.143,-6.782],[-38.12,-6.85],[-38.153,-6.895]]]}},{"type":"Feature","properties":{"code":"2509305"},"geometry":{"type":"Polygon","coordinates":[[[-35.088,-6.625],[-35.049,-6.603],[-35.005,-6.598],[-34.965,-6.603],[-34.968,-6.487],[-34.992,-6.502],[-35.029,-6.505],[-35.058,-6.528],[-35.096,-6.498],[-35.112,-6.505],[-35.117,-6.542],[-35.133,-6.557],[-35.129,-6.587],[-35.088,-6.625]]]}},{"type":"Feature","properties":{"code":"2501104"},"geometry":{"type":"Polygon","coordinates":[[[-35.688,-7.03],[-35.648,-6.987],[-35.602,-6.969],[-35.593,-6.949],[-35.584,-6.922],[-35.65,-6.911],[-35.681,-6.89],[-35.769,-6.879],[-35.803,-6.866],[-35.807,-6.874],[-35.785,-6.907],[-35.787,-6.945],[-35.775,-6.962],[-35.777,-7.021],[-35.78,-7.026],[-35.734,-7.021],[-35.688,-7.03]]]}},{"type":"Feature","properties":{"code":"2509370"},"geometry":{"type":"Polygon","coordinates":[[[-37.803,-6.595],[-37.788,-6.598],[-37.755,-6.596],[-37.743,-6.578],[-37.664,-6.548],[-37.666,-6.537],[-37.733,-6.487],[-37.742,-6.487],[-37.765,-6.555],[-37.8,-6.574],[-37.803,-6.595]]]}},{"type":"Feature","properties":{"code":"2509339"},"geometry":{"type":"Polygon","coordinates":[[[-35.828,-7.125],[-35.786,-7.136],[-35.786,-7.151],[-35.706,-7.104],[-35.712,-7.089],[-35.737,-7.105],[-35.813,-7.102],[-35.828,-7.125]]]}},{"type":"Feature","properties":{"code":"2501153"},"geometry":{"type":"Polygon","coordinates":[[[-37.02,-7.191],[-36.934,-7.173],[-36.931,-7.15],[-36.915,-7.081],[-36.923,-7.053],[-36.943,-7.041],[-36.979,-7.058],[-37.007,-7.052],[-36.993,-7.119],[-36.994,-7.167],[-37.02,-7.191]]]}},{"type":"Feature","properties":{"code":"2509156"},"geometry":{"type":"Polygon","coordinates":[[[-38.325,-6.875],[-38.318,-6.828],[-38.29,-6.767],[-38.354,-6.772],[-38.352,-6.788],[-38.379,-6.847],[-38.352,-6.886],[-38.325,-6.875]]]}},{"type":"Feature","properties":{"code":"2517407"},"geometry":{"type":"Polygon","coordinates":[[[-37.144,-8.125],[-37.106,-8.127],[-37.076,-8.102],[-37.028,-8.1],[-37.038,-8.044],[-37.068,-8.033],[-37.096,-8.052],[-37.15,-8.024],[-37.158,-8.051],[-37.144,-8.088],[-37.144,-8.125]]]}},{"type":"Feature","properties":{"code":"2509206"},"geometry":{"type":"Polygon","coordinates":[[[-35.835,-7.196],[-35.814,-7.207],[-35.842,-7.25],[-35.764,-7.281],[-35.731,-7.277],[-35.704,-7.26],[-35.699,-7.219],[-35.712,-7.17],[-35.678,-7.146],[-35.706,-7.104],[-35.786,-7.151],[-35.825,-7.174],[-35.835,-7.196]]]}},{"type":"Feature","properties":{"code":"2501005"},"geometry":{"type":"Polygon","coordinates":[[[-35.689,-6.591],[-35.721,-6.566],[-35.688,-6.551],[-35.673,-6.508],[-35.653,-6.492],[-35.637,-6.454],[-35.665,-6.45],[-35.707,-6.47],[-35.773,-6.483],[-35.78,-6.483],[-35.87,-6.489],[-35.867,-6.545],[-35.789,-6.585],[-35.741,-6.597],[-35.732,-6.619],[-35.689,-6.591]]]}},{"type":"Feature","properties":{"code":"2516706"},"geometry":{"type":"Polygon","coordinates":[[[-37.177,-7.31],[-37.143,-7.246],[-37.175,-7.228],[-37.231,-7.198],[-37.248,-7.199],[-37.309,-7.197],[-37.334,-7.217],[-37.334,-7.228],[-37.312,-7.256],[-37.314,-7.289],[-37.261,-7.274],[-37.234,-7.274],[-37.177,-7.31]]]}},{"type":"Feature","properties":{"code":"2508505"},"geometry":{"type":"Polygon","coordinates":[[[-37.014,-7.404],[-36.975,-7.387],[-36.912,-7.388],[-36.841,-7.374],[-36.774,-7.374],[-36.777,-7.32],[-36.767,-7.306],[-36.798,-7.331],[-36.856,-7.322],[-36.962,-7.286],[-37.015,-7.249],[-37.053,-7.38],[-37.014,-7.404]]]}},{"type":"Feature","properties":{"code":"2516805"},"geometry":{"type":"Polygon","coordinates":[[[-38.52,-6.704],[-38.523,-6.672],[-38.496,-6.663],[-38.525,-6.636],[-38.537,-6.596],[-38.54,-6.55],[-38.531,-6.526],[-38.504,-6.518],[-38.521,-6.493],[-38.533,-6.512],[-38.568,-6.51],[-38.607,-6.529],[-38.643,-6.582],[-38.629,-6.605],[-38.649,-6.628],[-38.594,-6.674],[-38.579,-6.704],[-38.52,-6.704]]]}}]}