{"type":"FeatureCollection","features":[{"type":"Feature","properties":{"code":"2615706"},"geometry":{"type":"Polygon","coordinates":[[[-38.052,-7.922],[-38.026,-7.906],[-38.012,-7.881],[-38.009,-7.817],[-38.021,-7.791],[-38.001,-7.779],[-38.04,-7.748],[-38.069,-7.772],[-38.077,-7.831],[-38.12,-7.819],[-38.148,-7.845],[-38.141,-7.882],[-38.12,-7.909],[-38.087,-7.925],[-38.052,-7.922]]]}},{"type":"Feature","properties":{"code":"2607505"},"geometry":{"type":"Polygon","coordinates":[[[-37.198,-9.216],[-37.185,-9.2],[-37.161,-9.14],[-37.162,-9.073],[-37.156,-9.054],[-37.116,-9.011],[-37.099,-8.971],[-37.101,-8.96],[-37.169,-8.941],[-37.227,-8.867],[-37.239,-8.826],[-37.255,-8.812],[-37.318,-8.828],[-37.364,-8.82],[-37.366,-8.798],[-37.4,-8.841],[-37.425,-8.856],[-37.469,-8.854],[-37.461,-8.893],[-37.471,-8.932],[-37.515,-8.937],[-37.519,-8.968],[-37.468,-8.999],[-37.416,-9.007],[-37.396,-9.028],[-37.359,-9.054],[-37.297,-9.121],[-37.279,-9.152],[-37.247,-9.179],[-37.229,-9.227],[-37.198,-9.216]]]}},{"type":"Feature","properties":{"code":"2615003"},"geometry":{"type":"Polygon","coordinates":[[[-36.098,-8.005],[-36.071,-7.981],[-36.013,-7.896],[-36.017,-7.838],[-36.003,-7.813],[-36.022,-7.81],[-36.069,-7.781],[-36.127,-7.784],[-36.184,-7.784],[-36.217,-7.764],[-36.254,-7.796],[-36.24,-7.818],[-36.264,-7.832],[-36.266,-7.869],[-36.243,-7.892],[-36.17,-7.94],[-36.165,-7.966],[-36.111,-7.972],[-36.112,-7.997],[-36.098,-8.005]]]}},{"type":"Feature","properties":{"code":"2606804"},"geometry":{"type":"Polygon","coordinates":[[[-35.054,-7.88],[-34.977,-7.9],[-34.902,-7.886],[-34.866,-7.891],[-34.841,-7.845],[-34.845,-7.816],[-34.89,-7.802],[-34.923,-7.808],[-34.942,-7.722],[-34.922,-7.691],[-34.924,-7.692],[-34.962,-7.708],[-34.972,-7.729],[-35.045,-7.745],[-35.098,-7.715],[-35.099,-7.723],[-35.092,-7.74],[-35.054,-7.749],[-35.039,-7.767],[-35.032,-7.825],[-35.036,-7.868],[-35.054,-7.88]]]}},{"type":"Feature","properties":{"code":"2615102"},"geometry":{"type":"Polygon","coordinates":[[[-36.689,-9.02],[-36.691,-9.071],[-36.708,-9.109],[-36.677,-9.124],[-36.563,-9.119],[-36.533,-9.101],[-36.547,-9.079],[-36.579,-9.065],[-36.6,-9.033],[-36.637,-9.021],[-36.689,-9.02]]]}},{"type":"Feature","properties":{"code":"2606903"},"geometry":{"type":"Polygon","coordinates":[[[-37.35,-7.949],[-37.309,-7.934],[-37.287,-7.904],[-37.244,-7.874],[-37.247,-7.847],[-37.223,-7.836],[-37.217,-7.807],[-37.183,-7.791],[-37.171,-7.8],[-37.175,-7.757],[-37.187,-7.745],[-37.242,-7.742],[-37.251,-7.719],[-37.277,-7.713],[-37.324,-7.72],[-37.355,-7.769],[-37.393,-7.773],[-37.453,-7.796],[-37.48,-7.773],[-37.482,-7.75],[-37.52,-7.71],[-37.535,-7.718],[-37.522,-7.763],[-37.533,-7.781],[-37.606,-7.852],[-37.617,-7.895],[-37.617,-7.896],[-37.585,-7.891],[-37.552,-7.924],[-37.578,-7.961],[-37.561,-7.992],[-37.541,-7.979],[-37.474,-7.965],[-37.425,-7.94],[-37.403,-7.957],[-37.35,-7.949]]]}},{"type":"Feature","properties":{"code":"2606705"},"geometry":{"type":"Polygon","coordinates":[[[-36.187,-8.712],[-36.182,-8.665],[-36.154,-8.631],[-36.095,-8.591],[-36.168,-8.546],[-36.23,-8.573],[-36.267,-8.562],[-36.274,-8.562],[-36.293,-8.631],[-36.268,-8.624],[-36.248,-8.655],[-36.195,-8.712],[-36.187,-8.712]]]}},{"type":"Feature","properties":{"code":"2614857"},"geometry":{"type":"Polygon","coordinates":[[[-35.361,-8.806],[-35.284,-8.789],[-35.224,-8.754],[-35.192,-8.774],[-35.152,-8.775],[-35.126,-8.801],[-35.103,-8.785],[-35.086,-8.747],[-35.079,-8.704],[-35.088,-8.691],[-35.103,-8.686],[-35.097,-8.728],[-35.141,-8.735],[-35.264,-8.686],[-35.342,-8.725],[-35.34,-8.747],[-35.361,-8.806]]]}},{"type":"Feature","properties":{"code":"2615300"},"geometry":{"type":"Polygon","coordinates":[[[-35.429,-7.616],[-35.307,-7.612],[-35.273,-7.591],[-35.255,-7.544],[-35.208,-7.522],[-35.232,-7.505],[-35.258,-7.509],[-35.306,-7.5],[-35.313,-7.478],[-35.343,-7.422],[-35.363,-7.443],[-35.425,-7.474],[-35.434,-7.471],[-35.416,-7.495],[-35.405,-7.555],[-35.429,-7.616]]]}},{"type":"Feature","properties":{"code":"2607109"},"geometry":{"type":"Polygon","coordinates":[[[-37.415,-7.643],[-37.433,-7.665],[-37.475,-7.669],[-37.52,-7.71],[-37.482,-7.75],[-37.48,-7.773],[-37.453,-7.796],[-37.393,-7.773],[-37.355,-7.769],[-37.324,-7.72],[-37.353,-7.641],[-37.377,-7.627],[-37.415,-7.643]]]}},{"type":"Feature","properties":{"code":"2615201"},"geometry":{"type":"Polygon","coordinates":[[[-39.464,-8.239],[-39.416,-8.24],[-39.39,-8.254],[-39.358,-8.196],[-39.317,-8.183],[-39.297,-8.153],[-39.291,-8.111],[-39.316,-8.092],[-39.298,-8.043],[-39.36,-8.05],[-39.398,-8.074],[-39.415,-8.12],[-39.437,-8.151],[-39.479,-8.155],[-39.538,-8.18],[-39.543,-8.205],[-39.482,-8.224],[-39.464,-8.239]]]}},{"type":"Feature","properties":{"code":"2607000"},"geometry":{"type":"Polygon","coordinates":[[[-37.826,-8.933],[-37.826,-8.889],[-37.755,-8.846],[-37.741,-8.876],[-37.699,-8.936],[-37.633,-8.902],[-37.535,-8.802],[-37.593,-8.825],[-37.675,-8.757],[-37.656,-8.744],[-37.655,-8.713],[-37.681,-8.69],[-37.761,-8.687],[-37.799,-8.672],[-37.844,-8.68],[-37.878,-8.647],[-37.858,-8.596],[-37.932,-8.618],[-37.975,-8.658],[-38.025,-8.652],[-38.007,-8.68],[-38.005,-8.963],[-37.978,-9.02],[-37.962,-9.0],[-37.933,-8.998],[-37.892,-8.964],[-37.868,-8.959],[-37.826,-8.933]]]}},{"type":"Feature","properties":{"code":"2614501"},"geometry":{"type":"Polygon","coordinates":[[[-35.758,-7.975],[-35.654,-7.944],[-35.681,-7.91],[-35.692,-7.897],[-35.688,-7.847],[-35.708,-7.831],[-35.752,-7.809],[-35.802,-7.803],[-35.846,-7.809],[-35.822,-7.859],[-35.808,-7.917],[-35.817,-7.957],[-35.805,-7.974],[-35.758,-7.975]]]}},{"type":"Feature","properties":{"code":"2606309"},"geometry":{"type":"Polygon","coordinates":[[[-39.574,-7.871],[-39.573,-7.787],[-39.59,-7.766],[-39.61,-7.752],[-39.616,-7.704],[-39.646,-7.697],[-39.679,-7.675],[-39.712,-7.684],[-39.766,-7.667],[-39.815,-7.691],[-39.763,-7.913],[-39.574,-7.871]]]}},{"type":"Feature","properties":{"code":"2614402"},"geometry":{"type":"Polygon","coordinates":[[[-37.705,-7.617],[-37.651,-7.617],[-37.633,-7.639],[-37.609,-7.626],[-37.562,-7.634],[-37.62,-7.526],[-37.656,-7.523],[-37.735,-7.597],[-37.746,-7.609],[-37.705,-7.617]]]}},{"type":"Feature","properties":{"code":"2606200"},"geometry":{"type":"Polygon","coordinates":[[[-34.848,-7.688],[-34.835,-7.684],[-34.809,-7.63],[-34.831,-7.576],[-34.834,-7.549],[-34.854,-7.54],[-34.917,-7.542],[-34.933,-7.529],[-34.961,-7.539],[-34.985,-7.5],[-34.985,-7.462],[-35.078,-7.514],[-35.061,-7.541],[-35.047,-7.563],[-35.07,-7.581],[-35.072,-7.618],[-34.924,-7.692],[-34.922,-7.691],[-34.905,-7.683],[-34.886,-7.714],[-34.862,-7.712],[-34.848,-7.688]]]}},{"type":"Feature","properties":{"code":"2614808"},"geometry":{"type":"Polygon","coordinates":[[[-38.205,-9.104],[-38.199,-9.152],[-38.092,-9.173],[-38.066,-9.174],[-38.012,-9.156],[-37.979,-9.148],[-37.947,-9.095],[-37.93,-9.071],[-37.853,-9.0],[-37.826,-8.933],[-37.868,-8.959],[-37.892,-8.964],[-37.933,-8.998],[-37.962,-9.0],[-37.978,-9.02],[-38.005,-8.963],[-38.007,-8.68],[-38.025,-8.652],[-38.05,-8.686],[-38.066,-8.684],[-38.236,-8.855],[-38.214,-8.887],[-38.206,-8.95],[-38.213,-8.98],[-38.205,-9.104]]]}},{"type":"Feature","properties":{"code":"2606606"},"geometry":{"type":"Polygon","coordinates":[[[-37.366,-8.798],[-37.391,-8.511],[-37.368,-8.418],[-37.411,-8.434],[-37.42,-8.451],[-37.462,-8.458],[-37.482,-8.439],[-37.526,-8.439],[-37.575,-8.404],[-37.614,-8.405],[-37.595,-8.318],[-37.698,-8.383],[-37.786,-8.414],[-37.831,-8.533],[-37.858,-8.596],[-37.878,-8.647],[-37.844,-8.68],[-37.799,-8.672],[-37.761,-8.687],[-37.681,-8.69],[-37.655,-8.713],[-37.656,-8.744],[-37.675,-8.757],[-37.593,-8.825],[-37.535,-8.802],[-37.514,-8.79],[-37.366,-8.798]]]}},{"type":"Feature","properties":{"code":"2614600"},"geometry":{"type":"Polygon","coordinates":[[[-37.535,-7.718],[-37.52,-7.71],[-37.475,-7.669],[-37.433,-7.665],[-37.415,-7.643],[-37.437,-7.596],[-37.428,-7.559],[-37.45,-7.535],[-37.451,-7.511],[-37.489,-7.463],[-37.522,-7.439],[-37.528,-7.465],[-37.572,-7.489],[-37.61,-7.508],[-37.62,-7.526],[-37.562,-7.634],[-37.548,-7.652],[-37.556,-7.688],[-37.535,-7.718]]]}},{"type":"Feature","properties":{"code":"2606408"},"geometry":{"type":"Polygon","coordinates":[[[-35.635,-8.374],[-35.55,-8.358],[-35.548,-8.34],[-35.51,-8.3],[-35.513,-8.224],[-35.493,-8.186],[-35.449,-8.171],[-35.439,-8.127],[-35.462,-8.094],[-35.511,-8.058],[-35.584,-8.079],[-35.63,-8.104],[-35.656,-8.159],[-35.652,-8.203],[-35.645,-8.287],[-35.614,-8.344],[-35.635,-8.374]]]}},{"type":"Feature","properties":{"code":"2614709"},"geometry":{"type":"Polygon","coordinates":[[[-36.224,-8.454],[-36.217,-8.416],[-36.232,-8.402],[-36.209,-8.354],[-36.227,-8.284],[-36.185,-8.256],[-36.193,-8.236],[-36.207,-8.226],[-36.206,-8.236],[-36.252,-8.276],[-36.333,-8.296],[-36.335,-8.322],[-36.361,-8.389],[-36.336,-8.395],[-36.224,-8.454]]]}},{"type":"Feature","properties":{"code":"2606507"},"geometry":{"type":"Polygon","coordinates":[[[-37.055,-9.307],[-37.024,-9.316],[-37.003,-9.353],[-36.98,-9.359],[-36.956,-9.381],[-36.937,-9.377],[-36.937,-9.35],[-36.914,-9.296],[-36.88,-9.276],[-36.883,-9.264],[-36.873,-9.168],[-36.769,-9.137],[-36.785,-9.113],[-36.802,-9.086],[-36.787,-9.008],[-36.865,-8.889],[-36.866,-8.888],[-36.888,-8.933],[-36.902,-8.997],[-36.925,-9.025],[-36.94,-9.068],[-36.985,-9.129],[-36.977,-9.159],[-36.946,-9.187],[-36.974,-9.245],[-37.037,-9.276],[-37.055,-9.307]]]}},{"type":"Feature","properties":{"code":"2614006"},"geometry":{"type":"Polygon","coordinates":[[[-39.574,-7.871],[-39.559,-7.925],[-39.569,-7.988],[-39.454,-7.952],[-39.487,-8.006],[-39.484,-8.038],[-39.467,-8.056],[-39.438,-8.059],[-39.36,-8.05],[-39.298,-8.043],[-39.289,-8.049],[-39.238,-8.025],[-39.224,-7.965],[-39.22,-7.901],[-39.146,-7.827],[-39.142,-7.799],[-39.116,-7.777],[-39.27,-7.789],[-39.282,-7.751],[-39.258,-7.701],[-39.266,-7.665],[-39.307,-7.665],[-39.372,-7.615],[-39.392,-7.608],[-39.443,-7.659],[-39.492,-7.669],[-39.51,-7.698],[-39.501,-7.727],[-39.53,-7.743],[-39.569,-7.739],[-39.59,-7.766],[-39.573,-7.787],[-39.574,-7.871]]]}},{"type":"Feature","properties":{"code":"2605806"},"geometry":{"type":"Polygon","coordinates":[[[-35.916,-8.006],[-35.879,-7.99],[-35.805,-7.974],[-35.817,-7.957],[-35.808,-7.917],[-35.822,-7.859],[-35.874,-7.864],[-35.911,-7.879],[-35.911,-7.895],[-35.967,-7.908],[-35.958,-7.99],[-35.916,-8.006]]]}},{"type":"Feature","properties":{"code":"2613909"},"geometry":{"type":"Polygon","coordinates":[[[-38.55,-8.288],[-38.507,-8.307],[-38.499,-8.32],[-38.517,-8.4],[-38.515,-8.438],[-38.469,-8.402],[-38.45,-8.367],[-38.417,-8.341],[-38.407,-8.306],[-38.368,-8.281],[-38.314,-8.292],[-38.291,-8.285],[-38.265,-8.254],[-38.207,-8.285],[-38.179,-8.277],[-38.174,-8.247],[-38.152,-8.223],[-38.119,-8.221],[-38.107,-8.187],[-38.063,-8.148],[-38.028,-8.134],[-38.097,-8.054],[-38.149,-7.945],[-38.168,-7.929],[-38.163,-7.905],[-38.238,-7.906],[-38.225,-7.864],[-38.207,-7.838],[-38.222,-7.82],[-38.276,-7.834],[-38.293,-7.823],[-38.296,-7.775],[-38.311,-7.739],[-38.327,-7.694],[-38.355,-7.678],[-38.41,-7.731],[-38.434,-7.721],[-38.457,-7.718],[-38.497,-7.75],[-38.594,-7.754],[-38.623,-7.787],[-38.628,-7.822],[-38.555,-7.905],[-38.558,-7.94],[-38.608,-8.037],[-38.62,-8.099],[-38.598,-8.132],[-38.589,-8.128],[-38.537,-8.231],[-38.556,-8.266],[-38.55,-8.288]]]}},{"type":"Feature","properties":{"code":"2605707"},"geometry":{"type":"Polygon","coordinates":[[[-38.694,-8.919],[-38.674,-8.972],[-38.635,-8.987],[-38.61,-8.957],[-38.608,-8.893],[-38.57,-8.83],[-38.552,-8.823],[-38.512,-8.831],[-38.47,-8.866],[-38.458,-8.841],[-38.41,-8.817],[-38.374,-8.79],[-38.321,-8.769],[-38.305,-8.754],[-38.269,-8.754],[-38.26,-8.708],[-38.233,-8.688],[-38.19,-8.677],[-38.154,-8.696],[-38.098,-8.694],[-38.066,-8.684],[-38.05,-8.686],[-38.025,-8.652],[-37.975,-8.658],[-37.932,-8.618],[-37.858,-8.596],[-37.831,-8.533],[-37.786,-8.414],[-37.785,-8.383],[-37.801,-8.373],[-37.872,-8.408],[-37.894,-8.393],[-37.931,-8.438],[-37.967,-8.459],[-38.022,-8.45],[-38.046,-8.457],[-38.082,-8.421],[-38.168,-8.398],[-38.194,-8.319],[-38.179,-8.277],[-38.207,-8.285],[-38.265,-8.254],[-38.291,-8.285],[-38.314,-8.292],[-38.368,-8.281],[-38.407,-8.306],[-38.417,-8.341],[-38.45,-8.367],[-38.469,-8.402],[-38.515,-8.438],[-38.517,-8.4],[-38.499,-8.32],[-38.507,-8.307],[-38.55,-8.288],[-38.628,-8.616],[-38.627,-8.62],[-38.627,-8.684],[-38.641,-8.699],[-38.66,-8.798],[-38.662,-8.899],[-38.694,-8.919]]]}},{"type":"Feature","properties":{"code":"2614303"},"geometry":{"type":"Polygon","coordinates":[[[-39.616,-7.704],[-39.61,-7.752],[-39.59,-7.766],[-39.569,-7.739],[-39.53,-7.743],[-39.501,-7.727],[-39.51,-7.698],[-39.492,-7.669],[-39.443,-7.659],[-39.392,-7.608],[-39.42,-7.603],[-39.445,-7.572],[-39.474,-7.573],[-39.485,-7.533],[-39.456,-7.502],[-39.461,-7.471],[-39.502,-7.464],[-39.546,-7.484],[-39.562,-7.54],[-39.553,-7.565],[-39.599,-7.607],[-39.617,-7.644],[-39.605,-7.674],[-39.616,-7.704]]]}},{"type":"Feature","properties":{"code":"2606101"},"geometry":{"type":"Polygon","coordinates":[[[-35.428,-8.081],[-35.382,-8.072],[-35.345,-8.052],[-35.298,-8.071],[-35.258,-8.057],[-35.255,-7.999],[-35.225,-7.956],[-35.257,-7.942],[-35.304,-7.942],[-35.388,-8.003],[-35.457,-7.989],[-35.466,-8.031],[-35.439,-8.04],[-35.428,-8.081]]]}},{"type":"Feature","properties":{"code":"2614105"},"geometry":{"type":"Polygon","coordinates":[[[-37.149,-8.403],[-37.102,-8.384],[-37.071,-8.354],[-37.048,-8.348],[-37.021,-8.29],[-37.04,-8.266],[-37.082,-8.262],[-37.123,-8.209],[-37.127,-8.174],[-37.16,-8.17],[-37.144,-8.125],[-37.144,-8.088],[-37.158,-8.051],[-37.15,-8.024],[-37.16,-7.997],[-37.22,-7.973],[-37.292,-7.965],[-37.34,-7.98],[-37.35,-7.949],[-37.403,-7.957],[-37.425,-7.94],[-37.474,-7.965],[-37.541,-7.979],[-37.511,-8.057],[-37.532,-8.101],[-37.515,-8.185],[-37.533,-8.199],[-37.53,-8.227],[-37.595,-8.318],[-37.614,-8.405],[-37.575,-8.404],[-37.526,-8.439],[-37.482,-8.439],[-37.462,-8.458],[-37.42,-8.451],[-37.411,-8.434],[-37.368,-8.418],[-37.363,-8.406],[-37.309,-8.4],[-37.281,-8.388],[-37.222,-8.406],[-37.187,-8.421],[-37.149,-8.403]]]}},{"type":"Feature","properties":{"code":"2605905"},"geometry":{"type":"Polygon","coordinates":[[[-35.342,-8.725],[-35.358,-8.69],[-35.343,-8.652],[-35.309,-8.628],[-35.265,-8.631],[-35.334,-8.577],[-35.357,-8.541],[-35.391,-8.555],[-35.428,-8.54],[-35.429,-8.509],[-35.462,-8.513],[-35.471,-8.546],[-35.443,-8.556],[-35.488,-8.584],[-35.474,-8.628],[-35.395,-8.683],[-35.404,-8.714],[-35.342,-8.725]]]}},{"type":"Feature","properties":{"code":"2614204"},"geometry":{"type":"Polygon","coordinates":[[[-35.088,-8.691],[-35.048,-8.609],[-35.065,-8.597],[-35.078,-8.529],[-35.126,-8.519],[-35.145,-8.489],[-35.203,-8.479],[-35.24,-8.475],[-35.273,-8.488],[-35.268,-8.53],[-35.281,-8.561],[-35.264,-8.631],[-35.248,-8.653],[-35.212,-8.65],[-35.184,-8.603],[-35.141,-8.646],[-35.126,-8.648],[-35.103,-8.686],[-35.088,-8.691]]]}},{"type":"Feature","properties":{"code":"2606002"},"geometry":{"type":"Polygon","coordinates":[[[-36.465,-9.078],[-36.41,-9.039],[-36.367,-9.019],[-36.378,-8.989],[-36.4,-8.956],[-36.416,-8.907],[-36.449,-8.882],[-36.462,-8.845],[-36.444,-8.8],[-36.487,-8.796],[-36.54,-8.784],[-36.582,-8.826],[-36.543,-8.881],[-36.605,-8.892],[-36.612,-8.906],[-36.607,-8.942],[-36.631,-8.957],[-36.637,-9.021],[-36.6,-9.033],[-36.591,-8.995],[-36.556,-8.966],[-36.51,-8.954],[-36.48,-8.97],[-36.478,-9.086],[-36.465,-9.078]]]}},{"type":"Feature","properties":{"code":"2613503"},"geometry":{"type":"Polygon","coordinates":[[[-38.598,-8.132],[-38.62,-8.099],[-38.608,-8.037],[-38.558,-7.94],[-38.555,-7.905],[-38.628,-7.822],[-38.623,-7.787],[-38.594,-7.754],[-38.626,-7.696],[-38.687,-7.635],[-38.715,-7.622],[-38.717,-7.626],[-38.743,-7.66],[-38.761,-7.656],[-38.824,-7.678],[-38.828,-7.72],[-38.87,-7.712],[-38.895,-7.75],[-38.94,-7.759],[-38.94,-7.792],[-38.962,-7.844],[-38.949,-7.892],[-38.911,-7.928],[-38.89,-7.966],[-38.878,-8.01],[-38.83,-8.017],[-38.778,-8.003],[-38.739,-8.023],[-38.692,-8.066],[-38.688,-8.1],[-38.635,-8.145],[-38.598,-8.132]]]}},{"type":"Feature","properties":{"code":"2605301"},"geometry":{"type":"Polygon","coordinates":[[[-39.815,-7.691],[-39.766,-7.667],[-39.712,-7.684],[-39.679,-7.675],[-39.646,-7.697],[-39.616,-7.704],[-39.605,-7.674],[-39.617,-7.644],[-39.599,-7.607],[-39.553,-7.565],[-39.562,-7.54],[-39.546,-7.484],[-39.572,-7.43],[-39.6,-7.428],[-39.627,-7.427],[-39.646,-7.381],[-39.706,-7.338],[-39.741,-7.327],[-39.829,-7.332],[-39.858,-7.325],[-39.889,-7.34],[-39.905,-7.338],[-39.904,-7.707],[-39.815,-7.691]]]}},{"type":"Feature","properties":{"code":"2605152"},"geometry":{"type":"Polygon","coordinates":[[[-40.758,-8.623],[-40.579,-8.667],[-40.431,-8.645],[-40.443,-8.618],[-40.416,-8.562],[-40.347,-8.509],[-40.357,-8.499],[-40.361,-8.442],[-40.41,-8.402],[-40.435,-8.39],[-40.453,-8.363],[-40.478,-8.361],[-40.533,-8.381],[-40.574,-8.362],[-40.623,-8.368],[-40.646,-8.381],[-40.706,-8.347],[-40.754,-8.343],[-40.764,-8.303],[-40.78,-8.296],[-40.793,-8.32],[-40.818,-8.32],[-40.819,-8.361],[-40.837,-8.381],[-40.862,-8.371],[-40.852,-8.446],[-40.848,-8.554],[-40.758,-8.623]]]}},{"type":"Feature","properties":{"code":"2613404"},"geometry":{"type":"Polygon","coordinates":[[[-35.153,-8.914],[-35.13,-8.862],[-35.14,-8.843],[-35.137,-8.829],[-35.261,-8.856],[-35.235,-8.883],[-35.171,-8.891],[-35.153,-8.914]]]}},{"type":"Feature","properties":{"code":"2605202"},"geometry":{"type":"Polygon","coordinates":[[[-35.203,-8.479],[-35.238,-8.418],[-35.171,-8.355],[-35.14,-8.31],[-35.152,-8.279],[-35.191,-8.294],[-35.238,-8.292],[-35.265,-8.243],[-35.276,-8.285],[-35.3,-8.308],[-35.347,-8.294],[-35.358,-8.3],[-35.344,-8.376],[-35.364,-8.396],[-35.346,-8.428],[-35.331,-8.437],[-35.316,-8.479],[-35.29,-8.464],[-35.273,-8.488],[-35.24,-8.475],[-35.203,-8.479]]]}},{"type":"Feature","properties":{"code":"2613800"},"geometry":{"type":"Polygon","coordinates":[[[-35.445,-7.692],[-35.445,-7.65],[-35.463,-7.617],[-35.45,-7.603],[-35.466,-7.551],[-35.49,-7.556],[-35.502,-7.513],[-35.537,-7.581],[-35.518,-7.604],[-35.527,-7.645],[-35.523,-7.663],[-35.516,-7.651],[-35.445,-7.692]]]}},{"type":"Feature","properties":{"code":"2605608"},"geometry":{"type":"Polygon","coordinates":[[[-37.811,-8.081],[-37.784,-8.032],[-37.705,-8.004],[-37.691,-7.984],[-37.746,-7.872],[-37.831,-7.822],[-37.847,-7.803],[-37.879,-7.781],[-37.958,-7.766],[-38.001,-7.779],[-38.021,-7.791],[-38.009,-7.817],[-38.012,-7.881],[-38.026,-7.906],[-38.052,-7.922],[-38.035,-7.962],[-38.09,-8.014],[-38.048,-8.033],[-38.016,-8.083],[-37.939,-8.069],[-37.849,-8.084],[-37.811,-8.081]]]}},{"type":"Feature","properties":{"code":"2613602"},"geometry":{"type":"Polygon","coordinates":[[[-37.45,-7.535],[-37.428,-7.559],[-37.437,-7.596],[-37.415,-7.643],[-37.377,-7.627],[-37.346,-7.603],[-37.305,-7.603],[-37.217,-7.692],[-37.189,-7.713],[-37.15,-7.717],[-37.161,-7.698],[-37.195,-7.652],[-37.198,-7.635],[-37.164,-7.575],[-37.118,-7.534],[-37.079,-7.517],[-37.026,-7.497],[-37.126,-7.489],[-37.159,-7.495],[-37.162,-7.465],[-37.186,-7.453],[-37.202,-7.412],[-37.227,-7.414],[-37.27,-7.393],[-37.29,-7.395],[-37.314,-7.367],[-37.367,-7.379],[-37.364,-7.41],[-37.376,-7.474],[-37.424,-7.504],[-37.45,-7.535]]]}},{"type":"Feature","properties":{"code":"2605400"},"geometry":{"type":"Polygon","coordinates":[[[-35.457,-7.989],[-35.388,-8.003],[-35.304,-7.942],[-35.324,-7.932],[-35.355,-7.891],[-35.415,-7.924],[-35.442,-7.961],[-35.457,-7.989]]]}},{"type":"Feature","properties":{"code":"2613701"},"geometry":{"type":"Polygon","coordinates":[[[-35.198,-8.081],[-35.155,-8.09],[-35.124,-8.078],[-35.102,-8.088],[-35.058,-8.088],[-35.055,-8.067],[-35.017,-8.056],[-34.996,-8.037],[-35.011,-8.038],[-35.017,-7.99],[-35.009,-7.972],[-35.037,-7.94],[-35.074,-7.951],[-35.099,-7.973],[-35.156,-7.97],[-35.166,-7.977],[-35.222,-8.019],[-35.204,-8.038],[-35.198,-8.081]]]}},{"type":"Feature","properties":{"code":"2605509"},"geometry":{"type":"Polygon","coordinates":[[[-35.313,-7.478],[-35.306,-7.5],[-35.258,-7.509],[-35.232,-7.505],[-35.208,-7.522],[-35.157,-7.502],[-35.237,-7.441],[-35.26,-7.421],[-35.313,-7.478]]]}},{"type":"Feature","properties":{"code":"2605459"},"geometry":{"type":"Polygon","coordinates":[[[-32.476,-3.876],[-32.435,-3.87],[-32.408,-3.857],[-32.403,-3.836],[-32.448,-3.856],[-32.476,-3.876]]]}},{"type":"Feature","properties":{"code":"2613008"},"geometry":{"type":"Polygon","coordinates":[[[-36.487,-8.704],[-36.448,-8.658],[-36.383,-8.635],[-36.332,-8.615],[-36.328,-8.571],[-36.307,-8.531],[-36.321,-8.488],[-36.356,-8.426],[-36.361,-8.389],[-36.424,-8.387],[-36.436,-8.399],[-36.47,-8.39],[-36.48,-8.407],[-36.511,-8.402],[-36.509,-8.454],[-36.558,-8.507],[-36.614,-8.558],[-36.603,-8.594],[-36.588,-8.601],[-36.568,-8.637],[-36.542,-8.623],[-36.534,-8.659],[-36.502,-8.68],[-36.487,-8.704]]]}},{"type":"Feature","properties":{"code":"2604809"},"geometry":{"type":"Polygon","coordinates":[[[-35.543,-8.488],[-35.525,-8.505],[-35.5,-8.498],[-35.503,-8.479],[-35.446,-8.452],[-35.459,-8.456],[-35.501,-8.434],[-35.514,-8.39],[-35.534,-8.383],[-35.548,-8.34],[-35.55,-8.358],[-35.597,-8.413],[-35.577,-8.431],[-35.551,-8.433],[-35.543,-8.488]]]}},{"type":"Feature","properties":{"code":"2612901"},"geometry":{"type":"Polygon","coordinates":[[[-35.845,-8.873],[-35.847,-8.808],[-35.861,-8.751],[-35.967,-8.743],[-35.966,-8.751],[-35.955,-8.813],[-35.951,-8.892],[-35.924,-8.885],[-35.911,-8.861],[-35.861,-8.859],[-35.845,-8.873]]]}},{"type":"Feature","properties":{"code":"2604700"},"geometry":{"type":"Polygon","coordinates":[[[-36.291,-9.174],[-36.265,-9.166],[-36.257,-9.14],[-36.267,-9.102],[-36.241,-9.099],[-36.21,-9.073],[-36.196,-9.045],[-36.253,-9.059],[-36.295,-9.05],[-36.359,-9.047],[-36.367,-9.019],[-36.41,-9.039],[-36.465,-9.078],[-36.442,-9.072],[-36.415,-9.088],[-36.403,-9.223],[-36.356,-9.218],[-36.322,-9.185],[-36.291,-9.174]]]}},{"type":"Feature","properties":{"code":"2613206"},"geometry":{"type":"Polygon","coordinates":[[[-36.444,-8.8],[-36.462,-8.845],[-36.449,-8.882],[-36.416,-8.907],[-36.4,-8.956],[-36.378,-8.989],[-36.327,-8.976],[-36.306,-8.953],[-36.322,-8.869],[-36.315,-8.843],[-36.342,-8.801],[-36.399,-8.788],[-36.401,-8.777],[-36.444,-8.8]]]}},{"type":"Feature","properties":{"code":"2605004"},"geometry":{"type":"Polygon","coordinates":[[[-35.948,-8.63],[-35.898,-8.612],[-35.853,-8.606],[-35.85,-8.593],[-35.884,-8.576],[-35.879,-8.547],[-35.899,-8.561],[-35.948,-8.535],[-35.969,-8.536],[-35.996,-8.547],[-35.97,-8.615],[-35.948,-8.63]]]}},{"type":"Feature","properties":{"code":"2613305"},"geometry":{"type":"Polygon","coordinates":[[[-35.879,-8.547],[-35.884,-8.576],[-35.85,-8.593],[-35.85,-8.541],[-35.825,-8.523],[-35.839,-8.48],[-35.771,-8.454],[-35.748,-8.43],[-35.762,-8.384],[-35.773,-8.373],[-35.839,-8.388],[-35.846,-8.379],[-35.903,-8.384],[-35.92,-8.421],[-35.903,-8.435],[-35.904,-8.463],[-35.888,-8.498],[-35.901,-8.514],[-35.879,-8.547]]]}},{"type":"Feature","properties":{"code":"2605103"},"geometry":{"type":"Polygon","coordinates":[[[-37.894,-8.393],[-37.872,-8.408],[-37.801,-8.373],[-37.785,-8.383],[-37.786,-8.414],[-37.698,-8.383],[-37.595,-8.318],[-37.53,-8.227],[-37.533,-8.199],[-37.515,-8.185],[-37.532,-8.101],[-37.511,-8.057],[-37.541,-7.979],[-37.561,-7.992],[-37.578,-7.961],[-37.552,-7.924],[-37.585,-7.891],[-37.617,-7.896],[-37.63,-7.9],[-37.67,-7.968],[-37.691,-7.984],[-37.705,-8.004],[-37.784,-8.032],[-37.811,-8.081],[-37.798,-8.211],[-37.839,-8.249],[-37.848,-8.272],[-37.854,-8.348],[-37.894,-8.393]]]}},{"type":"Feature","properties":{"code":"2613107"},"geometry":{"type":"Polygon","coordinates":[[[-36.218,-8.488],[-36.134,-8.428],[-36.131,-8.401],[-36.098,-8.383],[-36.063,-8.383],[-36.075,-8.242],[-36.123,-8.187],[-36.139,-8.192],[-36.193,-8.236],[-36.185,-8.256],[-36.227,-8.284],[-36.209,-8.354],[-36.232,-8.402],[-36.217,-8.416],[-36.224,-8.454],[-36.218,-8.488]]]}},{"type":"Feature","properties":{"code":"2604908"},"geometry":{"type":"Polygon","coordinates":[[[-35.65,-8.105],[-35.64,-8.042],[-35.61,-8.011],[-35.654,-7.944],[-35.758,-7.975],[-35.764,-8.008],[-35.788,-8.018],[-35.8,-8.044],[-35.84,-8.073],[-35.838,-8.114],[-35.65,-8.105]]]}},{"type":"Feature","properties":{"code":"2612471"},"geometry":{"type":"Polygon","coordinates":[[[-38.222,-7.82],[-38.207,-7.838],[-38.225,-7.864],[-38.238,-7.906],[-38.163,-7.905],[-38.12,-7.909],[-38.141,-7.882],[-38.148,-7.845],[-38.12,-7.819],[-38.131,-7.796],[-38.164,-7.78],[-38.222,-7.82]]]}},{"type":"Feature","properties":{"code":"2612455"},"geometry":{"type":"Polygon","coordinates":[[[-40.109,-8.348],[-40.087,-8.337],[-40.201,-8.256],[-40.197,-8.221],[-40.219,-8.221],[-40.233,-8.174],[-40.257,-8.139],[-40.23,-8.109],[-40.222,-8.075],[-40.316,-8.057],[-40.354,-8.087],[-40.381,-8.075],[-40.412,-8.083],[-40.428,-8.07],[-40.446,-8.275],[-40.46,-8.308],[-40.433,-8.352],[-40.435,-8.39],[-40.41,-8.402],[-40.361,-8.442],[-40.357,-8.499],[-40.347,-8.509],[-40.33,-8.517],[-40.207,-8.503],[-40.196,-8.512],[-40.197,-8.464],[-40.178,-8.419],[-40.152,-8.406],[-40.134,-8.361],[-40.109,-8.348]]]}},{"type":"Feature","properties":{"code":"2612505"},"geometry":{"type":"Polygon","coordinates":[[[-36.444,-7.92],[-36.325,-7.968],[-36.292,-7.944],[-36.263,-7.954],[-36.165,-7.966],[-36.17,-7.94],[-36.243,-7.892],[-36.266,-7.869],[-36.264,-7.832],[-36.302,-7.808],[-36.399,-7.81],[-36.43,-7.827],[-36.43,-7.887],[-36.446,-7.916],[-36.444,-7.92]]]}},{"type":"Feature","properties":{"code":"2604304"},"geometry":{"type":"Polygon","coordinates":[[[-39.266,-7.665],[-39.258,-7.701],[-39.282,-7.751],[-39.27,-7.789],[-39.116,-7.777],[-39.103,-7.771],[-39.147,-7.718],[-39.171,-7.715],[-39.208,-7.689],[-39.253,-7.705],[-39.266,-7.665]]]}},{"type":"Feature","properties":{"code":"2604155"},"geometry":{"type":"Polygon","coordinates":[[[-35.708,-7.831],[-35.711,-7.796],[-35.672,-7.758],[-35.637,-7.761],[-35.674,-7.724],[-35.68,-7.704],[-35.695,-7.694],[-35.736,-7.71],[-35.79,-7.74],[-35.767,-7.772],[-35.752,-7.809],[-35.708,-7.831]]]}},{"type":"Feature","properties":{"code":"2612307"},"geometry":{"type":"Polygon","coordinates":[[[-36.785,-9.113],[-36.75,-9.088],[-36.74,-9.062],[-36.705,-9.021],[-36.689,-9.02],[-36.637,-9.021],[-36.631,-8.957],[-36.65,-8.934],[-36.736,-8.95],[-36.865,-8.889],[-36.787,-9.008],[-36.802,-9.086],[-36.785,-9.113]]]}},{"type":"Feature","properties":{"code":"2604106"},"geometry":{"type":"Polygon","coordinates":[[[-36.123,-8.187],[-36.075,-8.242],[-36.063,-8.383],[-36.037,-8.386],[-36.007,-8.361],[-35.987,-8.389],[-35.972,-8.359],[-35.921,-8.366],[-35.893,-8.351],[-35.857,-8.306],[-35.856,-8.271],[-35.88,-8.206],[-35.922,-8.203],[-35.976,-8.167],[-35.985,-8.144],[-35.916,-8.006],[-35.958,-7.99],[-36.005,-7.976],[-36.012,-7.988],[-36.082,-8.022],[-36.098,-8.005],[-36.112,-7.997],[-36.155,-8.033],[-36.181,-8.071],[-36.167,-8.101],[-36.178,-8.144],[-36.138,-8.19],[-36.123,-8.187]]]}},{"type":"Feature","properties":{"code":"2612406"},"geometry":{"type":"Polygon","coordinates":[[[-36.558,-8.507],[-36.509,-8.454],[-36.511,-8.402],[-36.493,-8.384],[-36.501,-8.325],[-36.525,-8.307],[-36.498,-8.288],[-36.486,-8.253],[-36.508,-8.231],[-36.531,-8.239],[-36.56,-8.282],[-36.603,-8.311],[-36.628,-8.345],[-36.582,-8.464],[-36.558,-8.507]]]}},{"type":"Feature","properties":{"code":"2604205"},"geometry":{"type":"Polygon","coordinates":[[[-35.721,-8.801],[-35.663,-8.739],[-35.708,-8.73],[-35.669,-8.669],[-35.696,-8.633],[-35.691,-8.598],[-35.714,-8.58],[-35.754,-8.583],[-35.773,-8.6],[-35.803,-8.595],[-35.76,-8.673],[-35.81,-8.673],[-35.814,-8.675],[-35.818,-8.696],[-35.746,-8.723],[-35.774,-8.766],[-35.742,-8.75],[-35.724,-8.759],[-35.721,-8.801]]]}},{"type":"Feature","properties":{"code":"2612703"},"geometry":{"type":"Polygon","coordinates":[[[-35.911,-7.879],[-35.874,-7.864],[-35.822,-7.859],[-35.846,-7.809],[-35.853,-7.785],[-35.881,-7.766],[-35.898,-7.789],[-35.943,-7.79],[-35.915,-7.846],[-35.911,-7.879]]]}},{"type":"Feature","properties":{"code":"2604502"},"geometry":{"type":"Polygon","coordinates":[[[-35.51,-8.3],[-35.499,-8.308],[-35.467,-8.261],[-35.439,-8.253],[-35.429,-8.216],[-35.449,-8.171],[-35.493,-8.186],[-35.513,-8.224],[-35.51,-8.3]]]}},{"type":"Feature","properties":{"code":"2612802"},"geometry":{"type":"Polygon","coordinates":[[[-37.45,-7.535],[-37.424,-7.504],[-37.376,-7.474],[-37.364,-7.41],[-37.367,-7.379],[-37.41,-7.38],[-37.432,-7.357],[-37.496,-7.365],[-37.488,-7.389],[-37.522,-7.439],[-37.489,-7.463],[-37.451,-7.511],[-37.45,-7.535]]]}},{"type":"Feature","properties":{"code":"2604601"},"geometry":{"type":"Polygon","coordinates":[[[-35.097,-7.544],[-35.129,-7.565],[-35.147,-7.62],[-35.122,-7.669],[-35.122,-7.67],[-35.072,-7.618],[-35.07,-7.581],[-35.047,-7.563],[-35.061,-7.541],[-35.097,-7.544]]]}},{"type":"Feature","properties":{"code":"2612604"},"geometry":{"type":"Polygon","coordinates":[[[-40.196,-8.512],[-40.165,-8.549],[-40.165,-8.574],[-40.132,-8.607],[-40.101,-8.612],[-40.074,-8.632],[-40.068,-8.75],[-40.097,-8.957],[-40.086,-8.95],[-40.037,-8.979],[-40.024,-9.058],[-40.005,-9.06],[-39.978,-9.055],[-39.956,-9.046],[-39.889,-8.966],[-39.874,-8.937],[-39.879,-8.902],[-39.901,-8.864],[-39.893,-8.829],[-39.82,-8.813],[-39.789,-8.819],[-39.748,-8.794],[-39.695,-8.8],[-39.673,-8.785],[-39.674,-8.745],[-39.693,-8.681],[-39.689,-8.661],[-39.646,-8.66],[-39.643,-8.519],[-39.654,-8.478],[-39.672,-8.457],[-39.714,-8.409],[-39.747,-8.348],[-39.808,-8.33],[-39.851,-8.336],[-39.898,-8.374],[-39.94,-8.364],[-39.964,-8.378],[-40.011,-8.356],[-40.082,-8.371],[-40.109,-8.348],[-40.134,-8.361],[-40.152,-8.406],[-40.178,-8.419],[-40.197,-8.464],[-40.196,-8.512]]]}},{"type":"Feature","properties":{"code":"2604403"},"geometry":{"type":"Polygon","coordinates":[[[-35.225,-7.956],[-35.255,-7.999],[-35.258,-8.057],[-35.222,-8.019],[-35.166,-7.977],[-35.225,-7.956]]]}},{"type":"Feature","properties":{"code":"2612554"},"geometry":{"type":"Polygon","coordinates":[[[-40.78,-8.296],[-40.764,-8.303],[-40.754,-8.343],[-40.706,-8.347],[-40.646,-8.381],[-40.623,-8.368],[-40.574,-8.362],[-40.533,-8.381],[-40.478,-8.361],[-40.453,-8.363],[-40.435,-8.39],[-40.433,-8.352],[-40.46,-8.308],[-40.446,-8.275],[-40.428,-8.07],[-40.434,-8.032],[-40.576,-8.03],[-40.604,-8.104],[-40.59,-8.138],[-40.605,-8.15],[-40.633,-8.139],[-40.645,-8.158],[-40.701,-8.203],[-40.711,-8.225],[-40.783,-8.254],[-40.78,-8.296]]]}},{"type":"Feature","properties":{"code":"2612000"},"geometry":{"type":"Polygon","coordinates":[[[-35.7,-8.373],[-35.635,-8.374],[-35.614,-8.344],[-35.645,-8.287],[-35.652,-8.203],[-35.712,-8.225],[-35.719,-8.249],[-35.758,-8.29],[-35.73,-8.315],[-35.739,-8.338],[-35.722,-8.388],[-35.7,-8.373]]]}},{"type":"Feature","properties":{"code":"2603801"},"geometry":{"type":"Polygon","coordinates":[[[-36.487,-8.796],[-36.516,-8.77],[-36.515,-8.732],[-36.487,-8.704],[-36.502,-8.68],[-36.534,-8.659],[-36.542,-8.623],[-36.568,-8.637],[-36.588,-8.601],[-36.603,-8.594],[-36.614,-8.558],[-36.666,-8.594],[-36.688,-8.634],[-36.69,-8.67],[-36.702,-8.724],[-36.628,-8.756],[-36.62,-8.771],[-36.578,-8.77],[-36.556,-8.758],[-36.54,-8.784],[-36.487,-8.796]]]}},{"type":"Feature","properties":{"code":"2611804"},"geometry":{"type":"Polygon","coordinates":[[[-35.273,-8.488],[-35.29,-8.464],[-35.316,-8.479],[-35.331,-8.437],[-35.346,-8.428],[-35.388,-8.418],[-35.406,-8.428],[-35.425,-8.427],[-35.446,-8.452],[-35.503,-8.479],[-35.5,-8.498],[-35.487,-8.506],[-35.471,-8.546],[-35.462,-8.513],[-35.429,-8.509],[-35.428,-8.54],[-35.391,-8.555],[-35.357,-8.541],[-35.334,-8.577],[-35.265,-8.631],[-35.264,-8.631],[-35.281,-8.561],[-35.268,-8.53],[-35.273,-8.488]]]}},{"type":"Feature","properties":{"code":"2603603"},"geometry":{"type":"Polygon","coordinates":[[[-35.313,-7.478],[-35.26,-7.421],[-35.237,-7.441],[-35.273,-7.404],[-35.333,-7.415],[-35.343,-7.422],[-35.313,-7.478]]]}},{"type":"Feature","properties":{"code":"2611903"},"geometry":{"type":"Polygon","coordinates":[[[-35.342,-8.725],[-35.264,-8.686],[-35.141,-8.735],[-35.097,-8.728],[-35.103,-8.686],[-35.126,-8.648],[-35.141,-8.646],[-35.184,-8.603],[-35.212,-8.65],[-35.248,-8.653],[-35.264,-8.631],[-35.265,-8.631],[-35.309,-8.628],[-35.343,-8.652],[-35.358,-8.69],[-35.342,-8.725]]]}},{"type":"Feature","properties":{"code":"2603702"},"geometry":{"type":"Polygon","coordinates":[[[-36.233,-8.933],[-36.244,-9.0],[-36.16,-9.033],[-36.111,-9.018],[-36.104,-8.999],[-36.129,-8.977],[-36.128,-8.958],[-36.082,-8.941],[-36.064,-8.915],[-36.033,-8.908],[-36.061,-8.895],[-36.121,-8.837],[-36.176,-8.784],[-36.217,-8.793],[-36.187,-8.712],[-36.195,-8.712],[-36.219,-8.714],[-36.249,-8.787],[-36.3,-8.832],[-36.269,-8.839],[-36.216,-8.884],[-36.233,-8.933]]]}},{"type":"Feature","properties":{"code":"2612208"},"geometry":{"type":"Polygon","coordinates":[[[-38.812,-8.235],[-38.88,-8.21],[-38.87,-8.17],[-38.906,-8.159],[-38.937,-8.125],[-38.911,-8.087],[-38.968,-8.09],[-38.996,-8.062],[-39.065,-8.061],[-39.103,-8.029],[-39.094,-7.994],[-39.075,-7.965],[-39.077,-7.904],[-39.016,-7.825],[-39.018,-7.813],[-39.088,-7.833],[-39.103,-7.771],[-39.116,-7.777],[-39.142,-7.799],[-39.146,-7.827],[-39.22,-7.901],[-39.224,-7.965],[-39.238,-8.025],[-39.289,-8.049],[-39.298,-8.043],[-39.316,-8.092],[-39.291,-8.111],[-39.297,-8.153],[-39.317,-8.183],[-39.302,-8.227],[-39.249,-8.214],[-39.209,-8.227],[-39.047,-8.38],[-38.997,-8.374],[-38.994,-8.355],[-38.928,-8.357],[-38.911,-8.331],[-38.84,-8.276],[-38.812,-8.235]]]}},{"type":"Feature","properties":{"code":"2604007"},"geometry":{"type":"Polygon","coordinates":[[[-35.241,-7.888],[-35.215,-7.889],[-35.226,-7.824],[-35.252,-7.809],[-35.304,-7.766],[-35.317,-7.774],[-35.393,-7.762],[-35.406,-7.776],[-35.406,-7.825],[-35.376,-7.818],[-35.291,-7.829],[-35.29,-7.874],[-35.267,-7.891],[-35.241,-7.888]]]}},{"type":"Feature","properties":{"code":"2603900"},"geometry":{"type":"Polygon","coordinates":[[[-37.691,-7.984],[-37.67,-7.968],[-37.63,-7.9],[-37.617,-7.896],[-37.617,-7.895],[-37.672,-7.823],[-37.706,-7.77],[-37.682,-7.762],[-37.691,-7.731],[-37.681,-7.639],[-37.705,-7.617],[-37.746,-7.609],[-37.753,-7.626],[-37.767,-7.657],[-37.783,-7.684],[-37.798,-7.755],[-37.847,-7.803],[-37.831,-7.822],[-37.746,-7.872],[-37.691,-7.984]]]}},{"type":"Feature","properties":{"code":"2612109"},"geometry":{"type":"Polygon","coordinates":[[[-35.654,-7.944],[-35.601,-7.936],[-35.58,-7.947],[-35.514,-7.939],[-35.521,-7.904],[-35.561,-7.89],[-35.587,-7.896],[-35.616,-7.88],[-35.681,-7.91],[-35.654,-7.944]]]}},{"type":"Feature","properties":{"code":"2603926"},"geometry":{"type":"Polygon","coordinates":[[[-38.628,-8.616],[-38.55,-8.288],[-38.629,-8.311],[-38.65,-8.291],[-38.739,-8.245],[-38.812,-8.235],[-38.84,-8.276],[-38.911,-8.331],[-38.889,-8.348],[-38.87,-8.409],[-38.85,-8.426],[-38.849,-8.469],[-38.829,-8.505],[-38.799,-8.514],[-38.757,-8.575],[-38.666,-8.596],[-38.628,-8.616]]]}},{"type":"Feature","properties":{"code":"2611408"},"geometry":{"type":"Polygon","coordinates":[[[-35.406,-8.428],[-35.388,-8.418],[-35.346,-8.428],[-35.364,-8.396],[-35.344,-8.376],[-35.358,-8.3],[-35.366,-8.299],[-35.377,-8.269],[-35.414,-8.268],[-35.439,-8.253],[-35.467,-8.261],[-35.373,-8.381],[-35.406,-8.428]]]}},{"type":"Feature","properties":{"code":"2603207"},"geometry":{"type":"Polygon","coordinates":[[[-36.612,-8.906],[-36.605,-8.892],[-36.543,-8.881],[-36.582,-8.826],[-36.54,-8.784],[-36.556,-8.758],[-36.578,-8.77],[-36.62,-8.771],[-36.628,-8.756],[-36.702,-8.724],[-36.773,-8.732],[-36.759,-8.775],[-36.779,-8.802],[-36.759,-8.834],[-36.667,-8.832],[-36.672,-8.855],[-36.612,-8.906]]]}},{"type":"Feature","properties":{"code":"2611507"},"geometry":{"type":"Polygon","coordinates":[[[-35.951,-8.892],[-35.955,-8.813],[-35.966,-8.751],[-35.986,-8.781],[-36.027,-8.777],[-36.056,-8.755],[-36.075,-8.771],[-36.091,-8.777],[-36.121,-8.837],[-36.061,-8.895],[-36.033,-8.908],[-35.988,-8.904],[-35.951,-8.892]]]}},{"type":"Feature","properties":{"code":"2603306"},"geometry":{"type":"Polygon","coordinates":[[[-36.3,-8.832],[-36.249,-8.787],[-36.382,-8.635],[-36.369,-8.688],[-36.372,-8.744],[-36.329,-8.799],[-36.3,-8.832]]]}},{"type":"Feature","properties":{"code":"2611309"},"geometry":{"type":"Polygon","coordinates":[[[-35.366,-8.299],[-35.339,-8.278],[-35.355,-8.183],[-35.343,-8.118],[-35.43,-8.081],[-35.462,-8.094],[-35.439,-8.127],[-35.449,-8.171],[-35.429,-8.216],[-35.439,-8.253],[-35.414,-8.268],[-35.377,-8.269],[-35.366,-8.299]]]}},{"type":"Feature","properties":{"code":"2603108"},"geometry":{"type":"Polygon","coordinates":[[[-36.361,-8.389],[-36.356,-8.426],[-36.321,-8.488],[-36.307,-8.531],[-36.328,-8.571],[-36.332,-8.615],[-36.274,-8.562],[-36.267,-8.562],[-36.243,-8.518],[-36.218,-8.488],[-36.224,-8.454],[-36.336,-8.395],[-36.361,-8.389]]]}},{"type":"Feature","properties":{"code":"2611705"},"geometry":{"type":"Polygon","coordinates":[[[-35.88,-8.206],[-35.888,-8.172],[-35.851,-8.161],[-35.838,-8.114],[-35.84,-8.073],[-35.8,-8.044],[-35.788,-8.018],[-35.764,-8.008],[-35.758,-7.975],[-35.805,-7.974],[-35.879,-7.99],[-35.916,-8.006],[-35.985,-8.144],[-35.976,-8.167],[-35.922,-8.203],[-35.88,-8.206]]]}},{"type":"Feature","properties":{"code":"2603504"},"geometry":{"type":"Polygon","coordinates":[[[-35.722,-8.388],[-35.739,-8.338],[-35.73,-8.315],[-35.758,-8.29],[-35.792,-8.329],[-35.809,-8.361],[-35.846,-8.379],[-35.839,-8.388],[-35.773,-8.373],[-35.762,-8.384],[-35.722,-8.388]]]}},{"type":"Feature","properties":{"code":"2611533"},"geometry":{"type":"Polygon","coordinates":[[[-37.847,-7.803],[-37.798,-7.755],[-37.783,-7.684],[-37.767,-7.657],[-37.786,-7.626],[-37.81,-7.644],[-37.857,-7.652],[-37.903,-7.698],[-37.921,-7.713],[-37.958,-7.766],[-37.879,-7.781],[-37.847,-7.803]]]}},{"type":"Feature","properties":{"code":"2603454"},"geometry":{"type":"Polygon","coordinates":[[[-34.996,-8.037],[-34.965,-8.02],[-34.962,-7.974],[-35.004,-7.96],[-35.0,-7.929],[-35.029,-7.934],[-35.037,-7.94],[-35.009,-7.972],[-35.017,-7.99],[-35.011,-8.038],[-34.996,-8.037]]]}},{"type":"Feature","properties":{"code":"2611606"},"geometry":{"type":"Polygon","coordinates":[[[-35.017,-8.056],[-34.961,-8.095],[-34.953,-8.139],[-34.909,-8.155],[-34.861,-8.044],[-34.873,-8.017],[-34.914,-7.979],[-34.909,-7.944],[-34.948,-7.929],[-34.968,-7.942],[-35.0,-7.929],[-35.004,-7.96],[-34.962,-7.974],[-34.965,-8.02],[-34.996,-8.037],[-35.017,-8.056]]]}},{"type":"Feature","properties":{"code":"2603405"},"geometry":{"type":"Polygon","coordinates":[[[-37.939,-8.069],[-38.016,-8.083],[-38.048,-8.033],[-38.09,-8.014],[-38.035,-7.962],[-38.052,-7.922],[-38.087,-7.925],[-38.12,-7.909],[-38.163,-7.905],[-38.168,-7.929],[-38.149,-7.945],[-38.097,-8.054],[-38.028,-8.134],[-37.982,-8.083],[-37.939,-8.069]]]}},{"type":"Feature","properties":{"code":"2610905"},"geometry":{"type":"Polygon","coordinates":[[[-36.69,-8.67],[-36.688,-8.634],[-36.666,-8.594],[-36.614,-8.558],[-36.558,-8.507],[-36.582,-8.464],[-36.628,-8.345],[-36.603,-8.311],[-36.56,-8.282],[-36.606,-8.212],[-36.64,-8.278],[-36.773,-8.26],[-36.783,-8.276],[-36.818,-8.241],[-36.788,-8.19],[-36.862,-8.222],[-36.908,-8.253],[-36.928,-8.424],[-36.897,-8.442],[-36.862,-8.454],[-36.822,-8.419],[-36.805,-8.452],[-36.785,-8.423],[-36.701,-8.421],[-36.69,-8.525],[-36.715,-8.535],[-36.729,-8.565],[-36.759,-8.599],[-36.726,-8.606],[-36.725,-8.65],[-36.69,-8.67]]]}},{"type":"Feature","properties":{"code":"2602704"},"geometry":{"type":"Polygon","coordinates":[[[-35.406,-7.776],[-35.393,-7.762],[-35.317,-7.774],[-35.304,-7.766],[-35.26,-7.676],[-35.296,-7.711],[-35.322,-7.703],[-35.356,-7.71],[-35.413,-7.74],[-35.406,-7.776]]]}},{"type":"Feature","properties":{"code":"2611002"},"geometry":{"type":"Polygon","coordinates":[[[-38.313,-9.148],[-38.205,-9.104],[-38.213,-8.98],[-38.206,-8.95],[-38.214,-8.887],[-38.236,-8.855],[-38.066,-8.684],[-38.098,-8.694],[-38.154,-8.696],[-38.19,-8.677],[-38.233,-8.688],[-38.26,-8.708],[-38.269,-8.754],[-38.305,-8.754],[-38.321,-8.769],[-38.374,-8.79],[-38.41,-8.817],[-38.458,-8.841],[-38.47,-8.866],[-38.479,-8.902],[-38.511,-8.925],[-38.514,-8.96],[-38.504,-8.981],[-38.449,-9.026],[-38.404,-9.037],[-38.362,-9.001],[-38.324,-8.99],[-38.29,-9.036],[-38.326,-9.081],[-38.313,-9.148]]]}},{"type":"Feature","properties":{"code":"2602803"},"geometry":{"type":"Polygon","coordinates":[[[-36.993,-8.897],[-36.971,-8.711],[-36.989,-8.557],[-37.002,-8.541],[-37.072,-8.534],[-37.023,-8.499],[-37.09,-8.441],[-37.139,-8.427],[-37.149,-8.403],[-37.187,-8.421],[-37.222,-8.406],[-37.3,-8.638],[-37.265,-8.694],[-37.241,-8.72],[-37.241,-8.74],[-37.184,-8.752],[-37.161,-8.767],[-37.142,-8.8],[-37.12,-8.812],[-37.084,-8.855],[-37.081,-8.918],[-37.101,-8.96],[-37.099,-8.971],[-37.047,-8.921],[-36.993,-8.897]]]}},{"type":"Feature","properties":{"code":"2610806"},"geometry":{"type":"Polygon","coordinates":[[[-36.869,-8.887],[-36.85,-8.882],[-36.778,-8.927],[-36.75,-8.892],[-36.777,-8.886],[-36.759,-8.834],[-36.779,-8.802],[-36.759,-8.775],[-36.773,-8.732],[-36.786,-8.71],[-36.912,-8.612],[-36.906,-8.568],[-36.875,-8.541],[-36.859,-8.512],[-36.848,-8.466],[-36.822,-8.419],[-36.862,-8.454],[-36.897,-8.442],[-36.923,-8.464],[-36.945,-8.444],[-36.983,-8.45],[-37.023,-8.499],[-37.072,-8.534],[-37.002,-8.541],[-36.989,-8.557],[-36.971,-8.711],[-36.993,-8.897],[-36.942,-8.898],[-36.901,-8.909],[-36.869,-8.887]]]}},{"type":"Feature","properties":{"code":"2602605"},"geometry":{"type":"Polygon","coordinates":[[[-36.207,-8.226],[-36.193,-8.236],[-36.139,-8.192],[-36.123,-8.187],[-36.138,-8.19],[-36.178,-8.144],[-36.167,-8.101],[-36.181,-8.071],[-36.155,-8.033],[-36.112,-7.997],[-36.111,-7.972],[-36.165,-7.966],[-36.263,-7.954],[-36.292,-7.944],[-36.325,-7.968],[-36.444,-7.92],[-36.38,-7.977],[-36.444,-8.146],[-36.354,-8.219],[-36.331,-8.164],[-36.269,-8.161],[-36.239,-8.169],[-36.248,-8.193],[-36.207,-8.226]]]}},{"type":"Feature","properties":{"code":"2611200"},"geometry":{"type":"Polygon","coordinates":[[[-36.788,-8.19],[-36.818,-8.241],[-36.783,-8.276],[-36.773,-8.26],[-36.64,-8.278],[-36.606,-8.212],[-36.646,-8.208],[-36.687,-8.156],[-36.75,-8.176],[-36.762,-8.196],[-36.788,-8.19]]]}},{"type":"Feature","properties":{"code":"2603009"},"geometry":{"type":"Polygon","coordinates":[[[-39.569,-8.249],[-39.541,-8.337],[-39.566,-8.415],[-39.55,-8.463],[-39.514,-8.514],[-39.477,-8.534],[-39.476,-8.593],[-39.452,-8.563],[-39.416,-8.542],[-39.38,-8.533],[-39.357,-8.547],[-39.345,-8.559],[-39.286,-8.564],[-39.273,-8.584],[-39.241,-8.54],[-39.203,-8.512],[-39.166,-8.498],[-39.145,-8.51],[-39.105,-8.457],[-39.088,-8.449],[-39.067,-8.386],[-39.047,-8.38],[-39.209,-8.227],[-39.249,-8.214],[-39.302,-8.227],[-39.317,-8.183],[-39.358,-8.196],[-39.39,-8.254],[-39.416,-8.24],[-39.464,-8.239],[-39.495,-8.248],[-39.54,-8.238],[-39.569,-8.249]]]}},{"type":"Feature","properties":{"code":"2611101"},"geometry":{"type":"Polygon","coordinates":[[[-40.714,-9.445],[-40.681,-9.467],[-40.623,-9.483],[-40.556,-9.458],[-40.542,-9.426],[-40.511,-9.407],[-40.468,-9.421],[-40.439,-9.368],[-40.418,-9.352],[-40.391,-9.372],[-40.356,-9.377],[-40.309,-9.275],[-40.286,-9.186],[-40.293,-9.147],[-40.273,-9.082],[-40.239,-9.054],[-40.209,-9.064],[-40.243,-9.002],[-40.26,-8.991],[-40.297,-8.995],[-40.296,-8.939],[-40.274,-8.931],[-40.273,-8.901],[-40.311,-8.862],[-40.349,-8.863],[-40.369,-8.812],[-40.392,-8.803],[-40.402,-8.754],[-40.393,-8.692],[-40.431,-8.645],[-40.579,-8.667],[-40.758,-8.623],[-40.911,-8.776],[-40.944,-8.788],[-40.944,-8.825],[-40.959,-8.842],[-40.921,-8.835],[-40.896,-8.871],[-40.881,-8.916],[-40.851,-8.954],[-40.852,-8.98],[-40.834,-9.011],[-40.821,-9.08],[-40.804,-9.098],[-40.775,-9.101],[-40.758,-9.119],[-40.71,-9.141],[-40.685,-9.138],[-40.667,-9.159],[-40.67,-9.186],[-40.693,-9.231],[-40.68,-9.259],[-40.687,-9.278],[-40.72,-9.306],[-40.746,-9.371],[-40.743,-9.403],[-40.765,-9.416],[-40.767,-9.445],[-40.714,-9.445]]]}},{"type":"Feature","properties":{"code":"2602902"},"geometry":{"type":"Polygon","coordinates":[[[-34.961,-8.367],[-34.943,-8.305],[-34.952,-8.298],[-34.929,-8.225],[-34.96,-8.218],[-34.977,-8.231],[-35.007,-8.206],[-35.065,-8.223],[-35.109,-8.19],[-35.148,-8.185],[-35.165,-8.217],[-35.215,-8.187],[-35.265,-8.243],[-35.238,-8.292],[-35.191,-8.294],[-35.152,-8.279],[-35.14,-8.31],[-35.108,-8.334],[-35.079,-8.335],[-35.024,-8.364],[-34.986,-8.353],[-34.961,-8.367]]]}},{"type":"Feature","properties":{"code":"2610400"},"geometry":{"type":"Polygon","coordinates":[[[-39.672,-8.457],[-39.67,-8.386],[-39.683,-8.35],[-39.569,-8.249],[-39.54,-8.238],[-39.495,-8.248],[-39.464,-8.239],[-39.482,-8.224],[-39.543,-8.205],[-39.538,-8.18],[-39.479,-8.155],[-39.437,-8.151],[-39.415,-8.12],[-39.398,-8.074],[-39.36,-8.05],[-39.438,-8.059],[-39.467,-8.056],[-39.484,-8.038],[-39.487,-8.006],[-39.454,-7.952],[-39.569,-7.988],[-39.559,-7.925],[-39.574,-7.871],[-39.763,-7.913],[-39.853,-8.028],[-39.94,-8.138],[-39.94,-8.165],[-39.915,-8.221],[-39.973,-8.219],[-40.002,-8.194],[-40.006,-8.17],[-40.052,-8.172],[-40.078,-8.153],[-40.129,-8.154],[-40.177,-8.179],[-40.197,-8.221],[-40.201,-8.256],[-40.087,-8.337],[-40.109,-8.348],[-40.082,-8.371],[-40.011,-8.356],[-39.964,-8.378],[-39.94,-8.364],[-39.898,-8.374],[-39.851,-8.336],[-39.808,-8.33],[-39.747,-8.348],[-39.714,-8.409],[-39.672,-8.457]]]}},{"type":"Feature","properties":{"code":"2602209"},"geometry":{"type":"Polygon","coordinates":[[[-35.688,-7.847],[-35.569,-7.835],[-35.519,-7.801],[-35.504,-7.81],[-35.477,-7.798],[-35.482,-7.744],[-35.457,-7.714],[-35.419,-7.721],[-35.445,-7.692],[-35.475,-7.7],[-35.508,-7.748],[-35.535,-7.749],[-35.548,-7.717],[-35.585,-7.742],[-35.615,-7.784],[-35.637,-7.761],[-35.672,-7.758],[-35.711,-7.796],[-35.708,-7.831],[-35.688,-7.847]]]}},{"type":"Feature","properties":{"code":"2602308"},"geometry":{"type":"Polygon","coordinates":[[[-35.691,-8.598],[-35.698,-8.548],[-35.646,-8.534],[-35.633,-8.55],[-35.591,-8.514],[-35.543,-8.488],[-35.551,-8.433],[-35.577,-8.431],[-35.665,-8.493],[-35.688,-8.444],[-35.677,-8.401],[-35.7,-8.373],[-35.722,-8.388],[-35.762,-8.384],[-35.748,-8.43],[-35.771,-8.454],[-35.839,-8.48],[-35.825,-8.523],[-35.802,-8.546],[-35.814,-8.585],[-35.803,-8.595],[-35.773,-8.6],[-35.754,-8.583],[-35.714,-8.58],[-35.691,-8.598]]]}},{"type":"Feature","properties":{"code":"2610301"},"geometry":{"type":"Polygon","coordinates":[[[-36.865,-8.889],[-36.736,-8.95],[-36.65,-8.934],[-36.631,-8.957],[-36.607,-8.942],[-36.612,-8.906],[-36.672,-8.855],[-36.667,-8.832],[-36.759,-8.834],[-36.777,-8.886],[-36.75,-8.892],[-36.778,-8.927],[-36.85,-8.882],[-36.869,-8.887],[-36.866,-8.888],[-36.865,-8.889]]]}},{"type":"Feature","properties":{"code":"2602100"},"geometry":{"type":"Polygon","coordinates":[[[-36.625,-9.332],[-36.607,-9.341],[-36.567,-9.331],[-36.572,-9.293],[-36.5,-9.263],[-36.521,-9.224],[-36.522,-9.189],[-36.507,-9.174],[-36.512,-9.137],[-36.53,-9.104],[-36.533,-9.101],[-36.563,-9.119],[-36.677,-9.124],[-36.708,-9.109],[-36.691,-9.071],[-36.689,-9.02],[-36.705,-9.021],[-36.74,-9.062],[-36.75,-9.088],[-36.785,-9.113],[-36.769,-9.137],[-36.873,-9.168],[-36.883,-9.264],[-36.88,-9.276],[-36.836,-9.289],[-36.797,-9.28],[-36.762,-9.271],[-36.7,-9.293],[-36.625,-9.332]]]}},{"type":"Feature","properties":{"code":"2610707"},"geometry":{"type":"Polygon","coordinates":[[[-34.914,-7.979],[-34.864,-7.975],[-34.855,-7.955],[-34.828,-7.959],[-34.82,-7.926],[-34.825,-7.885],[-34.841,-7.845],[-34.866,-7.891],[-34.906,-7.936],[-34.962,-7.916],[-35.018,-7.916],[-35.031,-7.93],[-35.029,-7.934],[-35.0,-7.929],[-34.968,-7.942],[-34.948,-7.929],[-34.909,-7.944],[-34.914,-7.979]]]}},{"type":"Feature","properties":{"code":"2602506"},"geometry":{"type":"Polygon","coordinates":[[[-37.27,-7.393],[-37.281,-7.349],[-37.262,-7.307],[-37.261,-7.274],[-37.314,-7.289],[-37.328,-7.288],[-37.357,-7.321],[-37.349,-7.335],[-37.386,-7.357],[-37.432,-7.357],[-37.41,-7.38],[-37.367,-7.379],[-37.314,-7.367],[-37.29,-7.395],[-37.27,-7.393]]]}},{"type":"Feature","properties":{"code":"2610509"},"geometry":{"type":"Polygon","coordinates":[[[-35.457,-7.989],[-35.442,-7.961],[-35.5,-7.92],[-35.514,-7.939],[-35.58,-7.947],[-35.601,-7.936],[-35.654,-7.944],[-35.61,-8.011],[-35.64,-8.042],[-35.65,-8.105],[-35.63,-8.104],[-35.584,-8.079],[-35.511,-8.058],[-35.462,-8.094],[-35.43,-8.081],[-35.428,-8.081],[-35.439,-8.04],[-35.466,-8.031],[-35.457,-7.989]]]}},{"type":"Feature","properties":{"code":"2610608"},"geometry":{"type":"Polygon","coordinates":[[[-35.166,-7.977],[-35.156,-7.97],[-35.099,-7.973],[-35.074,-7.951],[-35.037,-7.94],[-35.029,-7.934],[-35.031,-7.93],[-35.049,-7.909],[-35.1,-7.882],[-35.122,-7.849],[-35.14,-7.792],[-35.145,-7.827],[-35.226,-7.824],[-35.215,-7.889],[-35.241,-7.888],[-35.257,-7.942],[-35.225,-7.956],[-35.166,-7.977]]]}},{"type":"Feature","properties":{"code":"2602407"},"geometry":{"type":"Polygon","coordinates":[[[-36.478,-9.086],[-36.48,-8.97],[-36.51,-8.954],[-36.556,-8.966],[-36.591,-8.995],[-36.6,-9.033],[-36.579,-9.065],[-36.547,-9.079],[-36.533,-9.101],[-36.53,-9.104],[-36.478,-9.086]]]}},{"type":"Feature","properties":{"code":"2609907"},"geometry":{"type":"Polygon","coordinates":[[[-40.197,-8.221],[-40.177,-8.179],[-40.129,-8.154],[-40.078,-8.153],[-40.052,-8.172],[-40.006,-8.17],[-40.002,-8.194],[-39.973,-8.219],[-39.915,-8.221],[-39.94,-8.165],[-39.94,-8.138],[-39.853,-8.028],[-39.903,-7.977],[-39.91,-7.941],[-39.941,-7.891],[-39.928,-7.853],[-39.937,-7.825],[-40.019,-7.793],[-40.083,-7.809],[-40.104,-7.687],[-40.163,-7.703],[-40.212,-7.677],[-40.238,-7.685],[-40.237,-7.819],[-40.345,-7.849],[-40.454,-7.877],[-40.457,-7.892],[-40.495,-7.919],[-40.52,-7.952],[-40.526,-7.997],[-40.561,-7.997],[-40.576,-8.03],[-40.576,-8.03],[-40.434,-8.032],[-40.428,-8.07],[-40.412,-8.083],[-40.381,-8.075],[-40.354,-8.087],[-40.316,-8.057],[-40.222,-8.075],[-40.23,-8.109],[-40.257,-8.139],[-40.233,-8.174],[-40.219,-8.221],[-40.197,-8.221]]]}},{"type":"Feature","properties":{"code":"2601706"},"geometry":{"type":"Polygon","coordinates":[[[-36.56,-8.282],[-36.531,-8.239],[-36.508,-8.231],[-36.486,-8.253],[-36.498,-8.288],[-36.525,-8.307],[-36.501,-8.325],[-36.493,-8.384],[-36.511,-8.402],[-36.48,-8.407],[-36.47,-8.39],[-36.436,-8.399],[-36.424,-8.387],[-36.361,-8.389],[-36.335,-8.322],[-36.333,-8.296],[-36.252,-8.276],[-36.206,-8.236],[-36.207,-8.226],[-36.248,-8.193],[-36.239,-8.169],[-36.269,-8.161],[-36.331,-8.164],[-36.354,-8.219],[-36.444,-8.146],[-36.491,-8.133],[-36.547,-8.21],[-36.606,-8.212],[-36.56,-8.282]]]}},{"type":"Feature","properties":{"code":"2609808"},"geometry":{"type":"Polygon","coordinates":[[[-39.476,-8.593],[-39.477,-8.534],[-39.514,-8.514],[-39.55,-8.463],[-39.566,-8.415],[-39.541,-8.337],[-39.569,-8.249],[-39.683,-8.35],[-39.67,-8.386],[-39.672,-8.457],[-39.654,-8.478],[-39.643,-8.519],[-39.646,-8.66],[-39.614,-8.658],[-39.569,-8.637],[-39.519,-8.604],[-39.476,-8.593]]]}},{"type":"Feature","properties":{"code":"2601607"},"geometry":{"type":"Polygon","coordinates":[[[-38.855,-8.784],[-38.853,-8.726],[-38.843,-8.696],[-38.627,-8.62],[-38.628,-8.616],[-38.666,-8.596],[-38.757,-8.575],[-38.799,-8.514],[-38.829,-8.505],[-38.849,-8.469],[-38.85,-8.426],[-38.87,-8.409],[-38.889,-8.348],[-38.911,-8.331],[-38.928,-8.357],[-38.994,-8.355],[-38.997,-8.374],[-39.047,-8.38],[-39.067,-8.386],[-39.088,-8.449],[-39.105,-8.457],[-39.145,-8.51],[-39.166,-8.498],[-39.203,-8.512],[-39.241,-8.54],[-39.273,-8.584],[-39.248,-8.625],[-39.245,-8.684],[-39.234,-8.705],[-39.201,-8.711],[-39.167,-8.693],[-39.144,-8.713],[-39.065,-8.732],[-39.033,-8.736],[-38.999,-8.761],[-38.977,-8.793],[-38.952,-8.805],[-38.855,-8.784]]]}},{"type":"Feature","properties":{"code":"2610202"},"geometry":{"type":"Polygon","coordinates":[[[-35.967,-8.743],[-35.979,-8.726],[-35.973,-8.672],[-35.948,-8.63],[-35.97,-8.615],[-35.996,-8.547],[-36.095,-8.591],[-36.154,-8.631],[-36.182,-8.665],[-36.124,-8.715],[-36.076,-8.721],[-36.075,-8.771],[-36.056,-8.755],[-36.027,-8.777],[-35.986,-8.781],[-35.966,-8.751],[-35.967,-8.743]]]}},{"type":"Feature","properties":{"code":"2602001"},"geometry":{"type":"Polygon","coordinates":[[[-40.104,-7.687],[-40.083,-7.809],[-40.019,-7.793],[-39.937,-7.825],[-39.928,-7.853],[-39.941,-7.891],[-39.91,-7.941],[-39.903,-7.977],[-39.853,-8.028],[-39.763,-7.913],[-39.815,-7.691],[-39.904,-7.707],[-39.905,-7.338],[-39.926,-7.341],[-40.001,-7.375],[-40.045,-7.381],[-40.128,-7.382],[-40.157,-7.372],[-40.104,-7.687]]]}},{"type":"Feature","properties":{"code":"2610004"},"geometry":{"type":"Polygon","coordinates":[[[-35.721,-8.801],[-35.606,-8.776],[-35.603,-8.742],[-35.558,-8.718],[-35.565,-8.684],[-35.538,-8.659],[-35.571,-8.63],[-35.591,-8.514],[-35.633,-8.55],[-35.646,-8.534],[-35.698,-8.548],[-35.691,-8.598],[-35.696,-8.633],[-35.669,-8.669],[-35.708,-8.73],[-35.663,-8.739],[-35.721,-8.801]]]}},{"type":"Feature","properties":{"code":"2601805"},"geometry":{"type":"Polygon","coordinates":[[[-37.894,-8.393],[-37.854,-8.348],[-37.848,-8.272],[-37.839,-8.249],[-37.798,-8.211],[-37.811,-8.081],[-37.849,-8.084],[-37.939,-8.069],[-37.982,-8.083],[-38.028,-8.134],[-38.063,-8.148],[-38.107,-8.187],[-38.119,-8.221],[-38.152,-8.223],[-38.174,-8.247],[-38.179,-8.277],[-38.194,-8.319],[-38.168,-8.398],[-38.082,-8.421],[-38.046,-8.457],[-38.022,-8.45],[-37.967,-8.459],[-37.931,-8.438],[-37.894,-8.393]]]}},{"type":"Feature","properties":{"code":"2610103"},"geometry":{"type":"Polygon","coordinates":[[[-36.111,-9.018],[-36.16,-9.033],[-36.244,-9.0],[-36.233,-8.933],[-36.256,-8.953],[-36.306,-8.953],[-36.327,-8.976],[-36.378,-8.989],[-36.367,-9.019],[-36.359,-9.047],[-36.295,-9.05],[-36.253,-9.059],[-36.196,-9.045],[-36.152,-9.043],[-36.121,-9.028],[-36.111,-9.018]]]}},{"type":"Feature","properties":{"code":"2601904"},"geometry":{"type":"Polygon","coordinates":[[[-35.903,-8.384],[-35.846,-8.379],[-35.809,-8.361],[-35.792,-8.329],[-35.758,-8.29],[-35.719,-8.249],[-35.712,-8.225],[-35.652,-8.203],[-35.656,-8.159],[-35.63,-8.104],[-35.65,-8.105],[-35.838,-8.114],[-35.851,-8.161],[-35.888,-8.172],[-35.88,-8.206],[-35.856,-8.271],[-35.857,-8.306],[-35.893,-8.351],[-35.921,-8.366],[-35.903,-8.384]]]}},{"type":"Feature","properties":{"code":"2609402"},"geometry":{"type":"Polygon","coordinates":[[[-35.065,-8.223],[-35.066,-8.201],[-35.097,-8.162],[-35.058,-8.088],[-35.102,-8.088],[-35.124,-8.078],[-35.155,-8.09],[-35.198,-8.081],[-35.209,-8.12],[-35.227,-8.133],[-35.215,-8.187],[-35.165,-8.217],[-35.148,-8.185],[-35.109,-8.19],[-35.065,-8.223]]]}},{"type":"Feature","properties":{"code":"2601201"},"geometry":{"type":"Polygon","coordinates":[[[-37.023,-8.499],[-36.983,-8.45],[-36.945,-8.444],[-36.923,-8.464],[-36.897,-8.442],[-36.928,-8.424],[-36.908,-8.253],[-36.947,-8.277],[-36.955,-8.299],[-36.991,-8.303],[-37.021,-8.29],[-37.048,-8.348],[-37.071,-8.354],[-37.102,-8.384],[-37.149,-8.403],[-37.139,-8.427],[-37.09,-8.441],[-37.023,-8.499]]]}},{"type":"Feature","properties":{"code":"2601052"},"geometry":{"type":"Polygon","coordinates":[[[-35.054,-7.88],[-35.036,-7.868],[-35.032,-7.825],[-35.039,-7.767],[-35.054,-7.749],[-35.092,-7.74],[-35.099,-7.723],[-35.14,-7.792],[-35.068,-7.812],[-35.054,-7.88]]]}},{"type":"Feature","properties":{"code":"2609303"},"geometry":{"type":"Polygon","coordinates":[[[-38.812,-8.235],[-38.739,-8.245],[-38.65,-8.291],[-38.629,-8.311],[-38.55,-8.288],[-38.556,-8.266],[-38.537,-8.231],[-38.589,-8.128],[-38.598,-8.132],[-38.635,-8.145],[-38.688,-8.1],[-38.692,-8.066],[-38.739,-8.023],[-38.778,-8.003],[-38.83,-8.017],[-38.878,-8.01],[-38.882,-8.052],[-38.911,-8.087],[-38.937,-8.125],[-38.906,-8.159],[-38.87,-8.17],[-38.88,-8.21],[-38.812,-8.235]]]}},{"type":"Feature","properties":{"code":"2601102"},"geometry":{"type":"Polygon","coordinates":[[[-40.561,-7.997],[-40.526,-7.997],[-40.52,-7.952],[-40.495,-7.919],[-40.457,-7.892],[-40.454,-7.877],[-40.345,-7.849],[-40.353,-7.825],[-40.36,-7.71],[-40.273,-7.562],[-40.345,-7.329],[-40.361,-7.356],[-40.394,-7.368],[-40.449,-7.361],[-40.524,-7.319],[-40.541,-7.332],[-40.548,-7.393],[-40.652,-7.433],[-40.663,-7.449],[-40.701,-7.456],[-40.715,-7.481],[-40.704,-7.519],[-40.681,-7.558],[-40.646,-7.595],[-40.622,-7.658],[-40.636,-7.7],[-40.667,-7.726],[-40.674,-7.762],[-40.645,-7.787],[-40.578,-7.805],[-40.555,-7.818],[-40.538,-7.857],[-40.544,-7.962],[-40.561,-7.997]]]}},{"type":"Feature","properties":{"code":"2609709"},"geometry":{"type":"Polygon","coordinates":[[[-35.637,-7.761],[-35.615,-7.784],[-35.585,-7.742],[-35.548,-7.717],[-35.52,-7.695],[-35.523,-7.663],[-35.527,-7.645],[-35.56,-7.661],[-35.588,-7.65],[-35.62,-7.662],[-35.632,-7.681],[-35.68,-7.704],[-35.674,-7.724],[-35.637,-7.761]]]}},{"type":"Feature","properties":{"code":"2601508"},"geometry":{"type":"Polygon","coordinates":[[[-35.81,-8.673],[-35.76,-8.673],[-35.803,-8.595],[-35.814,-8.585],[-35.802,-8.546],[-35.825,-8.523],[-35.85,-8.541],[-35.85,-8.593],[-35.853,-8.606],[-35.807,-8.65],[-35.81,-8.673]]]}},{"type":"Feature","properties":{"code":"2609501"},"geometry":{"type":"Polygon","coordinates":[[[-35.252,-7.809],[-35.248,-7.796],[-35.193,-7.758],[-35.156,-7.71],[-35.212,-7.681],[-35.241,-7.697],[-35.26,-7.676],[-35.304,-7.766],[-35.252,-7.809]]]}},{"type":"Feature","properties":{"code":"2601300"},"geometry":{"type":"Polygon","coordinates":[[[-35.7,-8.373],[-35.677,-8.401],[-35.688,-8.444],[-35.665,-8.493],[-35.577,-8.431],[-35.597,-8.413],[-35.55,-8.358],[-35.635,-8.374],[-35.7,-8.373]]]}},{"type":"Feature","properties":{"code":"2609600"},"geometry":{"type":"Polygon","coordinates":[[[-34.861,-8.044],[-34.842,-8.012],[-34.828,-7.959],[-34.855,-7.955],[-34.864,-7.975],[-34.914,-7.979],[-34.873,-8.017],[-34.861,-8.044]]]}},{"type":"Feature","properties":{"code":"2601409"},"geometry":{"type":"Polygon","coordinates":[[[-35.235,-8.883],[-35.261,-8.856],[-35.137,-8.829],[-35.14,-8.843],[-35.13,-8.862],[-35.134,-8.843],[-35.118,-8.802],[-35.103,-8.785],[-35.126,-8.801],[-35.152,-8.775],[-35.192,-8.774],[-35.224,-8.754],[-35.284,-8.789],[-35.361,-8.806],[-35.398,-8.821],[-35.409,-8.838],[-35.351,-8.861],[-35.253,-8.887],[-35.235,-8.883]]]}},{"type":"Feature","properties":{"code":"2600708"},"geometry":{"type":"Polygon","coordinates":[[[-35.122,-7.669],[-35.147,-7.62],[-35.129,-7.565],[-35.097,-7.544],[-35.125,-7.538],[-35.157,-7.502],[-35.208,-7.522],[-35.255,-7.544],[-35.273,-7.591],[-35.257,-7.644],[-35.26,-7.676],[-35.241,-7.697],[-35.212,-7.681],[-35.156,-7.71],[-35.157,-7.689],[-35.122,-7.669]]]}},{"type":"Feature","properties":{"code":"2608909"},"geometry":{"type":"Polygon","coordinates":[[[-35.355,-7.891],[-35.37,-7.86],[-35.406,-7.825],[-35.406,-7.776],[-35.413,-7.74],[-35.419,-7.721],[-35.457,-7.714],[-35.482,-7.744],[-35.477,-7.798],[-35.504,-7.81],[-35.521,-7.904],[-35.514,-7.939],[-35.5,-7.92],[-35.442,-7.961],[-35.415,-7.924],[-35.355,-7.891]]]}},{"type":"Feature","properties":{"code":"2608750"},"geometry":{"type":"Polygon","coordinates":[[[-40.209,-9.064],[-40.16,-9.108],[-40.13,-9.11],[-40.077,-9.078],[-40.066,-9.063],[-40.005,-9.06],[-40.024,-9.058],[-40.037,-8.979],[-40.086,-8.95],[-40.097,-8.957],[-40.068,-8.75],[-40.074,-8.632],[-40.101,-8.612],[-40.132,-8.607],[-40.165,-8.574],[-40.165,-8.549],[-40.196,-8.512],[-40.207,-8.503],[-40.33,-8.517],[-40.347,-8.509],[-40.416,-8.562],[-40.443,-8.618],[-40.431,-8.645],[-40.393,-8.692],[-40.402,-8.754],[-40.392,-8.803],[-40.369,-8.812],[-40.349,-8.863],[-40.311,-8.862],[-40.273,-8.901],[-40.274,-8.931],[-40.296,-8.939],[-40.297,-8.995],[-40.26,-8.991],[-40.243,-9.002],[-40.209,-9.064]]]}},{"type":"Feature","properties":{"code":"2608800"},"geometry":{"type":"Polygon","coordinates":[[[-36.249,-8.787],[-36.219,-8.714],[-36.195,-8.712],[-36.248,-8.655],[-36.268,-8.624],[-36.293,-8.631],[-36.274,-8.562],[-36.332,-8.615],[-36.383,-8.635],[-36.382,-8.635],[-36.249,-8.787]]]}},{"type":"Feature","properties":{"code":"2600609"},"geometry":{"type":"Polygon","coordinates":[[[-36.759,-8.599],[-36.729,-8.565],[-36.715,-8.535],[-36.69,-8.525],[-36.701,-8.421],[-36.785,-8.423],[-36.805,-8.452],[-36.822,-8.419],[-36.832,-8.5],[-36.787,-8.545],[-36.778,-8.607],[-36.759,-8.599]]]}},{"type":"Feature","properties":{"code":"2609154"},"geometry":{"type":"Polygon","coordinates":[[[-37.699,-8.936],[-37.658,-8.993],[-37.629,-9.001],[-37.596,-8.969],[-37.556,-8.97],[-37.528,-8.961],[-37.519,-8.968],[-37.515,-8.937],[-37.471,-8.932],[-37.461,-8.893],[-37.469,-8.854],[-37.425,-8.856],[-37.4,-8.841],[-37.366,-8.798],[-37.514,-8.79],[-37.535,-8.802],[-37.633,-8.902],[-37.699,-8.936]]]}},{"type":"Feature","properties":{"code":"2609105"},"geometry":{"type":"Polygon","coordinates":[[[-35.548,-7.717],[-35.535,-7.749],[-35.508,-7.748],[-35.475,-7.7],[-35.445,-7.692],[-35.516,-7.651],[-35.523,-7.663],[-35.52,-7.695],[-35.548,-7.717]]]}},{"type":"Feature","properties":{"code":"2600906"},"geometry":{"type":"Polygon","coordinates":[[[-35.406,-8.428],[-35.373,-8.381],[-35.467,-8.261],[-35.499,-8.308],[-35.51,-8.3],[-35.548,-8.34],[-35.534,-8.383],[-35.514,-8.39],[-35.501,-8.434],[-35.459,-8.456],[-35.446,-8.452],[-35.425,-8.427],[-35.406,-8.428]]]}},{"type":"Feature","properties":{"code":"2609204"},"geometry":{"type":"Polygon","coordinates":[[[-35.827,-8.87],[-35.795,-8.848],[-35.776,-8.864],[-35.783,-8.898],[-35.748,-8.917],[-35.723,-8.909],[-35.673,-8.866],[-35.721,-8.801],[-35.724,-8.759],[-35.742,-8.75],[-35.774,-8.766],[-35.82,-8.779],[-35.847,-8.808],[-35.845,-8.873],[-35.827,-8.87]]]}},{"type":"Feature","properties":{"code":"2601003"},"geometry":{"type":"Polygon","coordinates":[[[-36.306,-8.953],[-36.256,-8.953],[-36.233,-8.933],[-36.216,-8.884],[-36.269,-8.839],[-36.3,-8.832],[-36.329,-8.799],[-36.342,-8.801],[-36.315,-8.843],[-36.322,-8.869],[-36.306,-8.953]]]}},{"type":"Feature","properties":{"code":"2609006"},"geometry":{"type":"Polygon","coordinates":[[[-35.502,-7.513],[-35.49,-7.556],[-35.466,-7.551],[-35.45,-7.603],[-35.429,-7.616],[-35.405,-7.555],[-35.416,-7.495],[-35.434,-7.471],[-35.45,-7.453],[-35.495,-7.484],[-35.502,-7.513]]]}},{"type":"Feature","properties":{"code":"2600807"},"geometry":{"type":"Polygon","coordinates":[[[-36.095,-8.591],[-35.996,-8.547],[-35.969,-8.536],[-36.002,-8.431],[-36.007,-8.361],[-36.037,-8.386],[-36.063,-8.383],[-36.098,-8.383],[-36.131,-8.401],[-36.134,-8.428],[-36.218,-8.488],[-36.243,-8.518],[-36.267,-8.562],[-36.23,-8.573],[-36.168,-8.546],[-36.095,-8.591]]]}},{"type":"Feature","properties":{"code":"2608453"},"geometry":{"type":"Polygon","coordinates":[[[-35.29,-7.874],[-35.291,-7.829],[-35.376,-7.818],[-35.406,-7.825],[-35.37,-7.86],[-35.355,-7.891],[-35.299,-7.883],[-35.29,-7.874]]]}},{"type":"Feature","properties":{"code":"2608404"},"geometry":{"type":"Polygon","coordinates":[[[-36.187,-8.712],[-36.217,-8.793],[-36.176,-8.784],[-36.121,-8.837],[-36.091,-8.777],[-36.075,-8.771],[-36.076,-8.721],[-36.124,-8.715],[-36.182,-8.665],[-36.187,-8.712]]]}},{"type":"Feature","properties":{"code":"2608255"},"geometry":{"type":"Polygon","coordinates":[[[-36.401,-8.777],[-36.448,-8.658],[-36.487,-8.704],[-36.515,-8.732],[-36.516,-8.77],[-36.487,-8.796],[-36.444,-8.8],[-36.401,-8.777]]]}},{"type":"Feature","properties":{"code":"2600203"},"geometry":{"type":"Polygon","coordinates":[[[-40.959,-8.842],[-40.944,-8.825],[-40.944,-8.788],[-40.911,-8.776],[-40.758,-8.623],[-40.848,-8.554],[-40.852,-8.446],[-40.862,-8.371],[-40.908,-8.401],[-40.902,-8.423],[-40.927,-8.446],[-40.978,-8.399],[-41.039,-8.432],[-41.058,-8.478],[-41.077,-8.473],[-41.09,-8.513],[-41.127,-8.542],[-41.15,-8.534],[-41.167,-8.581],[-41.199,-8.592],[-41.214,-8.644],[-41.251,-8.662],[-41.287,-8.661],[-41.3,-8.682],[-41.337,-8.708],[-41.358,-8.708],[-41.334,-8.728],[-41.278,-8.735],[-41.225,-8.705],[-41.176,-8.711],[-41.131,-8.704],[-41.129,-8.743],[-41.103,-8.78],[-41.036,-8.786],[-41.021,-8.844],[-40.979,-8.823],[-40.959,-8.842]]]}},{"type":"Feature","properties":{"code":"2616407"},"geometry":{"type":"Polygon","coordinates":[[[-35.265,-8.243],[-35.215,-8.187],[-35.227,-8.133],[-35.209,-8.12],[-35.198,-8.081],[-35.204,-8.038],[-35.222,-8.019],[-35.258,-8.057],[-35.298,-8.071],[-35.345,-8.052],[-35.382,-8.072],[-35.428,-8.081],[-35.43,-8.081],[-35.343,-8.118],[-35.355,-8.183],[-35.339,-8.278],[-35.366,-8.299],[-35.358,-8.3],[-35.347,-8.294],[-35.3,-8.308],[-35.276,-8.285],[-35.265,-8.243]]]}},{"type":"Feature","properties":{"code":"2600054"},"geometry":{"type":"Polygon","coordinates":[[[-35.031,-7.93],[-35.018,-7.916],[-34.962,-7.916],[-34.906,-7.936],[-34.866,-7.891],[-34.902,-7.886],[-34.977,-7.9],[-35.054,-7.88],[-35.068,-7.812],[-35.14,-7.792],[-35.122,-7.849],[-35.1,-7.882],[-35.049,-7.909],[-35.031,-7.93]]]}},{"type":"Feature","properties":{"code":"2608206"},"geometry":{"type":"Polygon","coordinates":[[[-35.591,-8.514],[-35.571,-8.63],[-35.538,-8.659],[-35.513,-8.635],[-35.524,-8.579],[-35.521,-8.557],[-35.487,-8.506],[-35.5,-8.498],[-35.525,-8.505],[-35.543,-8.488],[-35.591,-8.514]]]}},{"type":"Feature","properties":{"code":"2616506"},"geometry":{"type":"Polygon","coordinates":[[[-35.723,-8.909],[-35.671,-8.897],[-35.652,-8.882],[-35.632,-8.881],[-35.583,-8.847],[-35.613,-8.814],[-35.606,-8.776],[-35.721,-8.801],[-35.673,-8.866],[-35.723,-8.909]]]}},{"type":"Feature","properties":{"code":"2608305"},"geometry":{"type":"Polygon","coordinates":[[[-36.401,-8.777],[-36.399,-8.788],[-36.342,-8.801],[-36.329,-8.799],[-36.372,-8.744],[-36.369,-8.688],[-36.382,-8.635],[-36.383,-8.635],[-36.448,-8.658],[-36.401,-8.777]]]}},{"type":"Feature","properties":{"code":"2600104"},"geometry":{"type":"Polygon","coordinates":[[[-37.617,-7.895],[-37.606,-7.852],[-37.533,-7.781],[-37.522,-7.763],[-37.535,-7.718],[-37.556,-7.688],[-37.548,-7.652],[-37.562,-7.634],[-37.609,-7.626],[-37.633,-7.639],[-37.651,-7.617],[-37.705,-7.617],[-37.681,-7.639],[-37.691,-7.731],[-37.682,-7.762],[-37.706,-7.77],[-37.672,-7.823],[-37.617,-7.895]]]}},{"type":"Feature","properties":{"code":"2608602"},"geometry":{"type":"Polygon","coordinates":[[[-36.403,-9.223],[-36.415,-9.088],[-36.442,-9.072],[-36.465,-9.078],[-36.478,-9.086],[-36.53,-9.104],[-36.512,-9.137],[-36.507,-9.174],[-36.522,-9.189],[-36.521,-9.224],[-36.5,-9.263],[-36.487,-9.24],[-36.462,-9.239],[-36.432,-9.212],[-36.403,-9.223]]]}},{"type":"Feature","properties":{"code":"2600401"},"geometry":{"type":"Polygon","coordinates":[[[-35.342,-8.725],[-35.404,-8.714],[-35.395,-8.683],[-35.474,-8.628],[-35.488,-8.584],[-35.443,-8.556],[-35.471,-8.546],[-35.487,-8.506],[-35.521,-8.557],[-35.524,-8.579],[-35.513,-8.635],[-35.538,-8.659],[-35.565,-8.684],[-35.558,-8.718],[-35.603,-8.742],[-35.606,-8.776],[-35.613,-8.814],[-35.583,-8.847],[-35.57,-8.843],[-35.54,-8.821],[-35.496,-8.828],[-35.471,-8.816],[-35.459,-8.839],[-35.409,-8.838],[-35.398,-8.821],[-35.361,-8.806],[-35.34,-8.747],[-35.342,-8.725]]]}},{"type":"Feature","properties":{"code":"2608701"},"geometry":{"type":"Polygon","coordinates":[[[-35.861,-8.751],[-35.845,-8.716],[-35.821,-8.709],[-35.814,-8.675],[-35.81,-8.673],[-35.807,-8.65],[-35.853,-8.606],[-35.898,-8.612],[-35.948,-8.63],[-35.973,-8.672],[-35.979,-8.726],[-35.967,-8.743],[-35.861,-8.751]]]}},{"type":"Feature","properties":{"code":"2600500"},"geometry":{"type":"Polygon","coordinates":[[[-37.055,-9.307],[-37.037,-9.276],[-36.974,-9.245],[-36.946,-9.187],[-36.977,-9.159],[-36.985,-9.129],[-36.94,-9.068],[-36.925,-9.025],[-36.902,-8.997],[-36.888,-8.933],[-36.866,-8.888],[-36.869,-8.887],[-36.901,-8.909],[-36.942,-8.898],[-36.993,-8.897],[-37.047,-8.921],[-37.099,-8.971],[-37.116,-9.011],[-37.156,-9.054],[-37.162,-9.073],[-37.161,-9.14],[-37.185,-9.2],[-37.198,-9.216],[-37.16,-9.238],[-37.169,-9.265],[-37.13,-9.26],[-37.117,-9.241],[-37.091,-9.246],[-37.057,-9.282],[-37.061,-9.308],[-37.055,-9.307]]]}},{"type":"Feature","properties":{"code":"2608503"},"geometry":{"type":"Polygon","coordinates":[[[-35.304,-7.942],[-35.257,-7.942],[-35.241,-7.888],[-35.267,-7.891],[-35.29,-7.874],[-35.299,-7.883],[-35.355,-7.891],[-35.324,-7.932],[-35.304,-7.942]]]}},{"type":"Feature","properties":{"code":"2600302"},"geometry":{"type":"Polygon","coordinates":[[[-35.969,-8.536],[-35.948,-8.535],[-35.899,-8.561],[-35.879,-8.547],[-35.901,-8.514],[-35.888,-8.498],[-35.904,-8.463],[-35.903,-8.435],[-35.92,-8.421],[-35.903,-8.384],[-35.921,-8.366],[-35.972,-8.359],[-35.987,-8.389],[-36.007,-8.361],[-36.002,-8.431],[-35.969,-8.536]]]}},{"type":"Feature","properties":{"code":"2616100"},"geometry":{"type":"Polygon","coordinates":[[[-38.911,-8.087],[-38.882,-8.052],[-38.878,-8.01],[-38.89,-7.966],[-38.911,-7.928],[-38.949,-7.892],[-38.962,-7.844],[-38.966,-7.846],[-39.001,-7.84],[-39.018,-7.813],[-39.016,-7.825],[-39.077,-7.904],[-39.075,-7.965],[-39.094,-7.994],[-39.103,-8.029],[-39.065,-8.061],[-38.996,-8.062],[-38.968,-8.09],[-38.911,-8.087]]]}},{"type":"Feature","properties":{"code":"2607901"},"geometry":{"type":"Polygon","coordinates":[[[-35.065,-8.223],[-35.007,-8.206],[-34.977,-8.231],[-34.96,-8.218],[-34.929,-8.225],[-34.918,-8.212],[-34.909,-8.155],[-34.953,-8.139],[-34.961,-8.095],[-35.017,-8.056],[-35.055,-8.067],[-35.058,-8.088],[-35.097,-8.162],[-35.066,-8.201],[-35.065,-8.223]]]}},{"type":"Feature","properties":{"code":"2615904"},"geometry":{"type":"Polygon","coordinates":[[[-37.15,-7.717],[-37.189,-7.713],[-37.217,-7.692],[-37.305,-7.603],[-37.346,-7.603],[-37.377,-7.627],[-37.353,-7.641],[-37.324,-7.72],[-37.277,-7.713],[-37.251,-7.719],[-37.242,-7.742],[-37.187,-7.745],[-37.175,-7.757],[-37.171,-7.8],[-37.152,-7.78],[-37.139,-7.745],[-37.15,-7.717]]]}},{"type":"Feature","properties":{"code":"2607703"},"geometry":{"type":"Polygon","coordinates":[[[-36.985,-7.476],[-37.024,-7.434],[-37.014,-7.404],[-37.053,-7.38],[-37.086,-7.358],[-37.168,-7.332],[-37.177,-7.31],[-37.234,-7.274],[-37.261,-7.274],[-37.262,-7.307],[-37.281,-7.349],[-37.27,-7.393],[-37.227,-7.414],[-37.202,-7.412],[-37.186,-7.453],[-37.162,-7.465],[-37.159,-7.495],[-37.126,-7.489],[-37.026,-7.497],[-37.025,-7.497],[-36.985,-7.476]]]}},{"type":"Feature","properties":{"code":"2616001"},"geometry":{"type":"Polygon","coordinates":[[[-36.69,-8.67],[-36.725,-8.65],[-36.726,-8.606],[-36.759,-8.599],[-36.778,-8.607],[-36.787,-8.545],[-36.832,-8.5],[-36.822,-8.419],[-36.848,-8.466],[-36.859,-8.512],[-36.875,-8.541],[-36.906,-8.568],[-36.912,-8.612],[-36.786,-8.71],[-36.773,-8.732],[-36.702,-8.724],[-36.69,-8.67]]]}},{"type":"Feature","properties":{"code":"2607802"},"geometry":{"type":"Polygon","coordinates":[[[-35.098,-7.715],[-35.045,-7.745],[-34.972,-7.729],[-34.962,-7.708],[-34.924,-7.692],[-35.072,-7.618],[-35.122,-7.67],[-35.092,-7.692],[-35.098,-7.715]]]}},{"type":"Feature","properties":{"code":"2607752"},"geometry":{"type":"Polygon","coordinates":[[[-34.922,-7.691],[-34.942,-7.722],[-34.923,-7.808],[-34.89,-7.802],[-34.884,-7.765],[-34.862,-7.712],[-34.886,-7.714],[-34.905,-7.683],[-34.922,-7.691]]]}},{"type":"Feature","properties":{"code":"2616308"},"geometry":{"type":"Polygon","coordinates":[[[-35.26,-7.676],[-35.257,-7.644],[-35.273,-7.591],[-35.307,-7.612],[-35.429,-7.616],[-35.45,-7.603],[-35.463,-7.617],[-35.445,-7.65],[-35.445,-7.692],[-35.419,-7.721],[-35.413,-7.74],[-35.356,-7.71],[-35.322,-7.703],[-35.296,-7.711],[-35.26,-7.676]]]}},{"type":"Feature","properties":{"code":"2608107"},"geometry":{"type":"Polygon","coordinates":[[[-35.688,-7.847],[-35.692,-7.897],[-35.681,-7.91],[-35.616,-7.88],[-35.587,-7.896],[-35.561,-7.89],[-35.521,-7.904],[-35.504,-7.81],[-35.519,-7.801],[-35.569,-7.835],[-35.688,-7.847]]]}},{"type":"Feature","properties":{"code":"2616183"},"geometry":{"type":"Polygon","coordinates":[[[-35.846,-7.809],[-35.802,-7.803],[-35.752,-7.809],[-35.767,-7.772],[-35.79,-7.74],[-35.825,-7.75],[-35.882,-7.754],[-35.881,-7.766],[-35.853,-7.785],[-35.846,-7.809]]]}},{"type":"Feature","properties":{"code":"2607950"},"geometry":{"type":"Polygon","coordinates":[[[-35.774,-8.766],[-35.746,-8.723],[-35.818,-8.696],[-35.814,-8.675],[-35.821,-8.709],[-35.845,-8.716],[-35.861,-8.751],[-35.847,-8.808],[-35.82,-8.779],[-35.774,-8.766]]]}},{"type":"Feature","properties":{"code":"2608057"},"geometry":{"type":"Polygon","coordinates":[[[-38.313,-9.148],[-38.289,-9.172],[-38.288,-9.217],[-38.251,-9.29],[-38.238,-9.33],[-38.203,-9.297],[-38.18,-9.291],[-38.156,-9.25],[-38.144,-9.218],[-38.092,-9.173],[-38.199,-9.152],[-38.205,-9.104],[-38.313,-9.148]]]}},{"type":"Feature","properties":{"code":"2616209"},"geometry":{"type":"Polygon","coordinates":[[[-36.012,-7.988],[-36.005,-7.976],[-35.958,-7.99],[-35.967,-7.908],[-35.911,-7.895],[-35.911,-7.879],[-35.915,-7.846],[-35.943,-7.79],[-35.959,-7.787],[-36.003,-7.813],[-36.017,-7.838],[-36.013,-7.896],[-36.071,-7.981],[-36.012,-7.988]]]}},{"type":"Feature","properties":{"code":"2608008"},"geometry":{"type":"Polygon","coordinates":[[[-36.573,-7.936],[-36.587,-7.959],[-36.612,-7.949],[-36.628,-7.986],[-36.629,-8.057],[-36.654,-8.07],[-36.629,-8.111],[-36.694,-8.141],[-36.687,-8.156],[-36.646,-8.208],[-36.606,-8.212],[-36.547,-8.21],[-36.491,-8.133],[-36.444,-8.146],[-36.38,-7.977],[-36.444,-7.92],[-36.446,-7.916],[-36.48,-7.925],[-36.536,-7.902],[-36.572,-7.904],[-36.573,-7.936]]]}},{"type":"Feature","properties":{"code":"2615508"},"geometry":{"type":"Polygon","coordinates":[[[-35.252,-7.809],[-35.226,-7.824],[-35.145,-7.827],[-35.14,-7.792],[-35.099,-7.723],[-35.098,-7.715],[-35.092,-7.692],[-35.122,-7.67],[-35.122,-7.669],[-35.157,-7.689],[-35.156,-7.71],[-35.193,-7.758],[-35.248,-7.796],[-35.252,-7.809]]]}},{"type":"Feature","properties":{"code":"2607307"},"geometry":{"type":"Polygon","coordinates":[[[-40.104,-7.687],[-40.157,-7.372],[-40.196,-7.358],[-40.244,-7.316],[-40.263,-7.301],[-40.311,-7.301],[-40.345,-7.329],[-40.273,-7.562],[-40.238,-7.685],[-40.212,-7.677],[-40.163,-7.703],[-40.104,-7.687]]]}},{"type":"Feature","properties":{"code":"2615607"},"geometry":{"type":"Polygon","coordinates":[[[-40.345,-7.849],[-40.237,-7.819],[-40.238,-7.685],[-40.273,-7.562],[-40.36,-7.71],[-40.353,-7.825],[-40.345,-7.849]]]}},{"type":"Feature","properties":{"code":"2607406"},"geometry":{"type":"Polygon","coordinates":[[[-38.627,-8.62],[-38.843,-8.696],[-38.853,-8.726],[-38.855,-8.784],[-38.807,-8.788],[-38.74,-8.845],[-38.706,-8.862],[-38.694,-8.919],[-38.662,-8.899],[-38.66,-8.798],[-38.641,-8.699],[-38.627,-8.684],[-38.627,-8.62]]]}},{"type":"Feature","properties":{"code":"2615409"},"geometry":{"type":"Polygon","coordinates":[[[-36.098,-8.005],[-36.082,-8.022],[-36.012,-7.988],[-36.071,-7.981],[-36.098,-8.005]]]}},{"type":"Feature","properties":{"code":"2607208"},"geometry":{"type":"Polygon","coordinates":[[[-35.048,-8.609],[-35.034,-8.572],[-35.007,-8.562],[-35.002,-8.497],[-34.961,-8.396],[-34.961,-8.367],[-34.986,-8.353],[-35.024,-8.364],[-35.079,-8.335],[-35.108,-8.334],[-35.14,-8.31],[-35.171,-8.355],[-35.238,-8.418],[-35.203,-8.479],[-35.145,-8.489],[-35.126,-8.519],[-35.078,-8.529],[-35.065,-8.597],[-35.048,-8.609]]]}},{"type":"Feature","properties":{"code":"2615805"},"geometry":{"type":"Polygon","coordinates":[[[-37.366,-8.798],[-37.364,-8.82],[-37.318,-8.828],[-37.255,-8.812],[-37.239,-8.826],[-37.227,-8.867],[-37.169,-8.941],[-37.101,-8.96],[-37.081,-8.918],[-37.084,-8.855],[-37.12,-8.812],[-37.142,-8.8],[-37.161,-8.767],[-37.184,-8.752],[-37.241,-8.74],[-37.241,-8.72],[-37.265,-8.694],[-37.3,-8.638],[-37.222,-8.406],[-37.281,-8.388],[-37.309,-8.4],[-37.363,-8.406],[-37.368,-8.418],[-37.391,-8.511],[-37.366,-8.798]]]}},{"type":"Feature","properties":{"code":"2607604"},"geometry":{"type":"Polygon","coordinates":[[[-34.845,-7.816],[-34.823,-7.752],[-34.832,-7.7],[-34.848,-7.688],[-34.862,-7.712],[-34.884,-7.765],[-34.89,-7.802],[-34.845,-7.816]]]}},{"type":"Feature","properties":{"code":"2607653"},"geometry":{"type":"Polygon","coordinates":[[[-35.061,-7.541],[-35.078,-7.514],[-34.985,-7.462],[-35.071,-7.399],[-35.108,-7.405],[-35.154,-7.393],[-35.191,-7.398],[-35.249,-7.375],[-35.28,-7.388],[-35.333,-7.415],[-35.273,-7.404],[-35.237,-7.441],[-35.157,-7.502],[-35.125,-7.538],[-35.097,-7.544],[-35.061,-7.541]]]}}]}