{"type":"FeatureCollection","features":[{"type":"Feature","properties":{"code":"2709152"},"geometry":{"type":"Polygon","coordinates":[[[-36.453,-10.04],[-36.305,-10.031],[-36.291,-10.0],[-36.281,-9.935],[-36.281,-9.935],[-36.278,-9.892],[-36.313,-9.887],[-36.395,-9.874],[-36.448,-9.96],[-36.479,-9.96],[-36.473,-9.986],[-36.488,-10.017],[-36.455,-10.033],[-36.453,-10.04]]]}},{"type":"Feature","properties":{"code":"2701308"},"geometry":{"type":"Polygon","coordinates":[[[-36.156,-9.473],[-36.108,-9.321],[-36.154,-9.305],[-36.211,-9.453],[-36.208,-9.455],[-36.156,-9.473]]]}},{"type":"Feature","properties":{"code":"2701357"},"geometry":{"type":"Polygon","coordinates":[[[-35.491,-8.942],[-35.496,-8.896],[-35.538,-8.882],[-35.548,-8.845],[-35.54,-8.821],[-35.57,-8.843],[-35.586,-8.892],[-35.579,-8.911],[-35.554,-8.906],[-35.515,-8.95],[-35.491,-8.942]]]}},{"type":"Feature","properties":{"code":"2709400"},"geometry":{"type":"Polygon","coordinates":[[[-36.389,-9.425],[-36.339,-9.465],[-36.311,-9.427],[-36.211,-9.453],[-36.154,-9.305],[-36.201,-9.219],[-36.237,-9.291],[-36.299,-9.312],[-36.327,-9.285],[-36.34,-9.287],[-36.389,-9.425]]]}},{"type":"Feature","properties":{"code":"2701209"},"geometry":{"type":"Polygon","coordinates":[[[-36.834,-9.509],[-36.846,-9.451],[-36.828,-9.428],[-36.827,-9.391],[-36.901,-9.398],[-36.937,-9.377],[-36.956,-9.381],[-36.98,-9.359],[-36.994,-9.374],[-37.023,-9.37],[-37.04,-9.418],[-36.98,-9.486],[-36.916,-9.522],[-36.859,-9.547],[-36.837,-9.532],[-36.834,-9.509]]]}},{"type":"Feature","properties":{"code":"2708709"},"geometry":{"type":"Polygon","coordinates":[[[-35.386,-9.286],[-35.339,-9.231],[-35.378,-9.21],[-35.428,-9.194],[-35.476,-9.191],[-35.466,-9.225],[-35.424,-9.246],[-35.386,-9.286]]]}},{"type":"Feature","properties":{"code":"2700508"},"geometry":{"type":"Polygon","coordinates":[[[-35.677,-9.399],[-35.621,-9.41],[-35.55,-9.404],[-35.525,-9.443],[-35.501,-9.423],[-35.492,-9.383],[-35.472,-9.358],[-35.514,-9.314],[-35.518,-9.355],[-35.687,-9.371],[-35.691,-9.371],[-35.677,-9.399]]]}},{"type":"Feature","properties":{"code":"2700607"},"geometry":{"type":"Polygon","coordinates":[[[-35.905,-9.856],[-35.855,-9.788],[-35.906,-9.812],[-35.942,-9.788],[-35.98,-9.786],[-36.005,-9.767],[-36.027,-9.811],[-36.016,-9.808],[-35.941,-9.845],[-35.905,-9.856]]]}},{"type":"Feature","properties":{"code":"2708600"},"geometry":{"type":"Polygon","coordinates":[[[-36.184,-9.801],[-36.156,-9.86],[-36.127,-9.837],[-36.092,-9.865],[-36.055,-9.875],[-36.041,-9.858],[-36.027,-9.811],[-36.005,-9.767],[-35.989,-9.739],[-35.987,-9.703],[-36.034,-9.701],[-36.075,-9.674],[-36.073,-9.701],[-36.18,-9.722],[-36.247,-9.732],[-36.184,-9.801]]]}},{"type":"Feature","properties":{"code":"2700409"},"geometry":{"type":"Polygon","coordinates":[[[-35.96,-9.528],[-35.937,-9.492],[-35.931,-9.462],[-35.929,-9.376],[-36.017,-9.397],[-36.102,-9.454],[-36.156,-9.473],[-36.208,-9.455],[-36.221,-9.484],[-36.227,-9.514],[-36.218,-9.563],[-36.192,-9.6],[-36.181,-9.612],[-36.157,-9.618],[-36.12,-9.596],[-36.072,-9.599],[-36.001,-9.575],[-35.96,-9.528]]]}},{"type":"Feature","properties":{"code":"2700805"},"geometry":{"type":"Polygon","coordinates":[[[-36.447,-9.606],[-36.488,-9.502],[-36.526,-9.514],[-36.533,-9.531],[-36.538,-9.533],[-36.495,-9.604],[-36.447,-9.606]]]}},{"type":"Feature","properties":{"code":"2708956"},"geometry":{"type":"Polygon","coordinates":[[[-37.654,-9.409],[-37.446,-9.476],[-37.438,-9.448],[-37.34,-9.419],[-37.445,-9.358],[-37.484,-9.345],[-37.519,-9.31],[-37.588,-9.296],[-37.617,-9.357],[-37.654,-9.409],[-37.654,-9.409]]]}},{"type":"Feature","properties":{"code":"2709004"},"geometry":{"type":"Polygon","coordinates":[[[-36.394,-9.648],[-36.392,-9.603],[-36.35,-9.592],[-36.382,-9.561],[-36.375,-9.528],[-36.387,-9.51],[-36.451,-9.505],[-36.468,-9.486],[-36.488,-9.502],[-36.447,-9.606],[-36.402,-9.618],[-36.394,-9.648]]]}},{"type":"Feature","properties":{"code":"2708808"},"geometry":{"type":"Polygon","coordinates":[[[-36.455,-10.033],[-36.488,-10.017],[-36.473,-9.986],[-36.479,-9.96],[-36.5,-9.894],[-36.496,-9.867],[-36.553,-9.839],[-36.543,-9.872],[-36.591,-9.872],[-36.604,-9.873],[-36.614,-9.951],[-36.646,-9.985],[-36.648,-10.026],[-36.645,-10.034],[-36.511,-10.042],[-36.492,-10.072],[-36.455,-10.033]]]}},{"type":"Feature","properties":{"code":"2708907"},"geometry":{"type":"Polygon","coordinates":[[[-35.814,-9.58],[-35.797,-9.531],[-35.846,-9.548],[-35.887,-9.589],[-35.868,-9.625],[-35.868,-9.626],[-35.825,-9.578],[-35.814,-9.58]]]}},{"type":"Feature","properties":{"code":"2700706"},"geometry":{"type":"Polygon","coordinates":[[[-37.04,-9.807],[-36.997,-9.756],[-36.994,-9.721],[-37.06,-9.683],[-37.046,-9.62],[-37.145,-9.601],[-37.153,-9.613],[-37.191,-9.69],[-37.219,-9.71],[-37.165,-9.745],[-37.092,-9.816],[-37.04,-9.807]]]}},{"type":"Feature","properties":{"code":"2708204"},"geometry":{"type":"Polygon","coordinates":[[[-36.85,-10.178],[-36.813,-10.146],[-36.77,-10.124],[-36.813,-10.092],[-36.822,-10.075],[-36.875,-10.054],[-36.947,-10.075],[-36.918,-10.125],[-36.883,-10.148],[-36.85,-10.178]]]}},{"type":"Feature","properties":{"code":"2700102"},"geometry":{"type":"Polygon","coordinates":[[[-37.872,-9.407],[-37.854,-9.395],[-37.833,-9.352],[-37.809,-9.329],[-37.777,-9.324],[-37.769,-9.289],[-37.833,-9.221],[-37.947,-9.095],[-37.979,-9.148],[-38.012,-9.156],[-37.973,-9.196],[-37.966,-9.245],[-37.983,-9.284],[-37.983,-9.33],[-38.0,-9.336],[-37.872,-9.407]]]}},{"type":"Feature","properties":{"code":"2708105"},"geometry":{"type":"Polygon","coordinates":[[[-36.291,-9.174],[-36.269,-9.192],[-36.201,-9.219],[-36.184,-9.201],[-36.111,-9.157],[-36.133,-9.124],[-36.117,-9.055],[-36.121,-9.028],[-36.152,-9.043],[-36.196,-9.045],[-36.21,-9.073],[-36.241,-9.099],[-36.267,-9.102],[-36.257,-9.14],[-36.265,-9.166],[-36.291,-9.174]]]}},{"type":"Feature","properties":{"code":"2708501"},"geometry":{"type":"Polygon","coordinates":[[[-35.687,-9.371],[-35.518,-9.355],[-35.514,-9.314],[-35.579,-9.256],[-35.599,-9.222],[-35.591,-9.19],[-35.617,-9.135],[-35.654,-9.106],[-35.69,-9.102],[-35.725,-9.125],[-35.693,-9.26],[-35.687,-9.371]]]}},{"type":"Feature","properties":{"code":"2700300"},"geometry":{"type":"Polygon","coordinates":[[[-36.591,-9.872],[-36.543,-9.872],[-36.553,-9.839],[-36.565,-9.804],[-36.553,-9.771],[-36.573,-9.749],[-36.583,-9.699],[-36.609,-9.654],[-36.64,-9.636],[-36.686,-9.635],[-36.755,-9.707],[-36.691,-9.804],[-36.602,-9.848],[-36.591,-9.872]]]}},{"type":"Feature","properties":{"code":"2708303"},"geometry":{"type":"Polygon","coordinates":[[[-36.117,-9.055],[-36.09,-9.067],[-36.047,-9.065],[-36.0,-9.04],[-35.955,-9.031],[-35.953,-8.947],[-35.988,-8.904],[-36.033,-8.908],[-36.064,-8.915],[-36.082,-8.941],[-36.128,-8.958],[-36.129,-8.977],[-36.104,-8.999],[-36.111,-9.018],[-36.121,-9.028],[-36.117,-9.055]]]}},{"type":"Feature","properties":{"code":"2708402"},"geometry":{"type":"Polygon","coordinates":[[[-37.672,-9.536],[-37.617,-9.497],[-37.564,-9.518],[-37.569,-9.548],[-37.497,-9.608],[-37.469,-9.65],[-37.357,-9.638],[-37.314,-9.553],[-37.373,-9.525],[-37.446,-9.476],[-37.654,-9.409],[-37.669,-9.463],[-37.672,-9.536]]]}},{"type":"Feature","properties":{"code":"2700201"},"geometry":{"type":"Polygon","coordinates":[[[-36.253,-9.73],[-36.239,-9.675],[-36.255,-9.621],[-36.288,-9.609],[-36.316,-9.613],[-36.35,-9.592],[-36.392,-9.603],[-36.394,-9.648],[-36.388,-9.652],[-36.37,-9.699],[-36.343,-9.713],[-36.343,-9.739],[-36.333,-9.713],[-36.28,-9.734],[-36.253,-9.73]]]}},{"type":"Feature","properties":{"code":"2707701"},"geometry":{"type":"Polygon","coordinates":[[[-35.96,-9.528],[-35.887,-9.589],[-35.846,-9.548],[-35.797,-9.531],[-35.77,-9.39],[-35.77,-9.388],[-35.877,-9.417],[-35.929,-9.376],[-35.931,-9.462],[-35.937,-9.492],[-35.96,-9.528]]]}},{"type":"Feature","properties":{"code":"2707602"},"geometry":{"type":"Polygon","coordinates":[[[-36.487,-9.406],[-36.416,-9.355],[-36.385,-9.312],[-36.391,-9.293],[-36.34,-9.287],[-36.327,-9.285],[-36.356,-9.218],[-36.403,-9.223],[-36.432,-9.212],[-36.462,-9.239],[-36.487,-9.24],[-36.5,-9.263],[-36.572,-9.293],[-36.567,-9.331],[-36.607,-9.341],[-36.625,-9.332],[-36.593,-9.361],[-36.55,-9.354],[-36.487,-9.406]]]}},{"type":"Feature","properties":{"code":"2708006"},"geometry":{"type":"Polygon","coordinates":[[[-37.267,-9.45],[-37.23,-9.446],[-37.198,-9.432],[-37.126,-9.437],[-37.136,-9.408],[-37.106,-9.373],[-37.091,-9.328],[-37.061,-9.308],[-37.057,-9.282],[-37.091,-9.246],[-37.117,-9.241],[-37.13,-9.26],[-37.169,-9.265],[-37.214,-9.31],[-37.289,-9.348],[-37.397,-9.36],[-37.445,-9.358],[-37.34,-9.419],[-37.267,-9.45]]]}},{"type":"Feature","properties":{"code":"2707800"},"geometry":{"type":"Polygon","coordinates":[[[-35.905,-9.856],[-35.941,-9.845],[-36.016,-9.808],[-36.027,-9.811],[-36.041,-9.858],[-36.021,-9.92],[-35.983,-9.91],[-35.963,-9.941],[-35.938,-9.902],[-35.907,-9.874],[-35.905,-9.856]]]}},{"type":"Feature","properties":{"code":"2707909"},"geometry":{"type":"Polygon","coordinates":[[[-35.868,-9.626],[-35.823,-9.638],[-35.794,-9.6],[-35.814,-9.58],[-35.825,-9.578],[-35.868,-9.626]]]}},{"type":"Feature","properties":{"code":"2707206"},"geometry":{"type":"Polygon","coordinates":[[[-37.445,-9.358],[-37.397,-9.36],[-37.289,-9.348],[-37.214,-9.31],[-37.169,-9.265],[-37.16,-9.238],[-37.198,-9.216],[-37.229,-9.227],[-37.336,-9.267],[-37.414,-9.29],[-37.399,-9.332],[-37.588,-9.287],[-37.588,-9.296],[-37.519,-9.31],[-37.484,-9.345],[-37.445,-9.358]]]}},{"type":"Feature","properties":{"code":"2707107"},"geometry":{"type":"Polygon","coordinates":[[[-37.842,-9.579],[-37.818,-9.593],[-37.786,-9.639],[-37.747,-9.625],[-37.71,-9.63],[-37.669,-9.658],[-37.66,-9.678],[-37.659,-9.657],[-37.637,-9.602],[-37.672,-9.536],[-37.669,-9.463],[-37.654,-9.409],[-37.654,-9.409],[-37.725,-9.334],[-37.72,-9.388],[-37.766,-9.443],[-37.789,-9.529],[-37.829,-9.548],[-37.842,-9.579]]]}},{"type":"Feature","properties":{"code":"2707404"},"geometry":{"type":"Polygon","coordinates":[[[-35.339,-9.231],[-35.295,-9.171],[-35.295,-9.155],[-35.312,-9.147],[-35.346,-9.125],[-35.372,-9.089],[-35.439,-9.067],[-35.481,-9.073],[-35.502,-9.085],[-35.526,-9.118],[-35.482,-9.146],[-35.467,-9.167],[-35.476,-9.191],[-35.428,-9.194],[-35.378,-9.21],[-35.339,-9.231]]]}},{"type":"Feature","properties":{"code":"2707503"},"geometry":{"type":"Polygon","coordinates":[[[-36.72,-10.265],[-36.718,-10.25],[-36.731,-10.161],[-36.745,-10.145],[-36.676,-10.123],[-36.669,-10.049],[-36.648,-10.026],[-36.646,-9.985],[-36.687,-9.966],[-36.707,-10.001],[-36.714,-10.046],[-36.736,-10.084],[-36.77,-10.124],[-36.813,-10.146],[-36.85,-10.178],[-36.845,-10.189],[-36.826,-10.211],[-36.791,-10.227],[-36.749,-10.228],[-36.72,-10.265]]]}},{"type":"Feature","properties":{"code":"2707305"},"geometry":{"type":"Polygon","coordinates":[[[-35.312,-9.147],[-35.337,-9.081],[-35.336,-9.032],[-35.303,-9.028],[-35.343,-9.003],[-35.366,-8.943],[-35.378,-8.969],[-35.422,-8.921],[-35.454,-8.95],[-35.541,-9.017],[-35.565,-9.01],[-35.56,-9.049],[-35.502,-9.085],[-35.481,-9.073],[-35.439,-9.067],[-35.372,-9.089],[-35.346,-9.125],[-35.312,-9.147]]]}},{"type":"Feature","properties":{"code":"2706703"},"geometry":{"type":"Polygon","coordinates":[[[-36.487,-10.423],[-36.506,-10.396],[-36.508,-10.368],[-36.46,-10.333],[-36.417,-10.329],[-36.393,-10.31],[-36.376,-10.292],[-36.396,-10.261],[-36.371,-10.23],[-36.338,-10.186],[-36.36,-10.157],[-36.362,-10.121],[-36.4,-10.1],[-36.449,-10.06],[-36.453,-10.04],[-36.455,-10.033],[-36.492,-10.072],[-36.504,-10.126],[-36.525,-10.177],[-36.614,-10.2],[-36.656,-10.245],[-36.647,-10.257],[-36.621,-10.256],[-36.587,-10.301],[-36.572,-10.316],[-36.557,-10.377],[-36.562,-10.416],[-36.535,-10.43],[-36.489,-10.425],[-36.487,-10.423]]]}},{"type":"Feature","properties":{"code":"2706505"},"geometry":{"type":"Polygon","coordinates":[[[-35.472,-9.358],[-35.396,-9.301],[-35.386,-9.286],[-35.424,-9.246],[-35.466,-9.225],[-35.476,-9.191],[-35.555,-9.191],[-35.58,-9.158],[-35.617,-9.135],[-35.591,-9.19],[-35.599,-9.222],[-35.579,-9.256],[-35.514,-9.314],[-35.472,-9.358]]]}},{"type":"Feature","properties":{"code":"2706604"},"geometry":{"type":"Polygon","coordinates":[[[-36.487,-9.406],[-36.461,-9.453],[-36.389,-9.425],[-36.34,-9.287],[-36.391,-9.293],[-36.385,-9.312],[-36.416,-9.355],[-36.487,-9.406]]]}},{"type":"Feature","properties":{"code":"2706901"},"geometry":{"type":"Polygon","coordinates":[[[-36.181,-9.612],[-36.134,-9.65],[-36.099,-9.652],[-36.075,-9.674],[-36.034,-9.701],[-36.02,-9.661],[-35.987,-9.662],[-35.978,-9.644],[-35.943,-9.64],[-35.888,-9.648],[-35.868,-9.625],[-35.887,-9.589],[-35.96,-9.528],[-36.001,-9.575],[-36.072,-9.599],[-36.12,-9.596],[-36.157,-9.618],[-36.181,-9.612]]]}},{"type":"Feature","properties":{"code":"2707008"},"geometry":{"type":"Polygon","coordinates":[[[-36.339,-9.465],[-36.355,-9.469],[-36.34,-9.511],[-36.306,-9.522],[-36.256,-9.519],[-36.221,-9.484],[-36.208,-9.455],[-36.211,-9.453],[-36.311,-9.427],[-36.339,-9.465]]]}},{"type":"Feature","properties":{"code":"2706802"},"geometry":{"type":"Polygon","coordinates":[[[-36.487,-10.423],[-36.463,-10.409],[-36.431,-10.43],[-36.396,-10.497],[-36.388,-10.499],[-36.301,-10.345],[-36.393,-10.31],[-36.417,-10.329],[-36.46,-10.333],[-36.508,-10.368],[-36.506,-10.396],[-36.487,-10.423]]]}},{"type":"Feature","properties":{"code":"2706208"},"geometry":{"type":"Polygon","coordinates":[[[-37.303,-9.636],[-37.349,-9.689],[-37.24,-9.736],[-37.288,-9.687],[-37.303,-9.636]]]}},{"type":"Feature","properties":{"code":"2706000"},"geometry":{"type":"Polygon","coordinates":[[[-37.12,-9.538],[-37.104,-9.491],[-37.105,-9.461],[-37.126,-9.437],[-37.198,-9.432],[-37.23,-9.446],[-37.267,-9.45],[-37.27,-9.457],[-37.228,-9.519],[-37.187,-9.561],[-37.12,-9.538]]]}},{"type":"Feature","properties":{"code":"2706109"},"geometry":{"type":"Polygon","coordinates":[[[-37.436,-9.184],[-37.313,-9.197],[-37.279,-9.152],[-37.297,-9.121],[-37.359,-9.054],[-37.396,-9.028],[-37.427,-9.104],[-37.419,-9.135],[-37.436,-9.184]]]}},{"type":"Feature","properties":{"code":"2706422"},"geometry":{"type":"Polygon","coordinates":[[[-38.0,-9.336],[-37.983,-9.33],[-37.983,-9.284],[-37.966,-9.245],[-37.973,-9.196],[-38.012,-9.156],[-38.066,-9.174],[-38.092,-9.173],[-38.144,-9.218],[-38.156,-9.25],[-38.0,-9.336]]]}},{"type":"Feature","properties":{"code":"2706406"},"geometry":{"type":"Polygon","coordinates":[[[-37.24,-9.736],[-37.349,-9.689],[-37.303,-9.636],[-37.357,-9.638],[-37.469,-9.65],[-37.497,-9.608],[-37.569,-9.548],[-37.564,-9.518],[-37.617,-9.497],[-37.672,-9.536],[-37.637,-9.602],[-37.659,-9.657],[-37.66,-9.678],[-37.572,-9.739],[-37.466,-9.748],[-37.408,-9.764],[-37.394,-9.779],[-37.347,-9.791],[-37.326,-9.817],[-37.297,-9.831],[-37.31,-9.804],[-37.297,-9.783],[-37.24,-9.736]]]}},{"type":"Feature","properties":{"code":"2706448"},"geometry":{"type":"Polygon","coordinates":[[[-35.559,-9.488],[-35.525,-9.443],[-35.55,-9.404],[-35.621,-9.41],[-35.677,-9.399],[-35.664,-9.431],[-35.626,-9.448],[-35.618,-9.469],[-35.59,-9.469],[-35.559,-9.488]]]}},{"type":"Feature","properties":{"code":"2706307"},"geometry":{"type":"Polygon","coordinates":[[[-36.533,-9.531],[-36.526,-9.514],[-36.488,-9.502],[-36.468,-9.486],[-36.461,-9.453],[-36.487,-9.406],[-36.55,-9.354],[-36.593,-9.361],[-36.625,-9.332],[-36.7,-9.293],[-36.72,-9.348],[-36.724,-9.39],[-36.72,-9.471],[-36.709,-9.485],[-36.639,-9.501],[-36.616,-9.482],[-36.57,-9.486],[-36.533,-9.531]]]}},{"type":"Feature","properties":{"code":"2705705"},"geometry":{"type":"Polygon","coordinates":[[[-37.145,-9.601],[-37.12,-9.538],[-37.187,-9.561],[-37.228,-9.519],[-37.27,-9.457],[-37.279,-9.457],[-37.38,-9.503],[-37.373,-9.525],[-37.314,-9.553],[-37.305,-9.536],[-37.252,-9.582],[-37.16,-9.603],[-37.153,-9.613],[-37.145,-9.601]]]}},{"type":"Feature","properties":{"code":"2705507"},"geometry":{"type":"Polygon","coordinates":[[[-35.877,-9.417],[-35.83,-9.323],[-35.836,-9.264],[-35.834,-9.236],[-35.889,-9.138],[-36.002,-9.266],[-36.043,-9.281],[-36.037,-9.342],[-36.001,-9.321],[-36.017,-9.397],[-35.929,-9.376],[-35.877,-9.417]]]}},{"type":"Feature","properties":{"code":"2705606"},"geometry":{"type":"Polygon","coordinates":[[[-35.565,-9.01],[-35.583,-8.974],[-35.579,-8.911],[-35.586,-8.892],[-35.57,-8.843],[-35.583,-8.847],[-35.632,-8.881],[-35.652,-8.882],[-35.646,-8.902],[-35.675,-8.937],[-35.704,-8.953],[-35.716,-9.017],[-35.681,-9.024],[-35.56,-9.049],[-35.565,-9.01]]]}},{"type":"Feature","properties":{"code":"2705903"},"geometry":{"type":"Polygon","coordinates":[[[-36.714,-10.046],[-36.788,-10.022],[-36.799,-10.006],[-36.842,-10.011],[-36.875,-10.054],[-36.822,-10.075],[-36.813,-10.092],[-36.77,-10.124],[-36.736,-10.084],[-36.714,-10.046]]]}},{"type":"Feature","properties":{"code":"2705804"},"geometry":{"type":"Polygon","coordinates":[[[-37.842,-9.579],[-37.829,-9.548],[-37.789,-9.529],[-37.766,-9.443],[-37.72,-9.388],[-37.725,-9.334],[-37.769,-9.289],[-37.777,-9.324],[-37.809,-9.329],[-37.833,-9.352],[-37.854,-9.395],[-37.872,-9.407],[-37.894,-9.449],[-37.889,-9.53],[-37.894,-9.54],[-37.842,-9.579]]]}},{"type":"Feature","properties":{"code":"2705101"},"geometry":{"type":"Polygon","coordinates":[[[-35.476,-9.191],[-35.467,-9.167],[-35.482,-9.146],[-35.526,-9.118],[-35.502,-9.085],[-35.56,-9.049],[-35.681,-9.024],[-35.709,-9.056],[-35.687,-9.1],[-35.629,-9.092],[-35.58,-9.158],[-35.555,-9.191],[-35.476,-9.191]]]}},{"type":"Feature","properties":{"code":"2705200"},"geometry":{"type":"Polygon","coordinates":[[[-35.877,-9.417],[-35.77,-9.388],[-35.769,-9.309],[-35.804,-9.267],[-35.836,-9.264],[-35.83,-9.323],[-35.877,-9.417]]]}},{"type":"Feature","properties":{"code":"2705002"},"geometry":{"type":"Polygon","coordinates":[[[-37.833,-9.221],[-37.792,-9.194],[-37.744,-9.197],[-37.731,-9.184],[-37.682,-9.179],[-37.637,-9.108],[-37.581,-9.057],[-37.528,-8.961],[-37.556,-8.97],[-37.596,-8.969],[-37.629,-9.001],[-37.658,-8.993],[-37.699,-8.936],[-37.741,-8.876],[-37.755,-8.846],[-37.826,-8.889],[-37.826,-8.933],[-37.853,-9.0],[-37.93,-9.071],[-37.947,-9.095],[-37.833,-9.221]]]}},{"type":"Feature","properties":{"code":"2705408"},"geometry":{"type":"Polygon","coordinates":[[[-37.303,-9.636],[-37.253,-9.633],[-37.236,-9.605],[-37.252,-9.582],[-37.305,-9.536],[-37.314,-9.553],[-37.357,-9.638],[-37.303,-9.636]]]}},{"type":"Feature","properties":{"code":"2705309"},"geometry":{"type":"Polygon","coordinates":[[[-36.797,-9.28],[-36.836,-9.289],[-36.88,-9.276],[-36.914,-9.296],[-36.937,-9.35],[-36.937,-9.377],[-36.901,-9.398],[-36.827,-9.391],[-36.803,-9.368],[-36.797,-9.28]]]}},{"type":"Feature","properties":{"code":"2704609"},"geometry":{"type":"Polygon","coordinates":[[[-37.588,-9.287],[-37.399,-9.332],[-37.414,-9.29],[-37.336,-9.267],[-37.229,-9.227],[-37.247,-9.179],[-37.279,-9.152],[-37.313,-9.197],[-37.436,-9.184],[-37.515,-9.241],[-37.588,-9.287]]]}},{"type":"Feature","properties":{"code":"2704708"},"geometry":{"type":"Polygon","coordinates":[[[-35.855,-9.788],[-35.814,-9.731],[-35.79,-9.711],[-35.791,-9.681],[-35.813,-9.655],[-35.864,-9.655],[-35.868,-9.626],[-35.868,-9.625],[-35.888,-9.648],[-35.943,-9.64],[-35.978,-9.644],[-35.987,-9.662],[-36.02,-9.661],[-36.034,-9.701],[-35.987,-9.703],[-35.989,-9.739],[-36.005,-9.767],[-35.98,-9.786],[-35.942,-9.788],[-35.906,-9.812],[-35.855,-9.788]]]}},{"type":"Feature","properties":{"code":"2704500"},"geometry":{"type":"Polygon","coordinates":[[[-35.241,-9.065],[-35.217,-9.008],[-35.182,-8.978],[-35.153,-8.914],[-35.171,-8.891],[-35.235,-8.883],[-35.253,-8.887],[-35.351,-8.861],[-35.372,-8.912],[-35.366,-8.943],[-35.343,-9.003],[-35.303,-9.028],[-35.261,-9.069],[-35.241,-9.065]]]}},{"type":"Feature","properties":{"code":"2704906"},"geometry":{"type":"Polygon","coordinates":[[[-36.389,-9.425],[-36.461,-9.453],[-36.468,-9.486],[-36.451,-9.505],[-36.387,-9.51],[-36.34,-9.511],[-36.355,-9.469],[-36.339,-9.465],[-36.389,-9.425]]]}},{"type":"Feature","properties":{"code":"2704807"},"geometry":{"type":"Polygon","coordinates":[[[-36.387,-9.51],[-36.375,-9.528],[-36.382,-9.561],[-36.35,-9.592],[-36.316,-9.613],[-36.288,-9.609],[-36.255,-9.621],[-36.24,-9.594],[-36.192,-9.6],[-36.218,-9.563],[-36.227,-9.514],[-36.221,-9.484],[-36.256,-9.519],[-36.306,-9.522],[-36.34,-9.511],[-36.387,-9.51]]]}},{"type":"Feature","properties":{"code":"2704104"},"geometry":{"type":"Polygon","coordinates":[[[-36.747,-9.877],[-36.691,-9.804],[-36.755,-9.707],[-36.775,-9.73],[-36.743,-9.764],[-36.76,-9.792],[-36.758,-9.839],[-36.747,-9.877]]]}},{"type":"Feature","properties":{"code":"2704005"},"geometry":{"type":"Polygon","coordinates":[[[-36.479,-9.96],[-36.448,-9.96],[-36.395,-9.874],[-36.313,-9.887],[-36.335,-9.857],[-36.401,-9.783],[-36.464,-9.784],[-36.473,-9.803],[-36.526,-9.803],[-36.553,-9.839],[-36.496,-9.867],[-36.5,-9.894],[-36.479,-9.96]]]}},{"type":"Feature","properties":{"code":"2704401"},"geometry":{"type":"Polygon","coordinates":[[[-36.887,-9.599],[-36.831,-9.552],[-36.837,-9.532],[-36.859,-9.547],[-36.916,-9.522],[-36.98,-9.486],[-37.04,-9.418],[-37.105,-9.461],[-37.104,-9.491],[-37.12,-9.538],[-37.145,-9.601],[-37.046,-9.62],[-37.001,-9.63],[-36.887,-9.599]]]}},{"type":"Feature","properties":{"code":"2704203"},"geometry":{"type":"Polygon","coordinates":[[[-36.553,-9.839],[-36.526,-9.803],[-36.473,-9.803],[-36.464,-9.784],[-36.401,-9.783],[-36.36,-9.769],[-36.343,-9.739],[-36.343,-9.713],[-36.37,-9.699],[-36.388,-9.652],[-36.51,-9.692],[-36.536,-9.663],[-36.583,-9.699],[-36.573,-9.749],[-36.553,-9.771],[-36.565,-9.804],[-36.553,-9.839]]]}},{"type":"Feature","properties":{"code":"2704302"},"geometry":{"type":"Polygon","coordinates":[[[-35.79,-9.711],[-35.761,-9.683],[-35.708,-9.665],[-35.691,-9.62],[-35.651,-9.569],[-35.591,-9.529],[-35.559,-9.488],[-35.59,-9.469],[-35.618,-9.469],[-35.626,-9.448],[-35.664,-9.431],[-35.677,-9.399],[-35.691,-9.371],[-35.77,-9.39],[-35.797,-9.531],[-35.814,-9.58],[-35.794,-9.6],[-35.769,-9.639],[-35.791,-9.681],[-35.79,-9.711]]]}},{"type":"Feature","properties":{"code":"2703601"},"geometry":{"type":"Polygon","coordinates":[[[-35.312,-9.147],[-35.295,-9.155],[-35.271,-9.123],[-35.241,-9.065],[-35.261,-9.069],[-35.303,-9.028],[-35.336,-9.032],[-35.337,-9.081],[-35.312,-9.147]]]}},{"type":"Feature","properties":{"code":"2703502"},"geometry":{"type":"Polygon","coordinates":[[[-35.351,-8.861],[-35.409,-8.838],[-35.459,-8.839],[-35.471,-8.816],[-35.496,-8.828],[-35.54,-8.821],[-35.548,-8.845],[-35.538,-8.882],[-35.496,-8.896],[-35.491,-8.942],[-35.454,-8.95],[-35.422,-8.921],[-35.378,-8.969],[-35.366,-8.943],[-35.372,-8.912],[-35.351,-8.861]]]}},{"type":"Feature","properties":{"code":"2703908"},"geometry":{"type":"Polygon","coordinates":[[[-35.579,-8.911],[-35.583,-8.974],[-35.565,-9.01],[-35.541,-9.017],[-35.454,-8.95],[-35.491,-8.942],[-35.515,-8.95],[-35.554,-8.906],[-35.579,-8.911]]]}},{"type":"Feature","properties":{"code":"2703700"},"geometry":{"type":"Polygon","coordinates":[[[-37.046,-9.62],[-37.06,-9.683],[-36.994,-9.721],[-36.969,-9.694],[-36.935,-9.626],[-36.904,-9.627],[-36.887,-9.599],[-37.001,-9.63],[-37.046,-9.62]]]}},{"type":"Feature","properties":{"code":"2703809"},"geometry":{"type":"Polygon","coordinates":[[[-35.889,-9.138],[-35.854,-9.143],[-35.819,-9.159],[-35.785,-9.155],[-35.725,-9.125],[-35.69,-9.102],[-35.654,-9.106],[-35.617,-9.135],[-35.58,-9.158],[-35.629,-9.092],[-35.687,-9.1],[-35.709,-9.056],[-35.681,-9.024],[-35.716,-9.017],[-35.756,-9.01],[-35.835,-8.984],[-35.861,-9.053],[-35.889,-9.138]]]}},{"type":"Feature","properties":{"code":"2703759"},"geometry":{"type":"Polygon","coordinates":[[[-36.281,-9.935],[-36.124,-9.934],[-36.056,-10.012],[-36.057,-10.042],[-36.032,-10.051],[-35.963,-9.941],[-35.983,-9.91],[-36.021,-9.92],[-36.041,-9.858],[-36.055,-9.875],[-36.092,-9.865],[-36.127,-9.837],[-36.156,-9.86],[-36.184,-9.801],[-36.197,-9.829],[-36.22,-9.837],[-36.24,-9.872],[-36.182,-9.88],[-36.178,-9.889],[-36.281,-9.935],[-36.281,-9.935]]]}},{"type":"Feature","properties":{"code":"2703106"},"geometry":{"type":"Polygon","coordinates":[[[-36.609,-9.654],[-36.623,-9.58],[-36.575,-9.566],[-36.538,-9.533],[-36.533,-9.531],[-36.57,-9.486],[-36.616,-9.482],[-36.639,-9.501],[-36.709,-9.485],[-36.793,-9.487],[-36.834,-9.509],[-36.837,-9.532],[-36.831,-9.552],[-36.807,-9.561],[-36.786,-9.55],[-36.698,-9.599],[-36.686,-9.635],[-36.64,-9.636],[-36.609,-9.654]]]}},{"type":"Feature","properties":{"code":"2703007"},"geometry":{"type":"Polygon","coordinates":[[[-35.835,-8.984],[-35.827,-8.87],[-35.845,-8.873],[-35.861,-8.859],[-35.911,-8.861],[-35.924,-8.885],[-35.951,-8.892],[-35.988,-8.904],[-35.953,-8.947],[-35.955,-9.031],[-35.926,-9.032],[-35.901,-9.061],[-35.861,-9.053],[-35.835,-8.984]]]}},{"type":"Feature","properties":{"code":"2703304"},"geometry":{"type":"Polygon","coordinates":[[[-37.588,-9.287],[-37.605,-9.28],[-37.608,-9.232],[-37.622,-9.193],[-37.682,-9.179],[-37.731,-9.184],[-37.744,-9.197],[-37.792,-9.194],[-37.833,-9.221],[-37.769,-9.289],[-37.725,-9.334],[-37.654,-9.409],[-37.617,-9.357],[-37.588,-9.296],[-37.588,-9.287]]]}},{"type":"Feature","properties":{"code":"2703403"},"geometry":{"type":"Polygon","coordinates":[[[-37.219,-9.71],[-37.191,-9.69],[-37.153,-9.613],[-37.16,-9.603],[-37.252,-9.582],[-37.236,-9.605],[-37.253,-9.633],[-37.303,-9.636],[-37.288,-9.687],[-37.24,-9.736],[-37.219,-9.71]]]}},{"type":"Feature","properties":{"code":"2703205"},"geometry":{"type":"Polygon","coordinates":[[[-36.647,-10.257],[-36.656,-10.245],[-36.614,-10.2],[-36.525,-10.177],[-36.504,-10.126],[-36.492,-10.072],[-36.511,-10.042],[-36.645,-10.034],[-36.648,-10.026],[-36.669,-10.049],[-36.676,-10.123],[-36.745,-10.145],[-36.731,-10.161],[-36.718,-10.25],[-36.72,-10.265],[-36.702,-10.27],[-36.684,-10.271],[-36.647,-10.257]]]}},{"type":"Feature","properties":{"code":"2702553"},"geometry":{"type":"Polygon","coordinates":[[[-36.834,-9.509],[-36.793,-9.487],[-36.709,-9.485],[-36.72,-9.471],[-36.724,-9.39],[-36.72,-9.348],[-36.7,-9.293],[-36.762,-9.271],[-36.797,-9.28],[-36.803,-9.368],[-36.827,-9.391],[-36.828,-9.428],[-36.846,-9.451],[-36.834,-9.509]]]}},{"type":"Feature","properties":{"code":"2702603"},"geometry":{"type":"Polygon","coordinates":[[[-36.646,-9.985],[-36.614,-9.951],[-36.604,-9.873],[-36.591,-9.872],[-36.602,-9.848],[-36.691,-9.804],[-36.747,-9.877],[-36.753,-9.883],[-36.725,-9.905],[-36.697,-9.911],[-36.673,-9.937],[-36.687,-9.966],[-36.646,-9.985]]]}},{"type":"Feature","properties":{"code":"2702504"},"geometry":{"type":"Polygon","coordinates":[[[-37.126,-9.437],[-37.105,-9.461],[-37.04,-9.418],[-37.023,-9.37],[-36.994,-9.374],[-36.98,-9.359],[-37.003,-9.353],[-37.024,-9.316],[-37.055,-9.307],[-37.061,-9.308],[-37.091,-9.328],[-37.106,-9.373],[-37.136,-9.408],[-37.126,-9.437]]]}},{"type":"Feature","properties":{"code":"2702801"},"geometry":{"type":"Polygon","coordinates":[[[-35.77,-9.39],[-35.691,-9.371],[-35.687,-9.371],[-35.693,-9.26],[-35.725,-9.125],[-35.785,-9.155],[-35.819,-9.159],[-35.854,-9.143],[-35.889,-9.138],[-35.834,-9.236],[-35.836,-9.264],[-35.804,-9.267],[-35.769,-9.309],[-35.77,-9.388],[-35.77,-9.39]]]}},{"type":"Feature","properties":{"code":"2702900"},"geometry":{"type":"Polygon","coordinates":[[[-36.798,-9.958],[-36.79,-9.926],[-36.753,-9.883],[-36.747,-9.877],[-36.758,-9.839],[-36.76,-9.792],[-36.743,-9.764],[-36.775,-9.73],[-36.817,-9.687],[-36.865,-9.665],[-36.904,-9.627],[-36.935,-9.626],[-36.969,-9.694],[-36.885,-9.751],[-36.917,-9.817],[-36.95,-9.859],[-36.925,-9.889],[-36.85,-9.93],[-36.818,-9.956],[-36.798,-9.958]]]}},{"type":"Feature","properties":{"code":"2702702"},"geometry":{"type":"Polygon","coordinates":[[[-36.393,-10.31],[-36.301,-10.345],[-36.299,-10.314],[-36.26,-10.264],[-36.371,-10.23],[-36.396,-10.261],[-36.376,-10.292],[-36.393,-10.31]]]}},{"type":"Feature","properties":{"code":"2702108"},"geometry":{"type":"Polygon","coordinates":[[[-35.716,-9.017],[-35.704,-8.953],[-35.675,-8.937],[-35.646,-8.902],[-35.652,-8.882],[-35.671,-8.897],[-35.723,-8.909],[-35.748,-8.917],[-35.783,-8.898],[-35.776,-8.864],[-35.795,-8.848],[-35.827,-8.87],[-35.835,-8.984],[-35.756,-9.01],[-35.716,-9.017]]]}},{"type":"Feature","properties":{"code":"2701902"},"geometry":{"type":"Polygon","coordinates":[[[-36.327,-9.285],[-36.299,-9.312],[-36.237,-9.291],[-36.201,-9.219],[-36.269,-9.192],[-36.291,-9.174],[-36.322,-9.185],[-36.356,-9.218],[-36.327,-9.285]]]}},{"type":"Feature","properties":{"code":"2702009"},"geometry":{"type":"Polygon","coordinates":[[[-36.583,-9.699],[-36.536,-9.663],[-36.575,-9.566],[-36.623,-9.58],[-36.609,-9.654],[-36.583,-9.699]]]}},{"type":"Feature","properties":{"code":"2702306"},"geometry":{"type":"Polygon","coordinates":[[[-36.26,-10.264],[-36.185,-10.198],[-36.168,-10.172],[-36.134,-10.16],[-36.093,-10.098],[-36.045,-10.074],[-36.032,-10.051],[-36.057,-10.042],[-36.056,-10.012],[-36.124,-9.934],[-36.281,-9.935],[-36.291,-10.0],[-36.305,-10.031],[-36.453,-10.04],[-36.449,-10.06],[-36.4,-10.1],[-36.362,-10.121],[-36.36,-10.157],[-36.338,-10.186],[-36.371,-10.23],[-36.26,-10.264]]]}},{"type":"Feature","properties":{"code":"2702405"},"geometry":{"type":"Polygon","coordinates":[[[-37.894,-9.54],[-37.889,-9.53],[-37.894,-9.449],[-37.872,-9.407],[-38.0,-9.336],[-38.156,-9.25],[-38.18,-9.291],[-38.203,-9.297],[-38.238,-9.33],[-38.215,-9.353],[-38.194,-9.394],[-38.203,-9.42],[-38.157,-9.44],[-38.078,-9.441],[-38.069,-9.456],[-38.022,-9.47],[-37.998,-9.499],[-38.003,-9.515],[-37.989,-9.527],[-37.917,-9.549],[-37.894,-9.54]]]}},{"type":"Feature","properties":{"code":"2702355"},"geometry":{"type":"Polygon","coordinates":[[[-36.775,-9.73],[-36.755,-9.707],[-36.686,-9.635],[-36.698,-9.599],[-36.786,-9.55],[-36.807,-9.561],[-36.831,-9.552],[-36.887,-9.599],[-36.904,-9.627],[-36.865,-9.665],[-36.817,-9.687],[-36.775,-9.73]]]}},{"type":"Feature","properties":{"code":"2702207"},"geometry":{"type":"Polygon","coordinates":[[[-35.791,-9.681],[-35.769,-9.639],[-35.794,-9.6],[-35.823,-9.638],[-35.868,-9.626],[-35.864,-9.655],[-35.813,-9.655],[-35.791,-9.681]]]}},{"type":"Feature","properties":{"code":"2701605"},"geometry":{"type":"Polygon","coordinates":[[[-37.682,-9.179],[-37.622,-9.193],[-37.608,-9.232],[-37.605,-9.28],[-37.588,-9.287],[-37.515,-9.241],[-37.436,-9.184],[-37.419,-9.135],[-37.427,-9.104],[-37.396,-9.028],[-37.416,-9.007],[-37.468,-8.999],[-37.519,-8.968],[-37.528,-8.961],[-37.581,-9.057],[-37.637,-9.108],[-37.682,-9.179]]]}},{"type":"Feature","properties":{"code":"2701407"},"geometry":{"type":"Polygon","coordinates":[[[-36.281,-9.935],[-36.178,-9.889],[-36.182,-9.88],[-36.24,-9.872],[-36.22,-9.837],[-36.197,-9.829],[-36.184,-9.801],[-36.247,-9.732],[-36.253,-9.73],[-36.28,-9.734],[-36.333,-9.713],[-36.343,-9.739],[-36.36,-9.769],[-36.401,-9.783],[-36.335,-9.857],[-36.313,-9.887],[-36.278,-9.892],[-36.281,-9.935]]]}},{"type":"Feature","properties":{"code":"2701506"},"geometry":{"type":"Polygon","coordinates":[[[-36.714,-10.046],[-36.707,-10.001],[-36.687,-9.966],[-36.673,-9.937],[-36.697,-9.911],[-36.725,-9.905],[-36.753,-9.883],[-36.79,-9.926],[-36.798,-9.958],[-36.809,-9.982],[-36.842,-10.011],[-36.799,-10.006],[-36.788,-10.022],[-36.714,-10.046]]]}},{"type":"Feature","properties":{"code":"2701803"},"geometry":{"type":"Polygon","coordinates":[[[-37.446,-9.476],[-37.373,-9.525],[-37.38,-9.503],[-37.279,-9.457],[-37.27,-9.457],[-37.267,-9.45],[-37.34,-9.419],[-37.438,-9.448],[-37.446,-9.476]]]}},{"type":"Feature","properties":{"code":"2701704"},"geometry":{"type":"Polygon","coordinates":[[[-36.156,-9.473],[-36.102,-9.454],[-36.017,-9.397],[-36.001,-9.321],[-36.037,-9.342],[-36.043,-9.281],[-36.093,-9.265],[-36.201,-9.219],[-36.154,-9.305],[-36.108,-9.321],[-36.156,-9.473]]]}},{"type":"Feature","properties":{"code":"2709202"},"geometry":{"type":"Polygon","coordinates":[[[-36.875,-10.054],[-36.842,-10.011],[-36.809,-9.982],[-36.798,-9.958],[-36.818,-9.956],[-36.85,-9.93],[-36.925,-9.889],[-36.95,-9.859],[-36.917,-9.817],[-36.885,-9.751],[-36.969,-9.694],[-36.994,-9.721],[-36.997,-9.756],[-37.04,-9.807],[-37.103,-9.847],[-37.134,-9.914],[-37.086,-9.952],[-37.065,-9.981],[-37.033,-9.988],[-36.996,-9.972],[-36.962,-9.996],[-36.953,-10.023],[-36.948,-10.07],[-36.947,-10.075],[-36.875,-10.054]]]}},{"type":"Feature","properties":{"code":"2701001"},"geometry":{"type":"Polygon","coordinates":[[[-36.247,-9.732],[-36.18,-9.722],[-36.073,-9.701],[-36.075,-9.674],[-36.099,-9.652],[-36.134,-9.65],[-36.181,-9.612],[-36.192,-9.6],[-36.24,-9.594],[-36.255,-9.621],[-36.239,-9.675],[-36.253,-9.73],[-36.247,-9.732]]]}},{"type":"Feature","properties":{"code":"2709301"},"geometry":{"type":"Polygon","coordinates":[[[-36.201,-9.219],[-36.125,-9.203],[-36.087,-9.201],[-36.059,-9.216],[-35.889,-9.138],[-35.861,-9.053],[-35.901,-9.061],[-35.926,-9.032],[-35.955,-9.031],[-36.0,-9.04],[-36.047,-9.065],[-36.09,-9.067],[-36.117,-9.055],[-36.133,-9.124],[-36.111,-9.157],[-36.184,-9.201],[-36.201,-9.219]]]}},{"type":"Feature","properties":{"code":"2701100"},"geometry":{"type":"Polygon","coordinates":[[[-36.043,-9.281],[-36.002,-9.266],[-35.889,-9.138],[-36.059,-9.216],[-36.087,-9.201],[-36.125,-9.203],[-36.201,-9.219],[-36.093,-9.265],[-36.043,-9.281]]]}},{"type":"Feature","properties":{"code":"2709103"},"geometry":{"type":"Polygon","coordinates":[[[-36.536,-9.663],[-36.51,-9.692],[-36.388,-9.652],[-36.394,-9.648],[-36.402,-9.618],[-36.447,-9.606],[-36.495,-9.604],[-36.538,-9.533],[-36.575,-9.566],[-36.536,-9.663]]]}},{"type":"Feature","properties":{"code":"2700904"},"geometry":{"type":"Polygon","coordinates":[[[-37.134,-9.914],[-37.103,-9.847],[-37.04,-9.807],[-37.092,-9.816],[-37.165,-9.745],[-37.219,-9.71],[-37.24,-9.736],[-37.297,-9.783],[-37.31,-9.804],[-37.297,-9.831],[-37.261,-9.851],[-37.245,-9.892],[-37.226,-9.898],[-37.163,-9.894],[-37.134,-9.914]]]}}]}