{"type":"FeatureCollection","features":[{"type":"Feature","properties":{"code":"2807501"},"geometry":{"type":"Polygon","coordinates":[[[-37.833,-11.482],[-37.816,-11.468],[-37.788,-11.412],[-37.761,-11.405],[-37.792,-11.347],[-37.9,-11.275],[-37.936,-11.27],[-37.95,-11.306],[-37.982,-11.348],[-37.968,-11.389],[-37.936,-11.422],[-37.917,-11.403],[-37.898,-11.438],[-37.87,-11.435],[-37.853,-11.467],[-37.833,-11.482]]]}},{"type":"Feature","properties":{"code":"2807600"},"geometry":{"type":"Polygon","coordinates":[[[-37.73,-11.402],[-37.706,-11.414],[-37.676,-11.447],[-37.676,-11.472],[-37.653,-11.483],[-37.602,-11.389],[-37.656,-11.34],[-37.665,-11.333],[-37.675,-11.323],[-37.683,-11.316],[-37.692,-11.308],[-37.692,-11.366],[-37.73,-11.402]]]}},{"type":"Feature","properties":{"code":"2807402"},"geometry":{"type":"Polygon","coordinates":[[[-38.181,-10.943],[-38.186,-10.961],[-38.169,-10.99],[-38.102,-11.017],[-38.102,-11.044],[-38.075,-11.077],[-38.089,-11.116],[-38.047,-11.182],[-38.023,-11.178],[-37.981,-11.199],[-37.994,-11.24],[-37.987,-11.271],[-38.006,-11.286],[-37.992,-11.313],[-37.994,-11.343],[-37.982,-11.348],[-37.95,-11.306],[-37.936,-11.27],[-37.905,-11.222],[-37.866,-11.21],[-37.876,-11.187],[-37.846,-11.161],[-37.793,-11.133],[-37.843,-11.109],[-37.896,-11.041],[-37.946,-10.996],[-37.933,-10.972],[-37.955,-10.936],[-37.973,-10.88],[-37.97,-10.825],[-38.028,-10.815],[-38.086,-10.822],[-38.127,-10.851],[-38.12,-10.868],[-38.154,-10.9],[-38.181,-10.943]]]}},{"type":"Feature","properties":{"code":"2807006"},"geometry":{"type":"Polygon","coordinates":[[[-37.36,-10.483],[-37.349,-10.492],[-37.275,-10.466],[-37.304,-10.429],[-37.347,-10.396],[-37.341,-10.384],[-37.363,-10.328],[-37.388,-10.319],[-37.396,-10.288],[-37.404,-10.293],[-37.412,-10.332],[-37.41,-10.417],[-37.372,-10.447],[-37.36,-10.483]]]}},{"type":"Feature","properties":{"code":"2807105"},"geometry":{"type":"Polygon","coordinates":[[[-37.973,-10.88],[-37.937,-10.881],[-37.876,-10.864],[-37.828,-10.859],[-37.805,-10.839],[-37.733,-10.797],[-37.708,-10.738],[-37.677,-10.715],[-37.683,-10.688],[-37.71,-10.672],[-37.707,-10.633],[-37.74,-10.633],[-37.767,-10.607],[-37.806,-10.601],[-37.804,-10.651],[-37.847,-10.699],[-37.91,-10.716],[-37.946,-10.757],[-37.972,-10.757],[-37.97,-10.825],[-37.973,-10.88]]]}},{"type":"Feature","properties":{"code":"2806909"},"geometry":{"type":"Polygon","coordinates":[[[-36.903,-10.403],[-36.892,-10.386],[-36.846,-10.37],[-36.845,-10.342],[-36.813,-10.327],[-36.819,-10.298],[-36.844,-10.262],[-36.903,-10.324],[-36.901,-10.35],[-36.916,-10.393],[-36.903,-10.403]]]}},{"type":"Feature","properties":{"code":"2807303"},"geometry":{"type":"Polygon","coordinates":[[[-36.868,-10.228],[-36.867,-10.206],[-36.845,-10.189],[-36.85,-10.178],[-36.883,-10.148],[-36.943,-10.227],[-36.929,-10.223],[-36.868,-10.228]]]}},{"type":"Feature","properties":{"code":"2807204"},"geometry":{"type":"Polygon","coordinates":[[[-37.092,-10.641],[-37.072,-10.615],[-37.073,-10.558],[-37.065,-10.53],[-37.102,-10.531],[-37.115,-10.482],[-37.139,-10.47],[-37.14,-10.507],[-37.207,-10.608],[-37.178,-10.626],[-37.151,-10.621],[-37.134,-10.651],[-37.092,-10.641]]]}},{"type":"Feature","properties":{"code":"2806503"},"geometry":{"type":"Polygon","coordinates":[[[-37.248,-10.594],[-37.279,-10.587],[-37.296,-10.601],[-37.259,-10.649],[-37.23,-10.674],[-37.199,-10.677],[-37.187,-10.634],[-37.204,-10.624],[-37.248,-10.594]]]}},{"type":"Feature","properties":{"code":"2806404"},"geometry":{"type":"Polygon","coordinates":[[[-36.684,-10.271],[-36.654,-10.321],[-36.587,-10.301],[-36.621,-10.256],[-36.647,-10.257],[-36.684,-10.271]]]}},{"type":"Feature","properties":{"code":"2806800"},"geometry":{"type":"Polygon","coordinates":[[[-37.617,-10.713],[-37.629,-10.743],[-37.602,-10.785],[-37.61,-10.812],[-37.576,-10.839],[-37.519,-10.845],[-37.497,-10.832],[-37.525,-10.819],[-37.52,-10.793],[-37.558,-10.782],[-37.56,-10.757],[-37.588,-10.722],[-37.595,-10.696],[-37.617,-10.713]]]}},{"type":"Feature","properties":{"code":"2806602"},"geometry":{"type":"Polygon","coordinates":[[[-37.04,-10.884],[-36.968,-10.833],[-36.959,-10.807],[-36.899,-10.773],[-36.873,-10.741],[-36.87,-10.707],[-36.9,-10.693],[-36.917,-10.686],[-36.95,-10.713],[-36.984,-10.736],[-37.016,-10.722],[-37.069,-10.748],[-37.088,-10.783],[-37.065,-10.823],[-37.028,-10.847],[-37.034,-10.87],[-37.04,-10.884]]]}},{"type":"Feature","properties":{"code":"2806701"},"geometry":{"type":"Polygon","coordinates":[[[-37.166,-11.105],[-37.174,-11.08],[-37.139,-11.063],[-37.091,-10.941],[-37.102,-10.917],[-37.146,-10.929],[-37.174,-10.9],[-37.252,-10.855],[-37.298,-10.848],[-37.318,-10.832],[-37.318,-10.835],[-37.33,-10.931],[-37.328,-10.975],[-37.304,-10.986],[-37.302,-11.009],[-37.276,-11.031],[-37.23,-11.04],[-37.218,-11.078],[-37.166,-11.105]]]}},{"type":"Feature","properties":{"code":"2806008"},"geometry":{"type":"Polygon","coordinates":[[[-37.474,-10.566],[-37.46,-10.594],[-37.423,-10.576],[-37.395,-10.582],[-37.347,-10.54],[-37.321,-10.54],[-37.36,-10.483],[-37.372,-10.447],[-37.41,-10.417],[-37.421,-10.402],[-37.474,-10.46],[-37.547,-10.462],[-37.511,-10.506],[-37.474,-10.566]]]}},{"type":"Feature","properties":{"code":"2805901"},"geometry":{"type":"Polygon","coordinates":[[[-37.161,-10.751],[-37.161,-10.735],[-37.206,-10.704],[-37.199,-10.677],[-37.23,-10.674],[-37.229,-10.702],[-37.259,-10.702],[-37.281,-10.72],[-37.273,-10.753],[-37.245,-10.778],[-37.161,-10.751]]]}},{"type":"Feature","properties":{"code":"2806305"},"geometry":{"type":"Polygon","coordinates":[[[-37.602,-11.389],[-37.565,-11.412],[-37.525,-11.422],[-37.507,-11.414],[-37.478,-11.45],[-37.409,-11.424],[-37.404,-11.387],[-37.389,-11.372],[-37.38,-11.326],[-37.406,-11.302],[-37.461,-11.311],[-37.523,-11.299],[-37.549,-11.304],[-37.603,-11.343],[-37.663,-11.29],[-37.692,-11.308],[-37.683,-11.316],[-37.675,-11.323],[-37.665,-11.333],[-37.656,-11.34],[-37.602,-11.389]]]}},{"type":"Feature","properties":{"code":"2806107"},"geometry":{"type":"Polygon","coordinates":[[[-37.069,-10.748],[-37.016,-10.722],[-36.984,-10.736],[-36.95,-10.713],[-37.006,-10.697],[-37.011,-10.676],[-37.011,-10.641],[-37.072,-10.615],[-37.092,-10.641],[-37.091,-10.655],[-37.089,-10.682],[-37.059,-10.691],[-37.069,-10.748]]]}},{"type":"Feature","properties":{"code":"2806206"},"geometry":{"type":"Polygon","coordinates":[[[-37.546,-11.166],[-37.459,-11.146],[-37.437,-11.127],[-37.438,-11.087],[-37.389,-11.053],[-37.426,-10.989],[-37.456,-10.977],[-37.52,-10.96],[-37.531,-10.996],[-37.529,-11.054],[-37.553,-11.14],[-37.546,-11.166]]]}},{"type":"Feature","properties":{"code":"2805505"},"geometry":{"type":"Polygon","coordinates":[[[-38.237,-10.808],[-38.236,-10.882],[-38.228,-10.914],[-38.21,-10.931],[-38.181,-10.943],[-38.154,-10.9],[-38.12,-10.868],[-38.127,-10.851],[-38.086,-10.822],[-38.028,-10.815],[-37.97,-10.825],[-37.972,-10.757],[-38.026,-10.726],[-38.042,-10.701],[-38.068,-10.716],[-38.145,-10.718],[-38.177,-10.706],[-38.215,-10.725],[-38.209,-10.758],[-38.237,-10.808]]]}},{"type":"Feature","properties":{"code":"2805406"},"geometry":{"type":"Polygon","coordinates":[[[-37.902,-9.919],[-37.909,-9.94],[-37.833,-10.019],[-37.791,-10.033],[-37.702,-10.014],[-37.666,-10.016],[-37.641,-9.979],[-37.608,-9.969],[-37.509,-9.818],[-37.466,-9.748],[-37.572,-9.739],[-37.66,-9.678],[-37.669,-9.658],[-37.786,-9.814],[-37.813,-9.795],[-37.851,-9.784],[-37.859,-9.802],[-37.877,-9.909],[-37.902,-9.919]]]}},{"type":"Feature","properties":{"code":"2805703"},"geometry":{"type":"Polygon","coordinates":[[[-36.795,-10.283],[-36.787,-10.263],[-36.76,-10.255],[-36.733,-10.279],[-36.702,-10.27],[-36.72,-10.265],[-36.749,-10.228],[-36.791,-10.227],[-36.826,-10.211],[-36.845,-10.189],[-36.867,-10.206],[-36.868,-10.228],[-36.844,-10.262],[-36.819,-10.298],[-36.795,-10.283]]]}},{"type":"Feature","properties":{"code":"2805802"},"geometry":{"type":"Polygon","coordinates":[[[-37.707,-11.174],[-37.647,-11.126],[-37.65,-11.109],[-37.622,-11.068],[-37.676,-11.021],[-37.709,-11.004],[-37.79,-11.012],[-37.822,-11.004],[-37.847,-10.933],[-37.875,-10.918],[-37.866,-10.895],[-37.876,-10.864],[-37.937,-10.881],[-37.973,-10.88],[-37.955,-10.936],[-37.933,-10.972],[-37.946,-10.996],[-37.896,-11.041],[-37.843,-11.109],[-37.793,-11.133],[-37.738,-11.149],[-37.707,-11.174]]]}},{"type":"Feature","properties":{"code":"2805604"},"geometry":{"type":"Polygon","coordinates":[[[-37.42,-10.062],[-37.382,-10.038],[-37.37,-10.007],[-37.349,-10.013],[-37.314,-10.001],[-37.286,-10.009],[-37.272,-9.97],[-37.234,-9.959],[-37.226,-9.898],[-37.245,-9.892],[-37.261,-9.851],[-37.297,-9.831],[-37.326,-9.817],[-37.347,-9.791],[-37.394,-9.779],[-37.408,-9.764],[-37.466,-9.748],[-37.509,-9.818],[-37.608,-9.969],[-37.641,-9.979],[-37.666,-10.016],[-37.615,-10.027],[-37.563,-9.999],[-37.47,-10.023],[-37.42,-10.062],[-37.42,-10.062]]]}},{"type":"Feature","properties":{"code":"2805000"},"geometry":{"type":"Polygon","coordinates":[[[-37.707,-10.633],[-37.71,-10.672],[-37.683,-10.688],[-37.677,-10.715],[-37.663,-10.717],[-37.669,-10.676],[-37.64,-10.605],[-37.689,-10.532],[-37.695,-10.582],[-37.718,-10.618],[-37.707,-10.633]]]}},{"type":"Feature","properties":{"code":"2804904"},"geometry":{"type":"Polygon","coordinates":[[[-36.673,-10.631],[-36.613,-10.588],[-36.486,-10.536],[-36.499,-10.513],[-36.585,-10.5],[-36.6,-10.497],[-36.608,-10.421],[-36.648,-10.4],[-36.705,-10.401],[-36.704,-10.426],[-36.721,-10.488],[-36.721,-10.527],[-36.753,-10.551],[-36.758,-10.59],[-36.673,-10.631]]]}},{"type":"Feature","properties":{"code":"2805208"},"geometry":{"type":"Polygon","coordinates":[[[-37.707,-10.633],[-37.718,-10.618],[-37.695,-10.582],[-37.689,-10.532],[-37.723,-10.51],[-37.773,-10.507],[-37.815,-10.517],[-37.829,-10.54],[-37.831,-10.585],[-37.806,-10.601],[-37.767,-10.607],[-37.74,-10.633],[-37.707,-10.633]]]}},{"type":"Feature","properties":{"code":"2805307"},"geometry":{"type":"Polygon","coordinates":[[[-36.873,-10.741],[-36.853,-10.744],[-36.784,-10.688],[-36.735,-10.658],[-36.673,-10.631],[-36.758,-10.59],[-36.781,-10.575],[-36.894,-10.661],[-36.923,-10.677],[-36.9,-10.693],[-36.87,-10.707],[-36.873,-10.741]]]}},{"type":"Feature","properties":{"code":"2805109"},"geometry":{"type":"Polygon","coordinates":[[[-37.705,-11.192],[-37.67,-11.239],[-37.661,-11.219],[-37.597,-11.214],[-37.596,-11.204],[-37.638,-11.199],[-37.691,-11.171],[-37.705,-11.192]]]}},{"type":"Feature","properties":{"code":"2804458"},"geometry":{"type":"Polygon","coordinates":[[[-37.547,-10.462],[-37.474,-10.46],[-37.421,-10.402],[-37.41,-10.417],[-37.412,-10.332],[-37.404,-10.293],[-37.419,-10.307],[-37.456,-10.29],[-37.511,-10.297],[-37.544,-10.266],[-37.582,-10.242],[-37.597,-10.251],[-37.611,-10.277],[-37.578,-10.329],[-37.575,-10.37],[-37.558,-10.444],[-37.547,-10.462]]]}},{"type":"Feature","properties":{"code":"2804508"},"geometry":{"type":"Polygon","coordinates":[[[-37.396,-10.288],[-37.398,-10.253],[-37.384,-10.219],[-37.33,-10.204],[-37.315,-10.154],[-37.334,-10.126],[-37.359,-10.111],[-37.398,-10.071],[-37.42,-10.062],[-37.42,-10.062],[-37.465,-10.092],[-37.533,-10.114],[-37.585,-10.095],[-37.613,-10.095],[-37.67,-10.13],[-37.696,-10.129],[-37.768,-10.101],[-37.78,-10.134],[-37.782,-10.186],[-37.766,-10.196],[-37.717,-10.188],[-37.674,-10.207],[-37.624,-10.244],[-37.597,-10.251],[-37.582,-10.242],[-37.544,-10.266],[-37.511,-10.297],[-37.456,-10.29],[-37.419,-10.307],[-37.404,-10.293],[-37.396,-10.288]]]}},{"type":"Feature","properties":{"code":"2804300"},"geometry":{"type":"Polygon","coordinates":[[[-36.916,-10.393],[-37.009,-10.302],[-37.018,-10.332],[-36.979,-10.378],[-36.983,-10.405],[-36.961,-10.442],[-36.935,-10.45],[-36.932,-10.426],[-36.903,-10.403],[-36.916,-10.393]]]}},{"type":"Feature","properties":{"code":"2804409"},"geometry":{"type":"Polygon","coordinates":[[[-36.562,-10.416],[-36.557,-10.377],[-36.572,-10.316],[-36.587,-10.301],[-36.654,-10.321],[-36.684,-10.271],[-36.702,-10.27],[-36.733,-10.279],[-36.76,-10.255],[-36.787,-10.263],[-36.795,-10.283],[-36.788,-10.301],[-36.736,-10.329],[-36.734,-10.363],[-36.705,-10.401],[-36.648,-10.4],[-36.608,-10.421],[-36.6,-10.497],[-36.582,-10.438],[-36.562,-10.416]]]}},{"type":"Feature","properties":{"code":"2804706"},"geometry":{"type":"Polygon","coordinates":[[[-37.062,-10.062],[-37.066,-10.136],[-37.032,-10.124],[-36.991,-10.085],[-36.948,-10.07],[-36.953,-10.023],[-37.007,-10.038],[-37.03,-10.057],[-37.062,-10.062]]]}},{"type":"Feature","properties":{"code":"2804805"},"geometry":{"type":"Polygon","coordinates":[[[-37.318,-10.832],[-37.298,-10.848],[-37.252,-10.855],[-37.174,-10.9],[-37.146,-10.929],[-37.102,-10.917],[-37.108,-10.905],[-37.083,-10.863],[-37.066,-10.876],[-37.034,-10.87],[-37.028,-10.847],[-37.065,-10.823],[-37.102,-10.818],[-37.118,-10.832],[-37.156,-10.832],[-37.181,-10.855],[-37.244,-10.834],[-37.318,-10.832],[-37.318,-10.832]]]}},{"type":"Feature","properties":{"code":"2804607"},"geometry":{"type":"Polygon","coordinates":[[[-37.207,-10.608],[-37.14,-10.507],[-37.139,-10.47],[-37.113,-10.433],[-37.117,-10.409],[-37.182,-10.416],[-37.208,-10.402],[-37.24,-10.36],[-37.249,-10.319],[-37.244,-10.297],[-37.302,-10.326],[-37.326,-10.373],[-37.341,-10.384],[-37.347,-10.396],[-37.304,-10.429],[-37.275,-10.466],[-37.349,-10.492],[-37.36,-10.483],[-37.321,-10.54],[-37.303,-10.575],[-37.263,-10.579],[-37.248,-10.594],[-37.204,-10.624],[-37.207,-10.608]]]}},{"type":"Feature","properties":{"code":"2804003"},"geometry":{"type":"Polygon","coordinates":[[[-37.161,-10.751],[-37.122,-10.786],[-37.088,-10.783],[-37.069,-10.748],[-37.059,-10.691],[-37.089,-10.682],[-37.091,-10.655],[-37.122,-10.703],[-37.143,-10.7],[-37.161,-10.751]]]}},{"type":"Feature","properties":{"code":"2803807"},"geometry":{"type":"Polygon","coordinates":[[[-36.916,-10.393],[-36.901,-10.35],[-36.903,-10.324],[-36.936,-10.307],[-36.934,-10.276],[-36.956,-10.29],[-37.009,-10.302],[-36.916,-10.393]]]}},{"type":"Feature","properties":{"code":"2803906"},"geometry":{"type":"Polygon","coordinates":[[[-37.336,-10.722],[-37.309,-10.735],[-37.281,-10.72],[-37.259,-10.702],[-37.229,-10.702],[-37.23,-10.674],[-37.259,-10.649],[-37.296,-10.601],[-37.326,-10.623],[-37.329,-10.654],[-37.321,-10.692],[-37.336,-10.722]]]}},{"type":"Feature","properties":{"code":"2804201"},"geometry":{"type":"Polygon","coordinates":[[[-37.42,-10.062],[-37.47,-10.023],[-37.563,-9.999],[-37.615,-10.027],[-37.666,-10.016],[-37.702,-10.014],[-37.791,-10.033],[-37.783,-10.044],[-37.802,-10.113],[-37.78,-10.134],[-37.768,-10.101],[-37.696,-10.129],[-37.67,-10.13],[-37.613,-10.095],[-37.585,-10.095],[-37.533,-10.114],[-37.465,-10.092],[-37.42,-10.062]]]}},{"type":"Feature","properties":{"code":"2804102"},"geometry":{"type":"Polygon","coordinates":[[[-37.395,-10.582],[-37.388,-10.629],[-37.37,-10.63],[-37.355,-10.657],[-37.329,-10.654],[-37.326,-10.623],[-37.296,-10.601],[-37.279,-10.587],[-37.248,-10.594],[-37.263,-10.579],[-37.303,-10.575],[-37.321,-10.54],[-37.347,-10.54],[-37.395,-10.582]]]}},{"type":"Feature","properties":{"code":"2803401"},"geometry":{"type":"Polygon","coordinates":[[[-36.758,-10.59],[-36.753,-10.551],[-36.721,-10.527],[-36.721,-10.488],[-36.704,-10.426],[-36.705,-10.401],[-36.734,-10.363],[-36.736,-10.329],[-36.788,-10.301],[-36.795,-10.283],[-36.819,-10.298],[-36.813,-10.327],[-36.845,-10.342],[-36.846,-10.37],[-36.892,-10.386],[-36.903,-10.403],[-36.869,-10.418],[-36.869,-10.482],[-36.837,-10.508],[-36.81,-10.549],[-36.809,-10.574],[-36.781,-10.575],[-36.758,-10.59]]]}},{"type":"Feature","properties":{"code":"2803500"},"geometry":{"type":"Polygon","coordinates":[[[-37.622,-11.068],[-37.565,-11.04],[-37.569,-11.025],[-37.531,-10.996],[-37.52,-10.96],[-37.456,-10.977],[-37.49,-10.903],[-37.456,-10.882],[-37.479,-10.841],[-37.497,-10.832],[-37.519,-10.845],[-37.576,-10.839],[-37.61,-10.812],[-37.602,-10.785],[-37.629,-10.743],[-37.617,-10.713],[-37.663,-10.717],[-37.677,-10.715],[-37.708,-10.738],[-37.733,-10.797],[-37.805,-10.839],[-37.828,-10.859],[-37.876,-10.864],[-37.866,-10.895],[-37.875,-10.918],[-37.847,-10.933],[-37.822,-11.004],[-37.79,-11.012],[-37.709,-11.004],[-37.676,-11.021],[-37.622,-11.068]]]}},{"type":"Feature","properties":{"code":"2803302"},"geometry":{"type":"Polygon","coordinates":[[[-36.923,-10.677],[-36.894,-10.661],[-36.781,-10.575],[-36.809,-10.574],[-36.81,-10.549],[-36.837,-10.508],[-36.869,-10.482],[-36.869,-10.418],[-36.903,-10.403],[-36.932,-10.426],[-36.935,-10.45],[-36.956,-10.524],[-36.975,-10.542],[-37.011,-10.641],[-36.969,-10.631],[-36.933,-10.654],[-36.923,-10.677]]]}},{"type":"Feature","properties":{"code":"2803708"},"geometry":{"type":"Polygon","coordinates":[[[-37.595,-10.696],[-37.546,-10.697],[-37.501,-10.688],[-37.531,-10.646],[-37.559,-10.62],[-37.64,-10.605],[-37.669,-10.676],[-37.663,-10.717],[-37.617,-10.713],[-37.595,-10.696]]]}},{"type":"Feature","properties":{"code":"2803609"},"geometry":{"type":"Polygon","coordinates":[[[-37.088,-10.783],[-37.122,-10.786],[-37.161,-10.751],[-37.245,-10.778],[-37.318,-10.832],[-37.244,-10.834],[-37.181,-10.855],[-37.156,-10.832],[-37.118,-10.832],[-37.102,-10.818],[-37.065,-10.823],[-37.088,-10.783]]]}},{"type":"Feature","properties":{"code":"2802908"},"geometry":{"type":"Polygon","coordinates":[[[-37.402,-10.825],[-37.362,-10.739],[-37.336,-10.722],[-37.321,-10.692],[-37.329,-10.654],[-37.355,-10.657],[-37.37,-10.63],[-37.388,-10.629],[-37.395,-10.582],[-37.423,-10.576],[-37.46,-10.594],[-37.474,-10.566],[-37.51,-10.626],[-37.531,-10.646],[-37.501,-10.688],[-37.457,-10.722],[-37.449,-10.79],[-37.431,-10.831],[-37.402,-10.825]]]}},{"type":"Feature","properties":{"code":"2803005"},"geometry":{"type":"Polygon","coordinates":[[[-37.73,-11.402],[-37.692,-11.366],[-37.692,-11.308],[-37.663,-11.29],[-37.67,-11.239],[-37.705,-11.192],[-37.707,-11.174],[-37.738,-11.149],[-37.793,-11.133],[-37.846,-11.161],[-37.876,-11.187],[-37.866,-11.21],[-37.905,-11.222],[-37.936,-11.27],[-37.9,-11.275],[-37.792,-11.347],[-37.761,-11.405],[-37.73,-11.402]]]}},{"type":"Feature","properties":{"code":"2802809"},"geometry":{"type":"Polygon","coordinates":[[[-37.632,-11.518],[-37.603,-11.54],[-37.52,-11.549],[-37.505,-11.525],[-37.458,-11.524],[-37.432,-11.511],[-37.368,-11.459],[-37.409,-11.424],[-37.478,-11.45],[-37.507,-11.414],[-37.525,-11.422],[-37.565,-11.412],[-37.602,-11.389],[-37.653,-11.483],[-37.632,-11.518]]]}},{"type":"Feature","properties":{"code":"2803203"},"geometry":{"type":"Polygon","coordinates":[[[-37.389,-11.053],[-37.351,-11.091],[-37.331,-11.138],[-37.35,-11.197],[-37.328,-11.238],[-37.26,-11.29],[-37.154,-11.162],[-37.166,-11.105],[-37.218,-11.078],[-37.23,-11.04],[-37.276,-11.031],[-37.302,-11.009],[-37.304,-10.986],[-37.328,-10.975],[-37.33,-10.931],[-37.318,-10.835],[-37.339,-10.847],[-37.388,-10.851],[-37.403,-10.826],[-37.456,-10.882],[-37.49,-10.903],[-37.456,-10.977],[-37.426,-10.989],[-37.389,-11.053]]]}},{"type":"Feature","properties":{"code":"2803104"},"geometry":{"type":"Polygon","coordinates":[[[-37.062,-10.062],[-37.103,-10.051],[-37.171,-10.05],[-37.216,-10.104],[-37.22,-10.136],[-37.181,-10.174],[-37.151,-10.163],[-37.15,-10.163],[-37.066,-10.136],[-37.062,-10.062]]]}},{"type":"Feature","properties":{"code":"2802403"},"geometry":{"type":"Polygon","coordinates":[[[-37.315,-10.154],[-37.272,-10.164],[-37.22,-10.136],[-37.216,-10.104],[-37.171,-10.05],[-37.103,-10.051],[-37.062,-10.062],[-37.03,-10.057],[-37.007,-10.038],[-36.953,-10.023],[-36.962,-9.996],[-36.996,-9.972],[-37.033,-9.988],[-37.065,-9.981],[-37.086,-9.952],[-37.134,-9.914],[-37.163,-9.894],[-37.226,-9.898],[-37.234,-9.959],[-37.272,-9.97],[-37.286,-10.009],[-37.314,-10.001],[-37.349,-10.013],[-37.37,-10.007],[-37.382,-10.038],[-37.42,-10.062],[-37.398,-10.071],[-37.359,-10.111],[-37.334,-10.126],[-37.315,-10.154]]]}},{"type":"Feature","properties":{"code":"2802502"},"geometry":{"type":"Polygon","coordinates":[[[-37.011,-10.676],[-37.006,-10.697],[-36.95,-10.713],[-36.917,-10.686],[-36.975,-10.685],[-37.011,-10.676]]]}},{"type":"Feature","properties":{"code":"2802304"},"geometry":{"type":"Polygon","coordinates":[[[-37.474,-10.566],[-37.511,-10.506],[-37.547,-10.462],[-37.558,-10.444],[-37.575,-10.37],[-37.625,-10.412],[-37.681,-10.481],[-37.723,-10.51],[-37.689,-10.532],[-37.64,-10.605],[-37.559,-10.62],[-37.531,-10.646],[-37.51,-10.626],[-37.474,-10.566]]]}},{"type":"Feature","properties":{"code":"2802700"},"geometry":{"type":"Polygon","coordinates":[[[-36.562,-10.416],[-36.582,-10.438],[-36.6,-10.497],[-36.585,-10.5],[-36.529,-10.466],[-36.489,-10.425],[-36.535,-10.43],[-36.562,-10.416]]]}},{"type":"Feature","properties":{"code":"2802601"},"geometry":{"type":"Polygon","coordinates":[[[-37.164,-10.34],[-37.139,-10.279],[-37.151,-10.236],[-37.137,-10.194],[-37.151,-10.163],[-37.181,-10.174],[-37.22,-10.136],[-37.272,-10.164],[-37.315,-10.154],[-37.33,-10.204],[-37.301,-10.226],[-37.273,-10.225],[-37.254,-10.249],[-37.223,-10.298],[-37.174,-10.311],[-37.164,-10.34]]]}},{"type":"Feature","properties":{"code":"2801900"},"geometry":{"type":"Polygon","coordinates":[[[-37.244,-10.297],[-37.249,-10.319],[-37.24,-10.36],[-37.208,-10.402],[-37.182,-10.416],[-37.117,-10.409],[-37.125,-10.375],[-37.153,-10.367],[-37.164,-10.34],[-37.174,-10.311],[-37.223,-10.298],[-37.254,-10.249],[-37.244,-10.297]]]}},{"type":"Feature","properties":{"code":"2802205"},"geometry":{"type":"Polygon","coordinates":[[[-37.396,-10.288],[-37.388,-10.319],[-37.363,-10.328],[-37.341,-10.384],[-37.326,-10.373],[-37.302,-10.326],[-37.244,-10.297],[-37.254,-10.249],[-37.273,-10.225],[-37.301,-10.226],[-37.33,-10.204],[-37.384,-10.219],[-37.398,-10.253],[-37.396,-10.288]]]}},{"type":"Feature","properties":{"code":"2802007"},"geometry":{"type":"Polygon","coordinates":[[[-37.199,-10.677],[-37.206,-10.704],[-37.161,-10.735],[-37.161,-10.751],[-37.143,-10.7],[-37.122,-10.703],[-37.091,-10.655],[-37.092,-10.641],[-37.134,-10.651],[-37.151,-10.621],[-37.178,-10.626],[-37.207,-10.608],[-37.204,-10.624],[-37.187,-10.634],[-37.199,-10.677]]]}},{"type":"Feature","properties":{"code":"2802106"},"geometry":{"type":"Polygon","coordinates":[[[-37.341,-11.442],[-37.312,-11.423],[-37.3,-11.364],[-37.26,-11.29],[-37.328,-11.238],[-37.35,-11.197],[-37.331,-11.138],[-37.351,-11.091],[-37.389,-11.053],[-37.438,-11.087],[-37.437,-11.127],[-37.459,-11.146],[-37.546,-11.166],[-37.535,-11.189],[-37.536,-11.223],[-37.508,-11.275],[-37.523,-11.299],[-37.461,-11.311],[-37.406,-11.302],[-37.38,-11.326],[-37.389,-11.372],[-37.404,-11.387],[-37.409,-11.424],[-37.368,-11.459],[-37.341,-11.442]]]}},{"type":"Feature","properties":{"code":"2801405"},"geometry":{"type":"Polygon","coordinates":[[[-37.723,-10.51],[-37.681,-10.481],[-37.625,-10.412],[-37.575,-10.37],[-37.578,-10.329],[-37.611,-10.277],[-37.597,-10.251],[-37.624,-10.244],[-37.674,-10.207],[-37.717,-10.188],[-37.766,-10.196],[-37.747,-10.238],[-37.75,-10.289],[-37.769,-10.289],[-37.745,-10.314],[-37.743,-10.338],[-37.786,-10.348],[-37.839,-10.381],[-37.853,-10.406],[-37.848,-10.444],[-37.821,-10.483],[-37.815,-10.517],[-37.773,-10.507],[-37.723,-10.51]]]}},{"type":"Feature","properties":{"code":"2801306"},"geometry":{"type":"Polygon","coordinates":[[[-37.011,-10.641],[-36.975,-10.542],[-36.956,-10.524],[-36.935,-10.45],[-36.961,-10.442],[-36.983,-10.405],[-36.979,-10.378],[-37.018,-10.332],[-37.063,-10.329],[-37.102,-10.368],[-37.125,-10.375],[-37.117,-10.409],[-37.113,-10.433],[-37.139,-10.47],[-37.115,-10.482],[-37.102,-10.531],[-37.065,-10.53],[-37.073,-10.558],[-37.072,-10.615],[-37.011,-10.641]]]}},{"type":"Feature","properties":{"code":"2801702"},"geometry":{"type":"Polygon","coordinates":[[[-37.653,-11.483],[-37.676,-11.472],[-37.676,-11.447],[-37.706,-11.414],[-37.73,-11.402],[-37.761,-11.405],[-37.788,-11.412],[-37.816,-11.468],[-37.833,-11.482],[-37.809,-11.496],[-37.8,-11.521],[-37.759,-11.525],[-37.729,-11.552],[-37.682,-11.562],[-37.663,-11.536],[-37.632,-11.518],[-37.653,-11.483]]]}},{"type":"Feature","properties":{"code":"2801504"},"geometry":{"type":"Polygon","coordinates":[[[-36.923,-10.677],[-36.933,-10.654],[-36.969,-10.631],[-37.011,-10.641],[-37.011,-10.676],[-36.975,-10.685],[-36.917,-10.686],[-36.9,-10.693],[-36.923,-10.677]]]}},{"type":"Feature","properties":{"code":"2801603"},"geometry":{"type":"Polygon","coordinates":[[[-36.903,-10.324],[-36.844,-10.262],[-36.868,-10.228],[-36.929,-10.223],[-36.952,-10.267],[-36.934,-10.276],[-36.936,-10.307],[-36.903,-10.324]]]}},{"type":"Feature","properties":{"code":"2801108"},"geometry":{"type":"Polygon","coordinates":[[[-37.15,-10.163],[-37.017,-10.191],[-36.995,-10.178],[-36.943,-10.227],[-36.935,-10.121],[-36.918,-10.125],[-36.947,-10.075],[-36.948,-10.07],[-36.991,-10.085],[-37.032,-10.124],[-37.066,-10.136],[-37.15,-10.163]]]}},{"type":"Feature","properties":{"code":"2801207"},"geometry":{"type":"Polygon","coordinates":[[[-38.004,-9.905],[-37.975,-9.937],[-37.945,-9.943],[-37.902,-9.919],[-37.877,-9.909],[-37.859,-9.802],[-37.851,-9.784],[-37.813,-9.795],[-37.786,-9.814],[-37.669,-9.658],[-37.71,-9.63],[-37.747,-9.625],[-37.786,-9.639],[-37.818,-9.593],[-37.842,-9.579],[-37.894,-9.54],[-37.917,-9.549],[-37.989,-9.527],[-38.003,-9.515],[-38.023,-9.54],[-38.021,-9.565],[-38.061,-9.588],[-38.048,-9.632],[-38.02,-9.637],[-38.045,-9.698],[-38.033,-9.77],[-38.001,-9.816],[-37.995,-9.846],[-38.007,-9.869],[-38.004,-9.905]]]}},{"type":"Feature","properties":{"code":"2801009"},"geometry":{"type":"Polygon","coordinates":[[[-37.595,-10.696],[-37.588,-10.722],[-37.56,-10.757],[-37.558,-10.782],[-37.52,-10.793],[-37.525,-10.819],[-37.497,-10.832],[-37.479,-10.841],[-37.456,-10.882],[-37.403,-10.826],[-37.402,-10.825],[-37.431,-10.831],[-37.449,-10.79],[-37.457,-10.722],[-37.501,-10.688],[-37.546,-10.697],[-37.595,-10.696]]]}},{"type":"Feature","properties":{"code":"2800407"},"geometry":{"type":"Polygon","coordinates":[[[-37.663,-11.29],[-37.603,-11.343],[-37.549,-11.304],[-37.523,-11.299],[-37.508,-11.275],[-37.536,-11.223],[-37.535,-11.189],[-37.546,-11.166],[-37.596,-11.204],[-37.597,-11.214],[-37.661,-11.219],[-37.67,-11.239],[-37.663,-11.29]]]}},{"type":"Feature","properties":{"code":"2800209"},"geometry":{"type":"Polygon","coordinates":[[[-37.164,-10.34],[-37.153,-10.367],[-37.125,-10.375],[-37.102,-10.368],[-37.063,-10.329],[-37.018,-10.332],[-37.009,-10.302],[-36.956,-10.29],[-36.934,-10.276],[-36.952,-10.267],[-36.929,-10.223],[-36.943,-10.227],[-36.995,-10.178],[-37.017,-10.191],[-37.15,-10.163],[-37.151,-10.163],[-37.137,-10.194],[-37.151,-10.236],[-37.139,-10.279],[-37.164,-10.34]]]}},{"type":"Feature","properties":{"code":"2800308"},"geometry":{"type":"Polygon","coordinates":[[[-37.154,-11.162],[-37.126,-11.103],[-37.058,-11.006],[-37.035,-10.98],[-37.035,-10.957],[-37.044,-10.91],[-37.04,-10.884],[-37.034,-10.87],[-37.066,-10.876],[-37.083,-10.863],[-37.108,-10.905],[-37.102,-10.917],[-37.091,-10.941],[-37.139,-11.063],[-37.174,-11.08],[-37.166,-11.105],[-37.154,-11.162]]]}},{"type":"Feature","properties":{"code":"2800605"},"geometry":{"type":"Polygon","coordinates":[[[-37.035,-10.957],[-36.953,-10.851],[-36.853,-10.744],[-36.873,-10.741],[-36.899,-10.773],[-36.959,-10.807],[-36.968,-10.833],[-37.04,-10.884],[-37.044,-10.91],[-37.035,-10.957]]]}},{"type":"Feature","properties":{"code":"2800704"},"geometry":{"type":"Polygon","coordinates":[[[-36.486,-10.536],[-36.409,-10.513],[-36.396,-10.497],[-36.431,-10.43],[-36.463,-10.409],[-36.487,-10.423],[-36.489,-10.425],[-36.529,-10.466],[-36.585,-10.5],[-36.499,-10.513],[-36.486,-10.536]]]}},{"type":"Feature","properties":{"code":"2800670"},"geometry":{"type":"Polygon","coordinates":[[[-37.596,-11.204],[-37.546,-11.166],[-37.553,-11.14],[-37.529,-11.054],[-37.531,-10.996],[-37.569,-11.025],[-37.565,-11.04],[-37.622,-11.068],[-37.65,-11.109],[-37.647,-11.126],[-37.707,-11.174],[-37.705,-11.192],[-37.691,-11.171],[-37.638,-11.199],[-37.596,-11.204]]]}},{"type":"Feature","properties":{"code":"2800506"},"geometry":{"type":"Polygon","coordinates":[[[-37.403,-10.826],[-37.388,-10.851],[-37.339,-10.847],[-37.318,-10.835],[-37.318,-10.832],[-37.318,-10.832],[-37.245,-10.778],[-37.273,-10.753],[-37.281,-10.72],[-37.309,-10.735],[-37.336,-10.722],[-37.362,-10.739],[-37.402,-10.825],[-37.403,-10.826]]]}},{"type":"Feature","properties":{"code":"2800100"},"geometry":{"type":"Polygon","coordinates":[[[-36.943,-10.227],[-36.883,-10.148],[-36.918,-10.125],[-36.935,-10.121],[-36.943,-10.227]]]}}]}