{"type":"FeatureCollection","features":[{"type":"Feature","properties":{"code":"3205200"},"geometry":{"type":"Polygon","coordinates":[[[-40.484,-20.505],[-40.38,-20.518],[-40.377,-20.535],[-40.36,-20.517],[-40.319,-20.424],[-40.314,-20.392],[-40.284,-20.354],[-40.274,-20.32],[-40.355,-20.327],[-40.37,-20.4],[-40.404,-20.424],[-40.464,-20.432],[-40.484,-20.505]]]}},{"type":"Feature","properties":{"code":"3205309"},"geometry":{"type":"Polygon","coordinates":[[[-40.355,-20.327],[-40.274,-20.32],[-40.289,-20.284],[-40.259,-20.266],[-40.234,-20.276],[-40.215,-20.243],[-40.311,-20.237],[-40.329,-20.26],[-40.362,-20.306],[-40.355,-20.327]]]}},{"type":"Feature","properties":{"code":"3204807"},"geometry":{"type":"Polygon","coordinates":[[[-41.734,-20.943],[-41.717,-20.953],[-41.71,-20.991],[-41.722,-21.009],[-41.716,-21.047],[-41.736,-21.103],[-41.717,-21.105],[-41.678,-21.08],[-41.653,-21.086],[-41.633,-21.07],[-41.617,-21.033],[-41.591,-21.008],[-41.572,-20.958],[-41.58,-20.911],[-41.611,-20.892],[-41.628,-20.862],[-41.653,-20.892],[-41.671,-20.89],[-41.683,-20.922],[-41.706,-20.921],[-41.734,-20.943]]]}},{"type":"Feature","properties":{"code":"3204906"},"geometry":{"type":"Polygon","coordinates":[[[-39.719,-19.097],[-39.743,-18.936],[-39.75,-18.838],[-39.746,-18.706],[-39.786,-18.706],[-39.803,-18.721],[-39.817,-18.671],[-39.847,-18.669],[-40.03,-18.444],[-40.09,-18.488],[-40.125,-18.488],[-40.158,-18.51],[-40.167,-18.546],[-40.23,-18.583],[-40.247,-18.568],[-40.284,-18.577],[-40.336,-18.726],[-40.348,-18.745],[-40.395,-18.782],[-40.402,-18.851],[-40.373,-18.85],[-40.324,-18.851],[-40.262,-18.838],[-40.251,-18.864],[-40.208,-18.884],[-40.124,-18.777],[-40.093,-18.799],[-40.05,-18.811],[-40.007,-18.814],[-40.008,-18.894],[-39.989,-18.877],[-39.961,-18.895],[-39.861,-18.997],[-39.741,-19.149],[-39.723,-19.14],[-39.719,-19.097]]]}},{"type":"Feature","properties":{"code":"3204708"},"geometry":{"type":"Polygon","coordinates":[[[-40.458,-19.048],[-40.434,-19.02],[-40.462,-18.995],[-40.465,-18.963],[-40.437,-18.952],[-40.374,-18.947],[-40.373,-18.85],[-40.402,-18.851],[-40.474,-18.853],[-40.573,-18.894],[-40.593,-18.934],[-40.617,-18.952],[-40.656,-18.946],[-40.634,-18.987],[-40.645,-19.009],[-40.615,-19.041],[-40.572,-19.053],[-40.556,-19.046],[-40.509,-19.06],[-40.458,-19.048]]]}},{"type":"Feature","properties":{"code":"3205101"},"geometry":{"type":"Polygon","coordinates":[[[-40.37,-20.4],[-40.406,-20.379],[-40.404,-20.359],[-40.439,-20.332],[-40.516,-20.347],[-40.523,-20.302],[-40.582,-20.292],[-40.58,-20.322],[-40.593,-20.367],[-40.539,-20.391],[-40.556,-20.409],[-40.615,-20.414],[-40.625,-20.424],[-40.626,-20.468],[-40.605,-20.487],[-40.538,-20.473],[-40.484,-20.505],[-40.464,-20.432],[-40.404,-20.424],[-40.37,-20.4]]]}},{"type":"Feature","properties":{"code":"3205069"},"geometry":{"type":"Polygon","coordinates":[[[-41.053,-20.46],[-41.052,-20.439],[-41.098,-20.344],[-41.106,-20.303],[-41.137,-20.288],[-41.158,-20.282],[-41.166,-20.301],[-41.217,-20.328],[-41.219,-20.356],[-41.181,-20.408],[-41.191,-20.446],[-41.166,-20.445],[-41.098,-20.409],[-41.101,-20.434],[-41.053,-20.46]]]}},{"type":"Feature","properties":{"code":"3205176"},"geometry":{"type":"Polygon","coordinates":[[[-40.288,-19.075],[-40.264,-19.033],[-40.206,-18.907],[-40.208,-18.884],[-40.251,-18.864],[-40.262,-18.838],[-40.324,-18.851],[-40.373,-18.85],[-40.374,-18.947],[-40.437,-18.952],[-40.465,-18.963],[-40.462,-18.995],[-40.434,-19.02],[-40.458,-19.048],[-40.429,-19.074],[-40.375,-19.079],[-40.288,-19.075]]]}},{"type":"Feature","properties":{"code":"3205150"},"geometry":{"type":"Polygon","coordinates":[[[-40.696,-18.706],[-40.652,-18.707],[-40.641,-18.726],[-40.601,-18.722],[-40.497,-18.651],[-40.534,-18.593],[-40.565,-18.567],[-40.563,-18.506],[-40.551,-18.494],[-40.588,-18.49],[-40.652,-18.513],[-40.685,-18.535],[-40.708,-18.564],[-40.759,-18.577],[-40.746,-18.601],[-40.722,-18.602],[-40.73,-18.659],[-40.696,-18.706]]]}},{"type":"Feature","properties":{"code":"3204955"},"geometry":{"type":"Polygon","coordinates":[[[-40.757,-19.652],[-40.77,-19.686],[-40.782,-19.759],[-40.775,-19.814],[-40.728,-19.828],[-40.709,-19.792],[-40.627,-19.771],[-40.552,-19.734],[-40.519,-19.745],[-40.527,-19.716],[-40.687,-19.624],[-40.723,-19.625],[-40.757,-19.652]]]}},{"type":"Feature","properties":{"code":"3205036"},"geometry":{"type":"Polygon","coordinates":[[[-40.98,-20.869],[-40.99,-20.833],[-40.979,-20.821],[-40.994,-20.781],[-40.976,-20.764],[-40.956,-20.715],[-40.959,-20.696],[-40.93,-20.678],[-40.91,-20.619],[-40.945,-20.606],[-40.968,-20.576],[-40.957,-20.562],[-40.959,-20.509],[-40.969,-20.463],[-40.988,-20.437],[-41.005,-20.471],[-41.039,-20.484],[-41.018,-20.545],[-41.04,-20.572],[-41.077,-20.589],[-41.078,-20.614],[-41.055,-20.632],[-41.085,-20.683],[-41.087,-20.704],[-41.05,-20.753],[-41.046,-20.788],[-41.022,-20.787],[-41.016,-20.821],[-41.031,-20.854],[-41.006,-20.869],[-40.98,-20.869]]]}},{"type":"Feature","properties":{"code":"3205010"},"geometry":{"type":"Polygon","coordinates":[[[-40.192,-19.192],[-40.157,-19.193],[-40.148,-19.217],[-40.084,-19.235],[-40.038,-19.185],[-40.088,-19.17],[-40.002,-18.995],[-40.165,-18.953],[-40.206,-18.907],[-40.264,-19.033],[-40.288,-19.075],[-40.267,-19.087],[-40.238,-19.123],[-40.24,-19.149],[-40.197,-19.169],[-40.192,-19.192]]]}},{"type":"Feature","properties":{"code":"3205002"},"geometry":{"type":"Polygon","coordinates":[[[-40.329,-20.26],[-40.311,-20.237],[-40.215,-20.243],[-40.199,-20.216],[-40.172,-20.108],[-40.173,-20.077],[-40.192,-20.055],[-40.221,-20.028],[-40.274,-20.036],[-40.295,-20.023],[-40.352,-20.047],[-40.387,-20.014],[-40.416,-20.017],[-40.433,-20.095],[-40.436,-20.135],[-40.411,-20.17],[-40.39,-20.178],[-40.373,-20.215],[-40.329,-20.26]]]}},{"type":"Feature","properties":{"code":"3204351"},"geometry":{"type":"Polygon","coordinates":[[[-40.431,-19.258],[-40.416,-19.271],[-40.424,-19.312],[-40.398,-19.358],[-40.297,-19.356],[-40.273,-19.369],[-40.203,-19.342],[-40.181,-19.243],[-40.192,-19.192],[-40.197,-19.169],[-40.24,-19.149],[-40.238,-19.123],[-40.267,-19.087],[-40.288,-19.075],[-40.375,-19.079],[-40.375,-19.079],[-40.365,-19.096],[-40.402,-19.136],[-40.418,-19.219],[-40.431,-19.258]]]}},{"type":"Feature","properties":{"code":"3204302"},"geometry":{"type":"Polygon","coordinates":[[[-40.961,-21.301],[-40.962,-21.265],[-40.926,-21.19],[-40.947,-21.172],[-40.946,-21.111],[-40.96,-21.077],[-41.017,-21.063],[-41.04,-21.027],[-41.117,-21.012],[-41.16,-21.061],[-41.194,-21.061],[-41.234,-21.078],[-41.22,-21.096],[-41.19,-21.179],[-41.184,-21.228],[-41.137,-21.227],[-41.09,-21.22],[-41.04,-21.255],[-41.005,-21.253],[-40.995,-21.286],[-40.961,-21.301]]]}},{"type":"Feature","properties":{"code":"3204401"},"geometry":{"type":"Polygon","coordinates":[[[-40.828,-20.891],[-40.828,-20.856],[-40.828,-20.808],[-40.897,-20.815],[-40.947,-20.772],[-40.91,-20.686],[-40.93,-20.678],[-40.959,-20.696],[-40.956,-20.715],[-40.976,-20.764],[-40.994,-20.781],[-40.979,-20.821],[-40.99,-20.833],[-40.98,-20.869],[-40.926,-20.891],[-40.828,-20.891]]]}},{"type":"Feature","properties":{"code":"3204203"},"geometry":{"type":"Polygon","coordinates":[[[-40.828,-20.891],[-40.758,-20.864],[-40.746,-20.85],[-40.701,-20.835],[-40.727,-20.808],[-40.771,-20.787],[-40.828,-20.856],[-40.828,-20.891]]]}},{"type":"Feature","properties":{"code":"3204252"},"geometry":{"type":"Polygon","coordinates":[[[-40.486,-18.366],[-40.48,-18.256],[-40.426,-18.257],[-40.422,-18.182],[-40.444,-18.154],[-40.443,-18.125],[-40.51,-18.133],[-40.542,-18.112],[-40.561,-18.141],[-40.546,-18.203],[-40.559,-18.231],[-40.619,-18.288],[-40.605,-18.341],[-40.583,-18.369],[-40.529,-18.365],[-40.485,-18.413],[-40.456,-18.412],[-40.486,-18.366]]]}},{"type":"Feature","properties":{"code":"3204609"},"geometry":{"type":"Polygon","coordinates":[[[-40.775,-19.942],[-40.752,-19.949],[-40.742,-19.985],[-40.672,-19.964],[-40.662,-19.981],[-40.63,-19.965],[-40.605,-20.002],[-40.586,-19.988],[-40.545,-19.99],[-40.511,-19.955],[-40.485,-19.963],[-40.455,-19.947],[-40.474,-19.937],[-40.477,-19.905],[-40.503,-19.876],[-40.505,-19.854],[-40.514,-19.831],[-40.53,-19.806],[-40.519,-19.745],[-40.552,-19.734],[-40.627,-19.771],[-40.709,-19.792],[-40.728,-19.828],[-40.775,-19.814],[-40.828,-19.866],[-40.814,-19.888],[-40.775,-19.942]]]}},{"type":"Feature","properties":{"code":"3204559"},"geometry":{"type":"Polygon","coordinates":[[[-40.948,-20.074],[-40.973,-20.111],[-41.036,-20.132],[-41.018,-20.15],[-41.003,-20.214],[-40.974,-20.2],[-40.899,-20.204],[-40.834,-20.177],[-40.823,-20.165],[-40.771,-20.161],[-40.752,-20.176],[-40.684,-20.139],[-40.675,-20.094],[-40.644,-20.092],[-40.624,-20.107],[-40.603,-20.082],[-40.622,-20.046],[-40.605,-20.002],[-40.63,-19.965],[-40.662,-19.981],[-40.672,-19.964],[-40.742,-19.985],[-40.752,-19.949],[-40.775,-19.942],[-40.786,-19.962],[-40.826,-19.987],[-40.853,-19.986],[-40.867,-20.023],[-40.948,-20.074]]]}},{"type":"Feature","properties":{"code":"3204658"},"geometry":{"type":"Polygon","coordinates":[[[-40.613,-19.276],[-40.619,-19.209],[-40.58,-19.178],[-40.56,-19.141],[-40.508,-19.154],[-40.505,-19.122],[-40.449,-19.1],[-40.413,-19.109],[-40.375,-19.079],[-40.375,-19.079],[-40.429,-19.074],[-40.458,-19.048],[-40.509,-19.06],[-40.556,-19.046],[-40.58,-19.068],[-40.655,-19.09],[-40.684,-19.104],[-40.691,-19.15],[-40.658,-19.167],[-40.665,-19.23],[-40.63,-19.241],[-40.613,-19.276]]]}},{"type":"Feature","properties":{"code":"3204500"},"geometry":{"type":"Polygon","coordinates":[[[-40.595,-20.245],[-40.596,-20.268],[-40.558,-20.27],[-40.502,-20.229],[-40.468,-20.221],[-40.408,-20.231],[-40.373,-20.215],[-40.39,-20.178],[-40.411,-20.17],[-40.436,-20.135],[-40.433,-20.095],[-40.416,-20.017],[-40.447,-19.995],[-40.455,-19.947],[-40.485,-19.963],[-40.511,-19.955],[-40.545,-19.99],[-40.586,-19.988],[-40.605,-20.002],[-40.622,-20.046],[-40.603,-20.082],[-40.624,-20.107],[-40.644,-20.092],[-40.675,-20.094],[-40.684,-20.139],[-40.752,-20.176],[-40.681,-20.189],[-40.595,-20.245]]]}},{"type":"Feature","properties":{"code":"3203809"},"geometry":{"type":"Polygon","coordinates":[[[-41.229,-21.006],[-41.225,-20.971],[-41.25,-20.944],[-41.281,-20.956],[-41.262,-20.895],[-41.245,-20.869],[-41.238,-20.847],[-41.337,-20.863],[-41.371,-20.875],[-41.414,-20.853],[-41.431,-20.905],[-41.445,-20.908],[-41.442,-20.924],[-41.472,-20.991],[-41.41,-21.008],[-41.367,-21.008],[-41.359,-20.995],[-41.28,-21.002],[-41.26,-21.026],[-41.229,-21.006]]]}},{"type":"Feature","properties":{"code":"3203908"},"geometry":{"type":"Polygon","coordinates":[[[-40.656,-18.946],[-40.617,-18.952],[-40.593,-18.934],[-40.573,-18.894],[-40.474,-18.853],[-40.402,-18.851],[-40.395,-18.782],[-40.348,-18.745],[-40.336,-18.726],[-40.284,-18.577],[-40.331,-18.581],[-40.348,-18.548],[-40.42,-18.543],[-40.433,-18.5],[-40.449,-18.496],[-40.464,-18.436],[-40.456,-18.412],[-40.485,-18.413],[-40.529,-18.365],[-40.583,-18.369],[-40.605,-18.408],[-40.596,-18.433],[-40.536,-18.466],[-40.551,-18.494],[-40.563,-18.506],[-40.565,-18.567],[-40.534,-18.593],[-40.497,-18.651],[-40.601,-18.722],[-40.641,-18.726],[-40.652,-18.707],[-40.696,-18.706],[-40.717,-18.726],[-40.719,-18.757],[-40.773,-18.795],[-40.763,-18.849],[-40.722,-18.849],[-40.715,-18.875],[-40.74,-18.902],[-40.741,-18.934],[-40.674,-18.936],[-40.656,-18.946]]]}},{"type":"Feature","properties":{"code":"3203700"},"geometry":{"type":"Polygon","coordinates":[[[-41.601,-20.546],[-41.565,-20.576],[-41.502,-20.547],[-41.501,-20.58],[-41.469,-20.582],[-41.438,-20.561],[-41.415,-20.573],[-41.406,-20.547],[-41.373,-20.537],[-41.375,-20.508],[-41.328,-20.514],[-41.328,-20.497],[-41.315,-20.423],[-41.323,-20.395],[-41.346,-20.374],[-41.361,-20.326],[-41.355,-20.307],[-41.315,-20.297],[-41.31,-20.269],[-41.377,-20.219],[-41.41,-20.23],[-41.443,-20.27],[-41.443,-20.297],[-41.476,-20.328],[-41.464,-20.336],[-41.476,-20.412],[-41.523,-20.44],[-41.572,-20.445],[-41.577,-20.5],[-41.596,-20.504],[-41.601,-20.546]]]}},{"type":"Feature","properties":{"code":"3204054"},"geometry":{"type":"Polygon","coordinates":[[[-39.955,-18.311],[-39.938,-18.288],[-39.928,-18.235],[-39.9,-18.2],[-39.912,-18.179],[-40.22,-17.982],[-40.21,-18.021],[-40.185,-18.032],[-40.172,-18.058],[-40.104,-18.095],[-40.107,-18.151],[-40.09,-18.18],[-40.13,-18.274],[-40.068,-18.278],[-40.035,-18.294],[-39.989,-18.288],[-39.955,-18.311]]]}},{"type":"Feature","properties":{"code":"3204104"},"geometry":{"type":"Polygon","coordinates":[[[-40.03,-18.444],[-40.002,-18.433],[-39.974,-18.438],[-39.937,-18.412],[-39.959,-18.345],[-39.955,-18.311],[-39.989,-18.288],[-40.035,-18.294],[-40.068,-18.278],[-40.13,-18.274],[-40.25,-18.32],[-40.34,-18.296],[-40.346,-18.279],[-40.391,-18.273],[-40.426,-18.257],[-40.48,-18.256],[-40.486,-18.366],[-40.458,-18.375],[-40.424,-18.365],[-40.403,-18.385],[-40.355,-18.378],[-40.33,-18.402],[-40.319,-18.44],[-40.272,-18.494],[-40.2,-18.487],[-40.177,-18.471],[-40.125,-18.488],[-40.09,-18.488],[-40.03,-18.444]]]}},{"type":"Feature","properties":{"code":"3204005"},"geometry":{"type":"Polygon","coordinates":[[[-40.935,-19.223],[-40.875,-19.265],[-40.894,-19.281],[-40.875,-19.313],[-40.831,-19.338],[-40.82,-19.357],[-40.808,-19.303],[-40.757,-19.298],[-40.709,-19.282],[-40.701,-19.242],[-40.665,-19.23],[-40.658,-19.167],[-40.691,-19.15],[-40.686,-19.111],[-40.713,-19.108],[-40.73,-19.034],[-40.769,-18.995],[-40.783,-19.021],[-40.859,-19.022],[-40.858,-18.94],[-40.906,-18.941],[-40.917,-18.941],[-40.947,-18.945],[-40.944,-18.998],[-40.896,-19.013],[-40.899,-19.051],[-40.95,-19.079],[-40.964,-19.122],[-40.948,-19.142],[-40.941,-19.181],[-40.923,-19.203],[-40.935,-19.223]]]}},{"type":"Feature","properties":{"code":"3203320"},"geometry":{"type":"Polygon","coordinates":[[[-40.926,-21.19],[-40.858,-21.128],[-40.832,-21.053],[-40.812,-21.032],[-40.809,-20.996],[-40.848,-21.046],[-40.876,-21.06],[-40.912,-21.042],[-40.931,-21.048],[-40.946,-21.111],[-40.947,-21.172],[-40.926,-21.19]]]}},{"type":"Feature","properties":{"code":"3203304"},"geometry":{"type":"Polygon","coordinates":[[[-40.898,-18.901],[-41.025,-18.837],[-41.111,-18.839],[-41.133,-18.797],[-41.147,-18.798],[-41.232,-18.797],[-41.245,-18.82],[-41.243,-18.854],[-41.215,-18.878],[-41.166,-18.858],[-41.137,-18.891],[-41.104,-18.934],[-41.065,-18.945],[-40.917,-18.941],[-40.906,-18.941],[-40.898,-18.901]]]}},{"type":"Feature","properties":{"code":"3203353"},"geometry":{"type":"Polygon","coordinates":[[[-40.374,-19.536],[-40.393,-19.51],[-40.417,-19.509],[-40.444,-19.458],[-40.441,-19.426],[-40.455,-19.402],[-40.495,-19.369],[-40.525,-19.332],[-40.509,-19.313],[-40.544,-19.311],[-40.549,-19.321],[-40.627,-19.348],[-40.642,-19.384],[-40.625,-19.448],[-40.597,-19.431],[-40.568,-19.439],[-40.553,-19.483],[-40.485,-19.532],[-40.391,-19.543],[-40.374,-19.536]]]}},{"type":"Feature","properties":{"code":"3203346"},"geometry":{"type":"Polygon","coordinates":[[[-40.912,-20.449],[-40.87,-20.465],[-40.855,-20.492],[-40.816,-20.483],[-40.809,-20.521],[-40.779,-20.498],[-40.754,-20.498],[-40.705,-20.435],[-40.656,-20.46],[-40.626,-20.468],[-40.625,-20.424],[-40.647,-20.386],[-40.73,-20.389],[-40.733,-20.347],[-40.759,-20.347],[-40.778,-20.365],[-40.791,-20.406],[-40.834,-20.375],[-40.888,-20.397],[-40.912,-20.449]]]}},{"type":"Feature","properties":{"code":"3203205"},"geometry":{"type":"Polygon","coordinates":[[[-40.349,-19.668],[-40.334,-19.642],[-40.309,-19.652],[-40.258,-19.6],[-40.203,-19.583],[-40.167,-19.554],[-40.12,-19.552],[-40.086,-19.565],[-40.064,-19.586],[-39.912,-19.687],[-39.811,-19.65],[-39.73,-19.468],[-39.697,-19.367],[-39.689,-19.305],[-39.719,-19.097],[-39.723,-19.14],[-39.741,-19.149],[-39.761,-19.161],[-39.826,-19.139],[-39.874,-19.112],[-39.871,-19.081],[-39.905,-19.052],[-39.93,-19.06],[-40.002,-18.995],[-40.088,-19.17],[-40.038,-19.185],[-40.084,-19.235],[-40.148,-19.217],[-40.157,-19.193],[-40.192,-19.192],[-40.181,-19.243],[-40.203,-19.342],[-40.273,-19.369],[-40.297,-19.356],[-40.398,-19.358],[-40.424,-19.312],[-40.416,-19.271],[-40.431,-19.258],[-40.471,-19.293],[-40.509,-19.313],[-40.525,-19.332],[-40.495,-19.369],[-40.455,-19.402],[-40.441,-19.426],[-40.444,-19.458],[-40.417,-19.509],[-40.393,-19.51],[-40.374,-19.536],[-40.389,-19.574],[-40.377,-19.622],[-40.37,-19.653],[-40.349,-19.668]]]}},{"type":"Feature","properties":{"code":"3203163"},"geometry":{"type":"Polygon","coordinates":[[[-41.187,-19.892],[-41.145,-19.892],[-41.124,-19.935],[-41.096,-19.97],[-41.068,-19.987],[-41.007,-19.961],[-40.971,-19.977],[-40.956,-19.965],[-40.936,-19.872],[-40.955,-19.859],[-40.958,-19.83],[-40.941,-19.805],[-40.994,-19.801],[-41.023,-19.782],[-41.062,-19.772],[-41.097,-19.788],[-41.154,-19.762],[-41.175,-19.767],[-41.164,-19.806],[-41.184,-19.849],[-41.187,-19.892]]]}},{"type":"Feature","properties":{"code":"3203601"},"geometry":{"type":"Polygon","coordinates":[[[-40.368,-17.923],[-40.463,-17.928],[-40.517,-17.894],[-40.568,-17.916],[-40.587,-17.939],[-40.609,-17.938],[-40.626,-17.991],[-40.662,-18.013],[-40.641,-18.034],[-40.609,-18.106],[-40.579,-18.096],[-40.559,-18.114],[-40.561,-18.141],[-40.542,-18.112],[-40.51,-18.133],[-40.443,-18.125],[-40.391,-18.032],[-40.399,-18.013],[-40.389,-17.961],[-40.368,-17.923]]]}},{"type":"Feature","properties":{"code":"3203403"},"geometry":{"type":"Polygon","coordinates":[[[-41.47,-21.203],[-41.435,-21.216],[-41.389,-21.199],[-41.316,-21.213],[-41.276,-21.24],[-41.241,-21.22],[-41.19,-21.249],[-41.137,-21.227],[-41.184,-21.228],[-41.19,-21.179],[-41.22,-21.096],[-41.234,-21.078],[-41.194,-21.061],[-41.229,-21.006],[-41.26,-21.026],[-41.28,-21.002],[-41.359,-20.995],[-41.367,-21.008],[-41.41,-21.008],[-41.472,-20.991],[-41.442,-20.924],[-41.445,-20.908],[-41.455,-20.893],[-41.538,-20.883],[-41.58,-20.911],[-41.572,-20.958],[-41.507,-20.991],[-41.503,-21.072],[-41.513,-21.107],[-41.494,-21.123],[-41.509,-21.148],[-41.546,-21.149],[-41.558,-21.173],[-41.52,-21.187],[-41.486,-21.18],[-41.47,-21.203]]]}},{"type":"Feature","properties":{"code":"3203502"},"geometry":{"type":"Polygon","coordinates":[[[-40.13,-18.274],[-40.09,-18.18],[-40.107,-18.151],[-40.104,-18.095],[-40.172,-18.058],[-40.185,-18.032],[-40.21,-18.021],[-40.22,-17.982],[-40.222,-17.98],[-40.255,-17.972],[-40.346,-17.924],[-40.368,-17.923],[-40.389,-17.961],[-40.399,-18.013],[-40.391,-18.032],[-40.443,-18.125],[-40.444,-18.154],[-40.422,-18.182],[-40.426,-18.257],[-40.391,-18.273],[-40.346,-18.279],[-40.34,-18.296],[-40.25,-18.32],[-40.13,-18.274]]]}},{"type":"Feature","properties":{"code":"3202801"},"geometry":{"type":"Polygon","coordinates":[[[-40.946,-21.111],[-40.931,-21.048],[-40.912,-21.042],[-40.876,-21.06],[-40.848,-21.046],[-40.809,-20.996],[-40.795,-20.925],[-40.758,-20.878],[-40.758,-20.864],[-40.828,-20.891],[-40.926,-20.891],[-40.98,-20.869],[-41.006,-20.869],[-41.04,-20.869],[-41.053,-20.903],[-41.08,-20.921],[-41.093,-20.953],[-41.107,-20.957],[-41.117,-21.012],[-41.04,-21.027],[-41.017,-21.063],[-40.96,-21.077],[-40.946,-21.111]]]}},{"type":"Feature","properties":{"code":"3202652"},"geometry":{"type":"Polygon","coordinates":[[[-41.683,-20.264],[-41.73,-20.321],[-41.701,-20.369],[-41.654,-20.373],[-41.646,-20.393],[-41.613,-20.414],[-41.593,-20.363],[-41.541,-20.324],[-41.554,-20.299],[-41.567,-20.268],[-41.62,-20.27],[-41.669,-20.32],[-41.685,-20.29],[-41.683,-20.264]]]}},{"type":"Feature","properties":{"code":"3202702"},"geometry":{"type":"Polygon","coordinates":[[[-40.775,-19.814],[-40.782,-19.759],[-40.77,-19.686],[-40.757,-19.652],[-40.779,-19.635],[-40.786,-19.596],[-40.821,-19.594],[-40.853,-19.617],[-40.852,-19.578],[-40.834,-19.569],[-40.851,-19.561],[-40.883,-19.593],[-40.929,-19.611],[-40.937,-19.642],[-40.921,-19.695],[-40.973,-19.725],[-40.991,-19.761],[-40.994,-19.801],[-40.941,-19.805],[-40.958,-19.83],[-40.955,-19.859],[-40.885,-19.835],[-40.829,-19.892],[-40.814,-19.888],[-40.828,-19.866],[-40.775,-19.814]]]}},{"type":"Feature","properties":{"code":"3203056"},"geometry":{"type":"Polygon","coordinates":[[[-40.002,-18.995],[-39.93,-19.06],[-39.905,-19.052],[-39.871,-19.081],[-39.874,-19.112],[-39.826,-19.139],[-39.761,-19.161],[-39.741,-19.149],[-39.861,-18.997],[-39.961,-18.895],[-39.989,-18.877],[-40.008,-18.894],[-40.007,-18.814],[-40.05,-18.811],[-40.093,-18.799],[-40.124,-18.777],[-40.208,-18.884],[-40.206,-18.907],[-40.165,-18.953],[-40.002,-18.995]]]}},{"type":"Feature","properties":{"code":"3203130"},"geometry":{"type":"Polygon","coordinates":[[[-40.514,-19.831],[-40.505,-19.805],[-40.466,-19.763],[-40.438,-19.787],[-40.346,-19.78],[-40.349,-19.668],[-40.37,-19.653],[-40.377,-19.622],[-40.419,-19.641],[-40.463,-19.631],[-40.508,-19.666],[-40.527,-19.716],[-40.519,-19.745],[-40.53,-19.806],[-40.514,-19.831]]]}},{"type":"Feature","properties":{"code":"3203106"},"geometry":{"type":"Polygon","coordinates":[[[-41.383,-20.684],[-41.418,-20.781],[-41.453,-20.806],[-41.459,-20.837],[-41.455,-20.893],[-41.445,-20.908],[-41.431,-20.905],[-41.414,-20.853],[-41.371,-20.875],[-41.337,-20.863],[-41.353,-20.769],[-41.325,-20.731],[-41.383,-20.684]]]}},{"type":"Feature","properties":{"code":"3202900"},"geometry":{"type":"Polygon","coordinates":[[[-40.971,-19.977],[-40.969,-20.039],[-40.948,-20.074],[-40.867,-20.023],[-40.853,-19.986],[-40.826,-19.987],[-40.786,-19.962],[-40.775,-19.942],[-40.814,-19.888],[-40.829,-19.892],[-40.885,-19.835],[-40.955,-19.859],[-40.936,-19.872],[-40.956,-19.965],[-40.971,-19.977]]]}},{"type":"Feature","properties":{"code":"3203007"},"geometry":{"type":"Polygon","coordinates":[[[-41.803,-20.422],[-41.775,-20.372],[-41.739,-20.382],[-41.705,-20.413],[-41.671,-20.395],[-41.632,-20.411],[-41.632,-20.461],[-41.594,-20.482],[-41.596,-20.504],[-41.577,-20.5],[-41.572,-20.445],[-41.523,-20.44],[-41.476,-20.412],[-41.464,-20.336],[-41.476,-20.328],[-41.497,-20.28],[-41.554,-20.299],[-41.541,-20.324],[-41.593,-20.363],[-41.613,-20.414],[-41.646,-20.393],[-41.654,-20.373],[-41.701,-20.369],[-41.73,-20.321],[-41.683,-20.264],[-41.666,-20.207],[-41.757,-20.207],[-41.775,-20.26],[-41.782,-20.294],[-41.822,-20.311],[-41.853,-20.351],[-41.859,-20.373],[-41.837,-20.409],[-41.803,-20.422]]]}},{"type":"Feature","properties":{"code":"3202306"},"geometry":{"type":"Polygon","coordinates":[[[-41.775,-20.8],[-41.74,-20.817],[-41.742,-20.873],[-41.722,-20.92],[-41.734,-20.943],[-41.706,-20.921],[-41.683,-20.922],[-41.671,-20.89],[-41.653,-20.892],[-41.628,-20.862],[-41.616,-20.801],[-41.631,-20.777],[-41.597,-20.715],[-41.611,-20.705],[-41.599,-20.665],[-41.618,-20.648],[-41.66,-20.637],[-41.672,-20.668],[-41.695,-20.669],[-41.751,-20.639],[-41.793,-20.68],[-41.788,-20.722],[-41.801,-20.741],[-41.849,-20.739],[-41.845,-20.777],[-41.817,-20.801],[-41.775,-20.8]]]}},{"type":"Feature","properties":{"code":"3202256"},"geometry":{"type":"Polygon","coordinates":[[[-40.544,-19.311],[-40.509,-19.313],[-40.471,-19.293],[-40.431,-19.258],[-40.418,-19.219],[-40.402,-19.136],[-40.365,-19.096],[-40.375,-19.079],[-40.413,-19.109],[-40.449,-19.1],[-40.505,-19.122],[-40.508,-19.154],[-40.56,-19.141],[-40.58,-19.178],[-40.619,-19.209],[-40.613,-19.276],[-40.558,-19.272],[-40.537,-19.285],[-40.544,-19.311]]]}},{"type":"Feature","properties":{"code":"3202207"},"geometry":{"type":"Polygon","coordinates":[[[-40.416,-20.017],[-40.387,-20.014],[-40.352,-20.047],[-40.295,-20.023],[-40.274,-20.036],[-40.221,-20.028],[-40.192,-20.055],[-40.159,-20.036],[-40.154,-20.012],[-40.208,-19.988],[-40.239,-20.009],[-40.275,-19.989],[-40.324,-19.948],[-40.346,-19.907],[-40.425,-19.907],[-40.442,-19.859],[-40.461,-19.878],[-40.505,-19.854],[-40.503,-19.876],[-40.477,-19.905],[-40.474,-19.937],[-40.455,-19.947],[-40.447,-19.995],[-40.416,-20.017]]]}},{"type":"Feature","properties":{"code":"3202553"},"geometry":{"type":"Polygon","coordinates":[[[-41.599,-20.665],[-41.607,-20.623],[-41.64,-20.573],[-41.601,-20.546],[-41.596,-20.504],[-41.594,-20.482],[-41.632,-20.461],[-41.632,-20.411],[-41.671,-20.395],[-41.705,-20.413],[-41.739,-20.382],[-41.775,-20.372],[-41.803,-20.422],[-41.8,-20.477],[-41.782,-20.504],[-41.745,-20.506],[-41.695,-20.529],[-41.665,-20.584],[-41.66,-20.637],[-41.618,-20.648],[-41.599,-20.665]]]}},{"type":"Feature","properties":{"code":"3202504"},"geometry":{"type":"Polygon","coordinates":[[[-40.505,-19.854],[-40.461,-19.878],[-40.442,-19.859],[-40.425,-19.907],[-40.346,-19.907],[-40.346,-19.78],[-40.438,-19.787],[-40.466,-19.763],[-40.505,-19.805],[-40.514,-19.831],[-40.505,-19.854]]]}},{"type":"Feature","properties":{"code":"3202603"},"geometry":{"type":"Polygon","coordinates":[[[-40.771,-20.787],[-40.792,-20.717],[-40.839,-20.688],[-40.882,-20.67],[-40.91,-20.686],[-40.947,-20.772],[-40.897,-20.815],[-40.828,-20.808],[-40.828,-20.856],[-40.771,-20.787]]]}},{"type":"Feature","properties":{"code":"3202405"},"geometry":{"type":"Polygon","coordinates":[[[-40.571,-20.765],[-40.533,-20.737],[-40.495,-20.662],[-40.464,-20.624],[-40.431,-20.637],[-40.405,-20.599],[-40.377,-20.535],[-40.38,-20.518],[-40.484,-20.505],[-40.538,-20.473],[-40.605,-20.487],[-40.626,-20.468],[-40.656,-20.46],[-40.677,-20.469],[-40.694,-20.526],[-40.681,-20.557],[-40.65,-20.548],[-40.648,-20.628],[-40.571,-20.765]]]}},{"type":"Feature","properties":{"code":"3202454"},"geometry":{"type":"Polygon","coordinates":[[[-41.683,-20.264],[-41.685,-20.29],[-41.669,-20.32],[-41.62,-20.27],[-41.567,-20.268],[-41.554,-20.299],[-41.497,-20.28],[-41.476,-20.328],[-41.443,-20.297],[-41.443,-20.27],[-41.41,-20.23],[-41.416,-20.207],[-41.666,-20.207],[-41.683,-20.264]]]}},{"type":"Feature","properties":{"code":"3201803"},"geometry":{"type":"Polygon","coordinates":[[[-41.66,-20.637],[-41.665,-20.584],[-41.695,-20.529],[-41.745,-20.506],[-41.782,-20.504],[-41.774,-20.523],[-41.799,-20.576],[-41.77,-20.627],[-41.751,-20.639],[-41.695,-20.669],[-41.672,-20.668],[-41.66,-20.637]]]}},{"type":"Feature","properties":{"code":"3201704"},"geometry":{"type":"Polygon","coordinates":[[[-41.328,-20.497],[-41.298,-20.521],[-41.271,-20.492],[-41.21,-20.491],[-41.225,-20.461],[-41.191,-20.446],[-41.181,-20.408],[-41.219,-20.356],[-41.217,-20.328],[-41.166,-20.301],[-41.158,-20.282],[-41.186,-20.259],[-41.239,-20.277],[-41.257,-20.253],[-41.295,-20.251],[-41.31,-20.269],[-41.315,-20.297],[-41.355,-20.307],[-41.361,-20.326],[-41.346,-20.374],[-41.323,-20.395],[-41.315,-20.423],[-41.328,-20.497]]]}},{"type":"Feature","properties":{"code":"3202009"},"geometry":{"type":"Polygon","coordinates":[[[-41.851,-20.691],[-41.86,-20.739],[-41.875,-20.766],[-41.845,-20.777],[-41.849,-20.739],[-41.801,-20.741],[-41.788,-20.722],[-41.793,-20.68],[-41.751,-20.639],[-41.77,-20.627],[-41.799,-20.576],[-41.774,-20.523],[-41.782,-20.504],[-41.8,-20.477],[-41.825,-20.483],[-41.804,-20.538],[-41.828,-20.557],[-41.841,-20.6],[-41.813,-20.653],[-41.851,-20.691]]]}},{"type":"Feature","properties":{"code":"3202108"},"geometry":{"type":"Polygon","coordinates":[[[-40.926,-18.439],[-40.911,-18.429],[-40.854,-18.443],[-40.846,-18.487],[-40.829,-18.501],[-40.764,-18.485],[-40.724,-18.468],[-40.703,-18.499],[-40.652,-18.513],[-40.588,-18.49],[-40.551,-18.494],[-40.536,-18.466],[-40.596,-18.433],[-40.605,-18.408],[-40.583,-18.369],[-40.605,-18.341],[-40.619,-18.288],[-40.559,-18.231],[-40.546,-18.203],[-40.561,-18.141],[-40.559,-18.114],[-40.579,-18.096],[-40.609,-18.106],[-40.641,-18.034],[-40.662,-18.013],[-40.704,-18.024],[-40.726,-18.001],[-40.753,-18.01],[-40.798,-17.957],[-40.831,-17.954],[-40.863,-17.988],[-40.902,-17.986],[-40.773,-18.108],[-40.772,-18.156],[-40.845,-18.15],[-40.879,-18.12],[-40.909,-18.115],[-41.015,-18.158],[-41.052,-18.165],[-41.104,-18.212],[-41.096,-18.256],[-41.159,-18.308],[-41.148,-18.353],[-41.144,-18.405],[-41.1,-18.402],[-41.058,-18.351],[-41.041,-18.383],[-40.986,-18.41],[-40.958,-18.383],[-40.931,-18.401],[-40.926,-18.439]]]}},{"type":"Feature","properties":{"code":"3201902"},"geometry":{"type":"Polygon","coordinates":[[[-41.039,-20.484],[-41.005,-20.471],[-40.988,-20.437],[-40.93,-20.437],[-40.912,-20.449],[-40.888,-20.397],[-40.834,-20.375],[-40.791,-20.406],[-40.778,-20.365],[-40.759,-20.347],[-40.733,-20.347],[-40.73,-20.389],[-40.647,-20.386],[-40.625,-20.424],[-40.615,-20.414],[-40.556,-20.409],[-40.539,-20.391],[-40.593,-20.367],[-40.58,-20.322],[-40.582,-20.292],[-40.6,-20.278],[-40.595,-20.245],[-40.681,-20.189],[-40.752,-20.176],[-40.771,-20.161],[-40.823,-20.165],[-40.834,-20.177],[-40.899,-20.204],[-40.974,-20.2],[-41.003,-20.214],[-41.057,-20.232],[-41.102,-20.274],[-41.137,-20.288],[-41.106,-20.303],[-41.098,-20.344],[-41.052,-20.439],[-41.053,-20.46],[-41.039,-20.484]]]}},{"type":"Feature","properties":{"code":"3201308"},"geometry":{"type":"Polygon","coordinates":[[[-40.37,-20.4],[-40.355,-20.327],[-40.362,-20.306],[-40.329,-20.26],[-40.373,-20.215],[-40.408,-20.231],[-40.468,-20.221],[-40.502,-20.229],[-40.558,-20.27],[-40.596,-20.268],[-40.595,-20.245],[-40.6,-20.278],[-40.582,-20.292],[-40.523,-20.302],[-40.516,-20.347],[-40.439,-20.332],[-40.404,-20.359],[-40.406,-20.379],[-40.37,-20.4]]]}},{"type":"Feature","properties":{"code":"3201100"},"geometry":{"type":"Polygon","coordinates":[[[-41.717,-21.105],[-41.645,-21.143],[-41.635,-21.127],[-41.572,-21.077],[-41.587,-21.056],[-41.572,-21.024],[-41.591,-21.008],[-41.617,-21.033],[-41.633,-21.07],[-41.653,-21.086],[-41.678,-21.08],[-41.717,-21.105]]]}},{"type":"Feature","properties":{"code":"3201209"},"geometry":{"type":"Polygon","coordinates":[[[-41.093,-20.953],[-41.08,-20.921],[-41.053,-20.903],[-41.04,-20.869],[-41.006,-20.869],[-41.031,-20.854],[-41.016,-20.821],[-41.022,-20.787],[-41.046,-20.788],[-41.05,-20.753],[-41.087,-20.704],[-41.085,-20.683],[-41.055,-20.632],[-41.078,-20.614],[-41.099,-20.609],[-41.168,-20.645],[-41.18,-20.667],[-41.205,-20.672],[-41.254,-20.663],[-41.341,-20.606],[-41.374,-20.628],[-41.383,-20.684],[-41.325,-20.731],[-41.353,-20.769],[-41.337,-20.863],[-41.238,-20.847],[-41.245,-20.869],[-41.233,-20.884],[-41.201,-20.88],[-41.137,-20.909],[-41.133,-20.929],[-41.093,-20.933],[-41.093,-20.953]]]}},{"type":"Feature","properties":{"code":"3201159"},"geometry":{"type":"Polygon","coordinates":[[[-41.239,-20.277],[-41.234,-20.25],[-41.252,-20.181],[-41.228,-20.152],[-41.226,-20.122],[-41.251,-20.084],[-41.233,-20.052],[-41.253,-20.028],[-41.239,-20.006],[-41.271,-19.942],[-41.298,-19.938],[-41.312,-19.972],[-41.309,-20.016],[-41.333,-20.058],[-41.356,-20.139],[-41.382,-20.189],[-41.412,-20.206],[-41.416,-20.207],[-41.41,-20.23],[-41.377,-20.219],[-41.31,-20.269],[-41.295,-20.251],[-41.257,-20.253],[-41.239,-20.277]]]}},{"type":"Feature","properties":{"code":"3201506"},"geometry":{"type":"Polygon","coordinates":[[[-40.374,-19.536],[-40.391,-19.543],[-40.485,-19.532],[-40.553,-19.483],[-40.568,-19.439],[-40.597,-19.431],[-40.625,-19.448],[-40.642,-19.384],[-40.627,-19.348],[-40.549,-19.321],[-40.544,-19.311],[-40.537,-19.285],[-40.558,-19.272],[-40.613,-19.276],[-40.63,-19.241],[-40.665,-19.23],[-40.701,-19.242],[-40.709,-19.282],[-40.757,-19.298],[-40.808,-19.303],[-40.82,-19.357],[-40.849,-19.381],[-40.86,-19.422],[-40.883,-19.448],[-40.873,-19.477],[-40.853,-19.476],[-40.826,-19.535],[-40.834,-19.569],[-40.852,-19.578],[-40.853,-19.617],[-40.821,-19.594],[-40.786,-19.596],[-40.779,-19.635],[-40.757,-19.652],[-40.723,-19.625],[-40.687,-19.624],[-40.527,-19.716],[-40.508,-19.666],[-40.463,-19.631],[-40.419,-19.641],[-40.377,-19.622],[-40.389,-19.574],[-40.374,-19.536]]]}},{"type":"Feature","properties":{"code":"3201605"},"geometry":{"type":"Polygon","coordinates":[[[-39.746,-18.706],[-39.728,-18.611],[-39.728,-18.518],[-39.715,-18.462],[-39.668,-18.337],[-39.689,-18.321],[-39.912,-18.179],[-39.9,-18.2],[-39.928,-18.235],[-39.938,-18.288],[-39.955,-18.311],[-39.959,-18.345],[-39.937,-18.412],[-39.974,-18.438],[-40.002,-18.433],[-40.03,-18.444],[-39.847,-18.669],[-39.817,-18.671],[-39.803,-18.721],[-39.786,-18.706],[-39.746,-18.706]]]}},{"type":"Feature","properties":{"code":"3201407"},"geometry":{"type":"Polygon","coordinates":[[[-41.374,-20.628],[-41.341,-20.606],[-41.254,-20.663],[-41.205,-20.672],[-41.18,-20.667],[-41.168,-20.645],[-41.099,-20.609],[-41.078,-20.614],[-41.077,-20.589],[-41.04,-20.572],[-41.018,-20.545],[-41.039,-20.484],[-41.053,-20.46],[-41.101,-20.434],[-41.098,-20.409],[-41.166,-20.445],[-41.191,-20.446],[-41.225,-20.461],[-41.21,-20.491],[-41.271,-20.492],[-41.298,-20.521],[-41.328,-20.497],[-41.328,-20.514],[-41.375,-20.508],[-41.373,-20.537],[-41.406,-20.547],[-41.415,-20.573],[-41.392,-20.624],[-41.374,-20.628]]]}},{"type":"Feature","properties":{"code":"3200805"},"geometry":{"type":"Polygon","coordinates":[[[-40.994,-19.801],[-40.991,-19.761],[-40.973,-19.725],[-40.921,-19.695],[-40.937,-19.642],[-40.929,-19.611],[-40.883,-19.593],[-40.851,-19.561],[-40.834,-19.569],[-40.826,-19.535],[-40.853,-19.476],[-40.873,-19.477],[-40.883,-19.448],[-40.86,-19.422],[-40.849,-19.381],[-40.82,-19.357],[-40.831,-19.338],[-40.875,-19.313],[-40.894,-19.281],[-40.875,-19.265],[-40.935,-19.223],[-40.932,-19.251],[-40.944,-19.279],[-40.925,-19.302],[-40.938,-19.346],[-40.93,-19.384],[-40.951,-19.393],[-40.966,-19.424],[-40.945,-19.461],[-40.988,-19.508],[-41.041,-19.516],[-41.037,-19.57],[-41.099,-19.604],[-41.109,-19.64],[-41.169,-19.672],[-41.174,-19.716],[-41.191,-19.746],[-41.175,-19.767],[-41.154,-19.762],[-41.097,-19.788],[-41.062,-19.772],[-41.023,-19.782],[-40.994,-19.801]]]}},{"type":"Feature","properties":{"code":"3200607"},"geometry":{"type":"Polygon","coordinates":[[[-40.154,-20.012],[-40.133,-19.966],[-40.15,-19.946],[-40.102,-19.921],[-40.083,-19.876],[-40.058,-19.84],[-40.055,-19.815],[-40.015,-19.768],[-39.968,-19.726],[-39.912,-19.687],[-40.064,-19.586],[-40.086,-19.565],[-40.12,-19.552],[-40.167,-19.554],[-40.203,-19.583],[-40.258,-19.6],[-40.309,-19.652],[-40.334,-19.642],[-40.349,-19.668],[-40.346,-19.78],[-40.346,-19.907],[-40.324,-19.948],[-40.275,-19.989],[-40.239,-20.009],[-40.208,-19.988],[-40.154,-20.012]]]}},{"type":"Feature","properties":{"code":"3200706"},"geometry":{"type":"Polygon","coordinates":[[[-41.229,-21.006],[-41.194,-21.061],[-41.16,-21.061],[-41.117,-21.012],[-41.107,-20.957],[-41.093,-20.953],[-41.093,-20.933],[-41.133,-20.929],[-41.137,-20.909],[-41.201,-20.88],[-41.233,-20.884],[-41.245,-20.869],[-41.262,-20.895],[-41.281,-20.956],[-41.25,-20.944],[-41.225,-20.971],[-41.229,-21.006]]]}},{"type":"Feature","properties":{"code":"3201001"},"geometry":{"type":"Polygon","coordinates":[[[-40.125,-18.488],[-40.177,-18.471],[-40.2,-18.487],[-40.272,-18.494],[-40.319,-18.44],[-40.33,-18.402],[-40.355,-18.378],[-40.403,-18.385],[-40.424,-18.365],[-40.458,-18.375],[-40.486,-18.366],[-40.456,-18.412],[-40.464,-18.436],[-40.449,-18.496],[-40.433,-18.5],[-40.42,-18.543],[-40.348,-18.548],[-40.331,-18.581],[-40.284,-18.577],[-40.247,-18.568],[-40.23,-18.583],[-40.167,-18.546],[-40.158,-18.51],[-40.125,-18.488]]]}},{"type":"Feature","properties":{"code":"3200904"},"geometry":{"type":"Polygon","coordinates":[[[-41.025,-18.837],[-40.898,-18.901],[-40.861,-18.896],[-40.863,-18.864],[-40.803,-18.844],[-40.763,-18.849],[-40.773,-18.795],[-40.719,-18.757],[-40.717,-18.726],[-40.696,-18.706],[-40.73,-18.659],[-40.722,-18.602],[-40.746,-18.601],[-40.759,-18.577],[-40.708,-18.564],[-40.685,-18.535],[-40.652,-18.513],[-40.703,-18.499],[-40.724,-18.468],[-40.764,-18.485],[-40.829,-18.501],[-40.846,-18.487],[-40.854,-18.443],[-40.911,-18.429],[-40.926,-18.439],[-40.925,-18.487],[-40.905,-18.522],[-40.907,-18.549],[-40.929,-18.587],[-40.906,-18.61],[-40.91,-18.665],[-40.903,-18.686],[-40.941,-18.691],[-40.94,-18.77],[-40.917,-18.816],[-40.964,-18.841],[-41.025,-18.837]]]}},{"type":"Feature","properties":{"code":"3200201"},"geometry":{"type":"Polygon","coordinates":[[[-41.455,-20.893],[-41.459,-20.837],[-41.453,-20.806],[-41.418,-20.781],[-41.383,-20.684],[-41.374,-20.628],[-41.392,-20.624],[-41.415,-20.573],[-41.438,-20.561],[-41.469,-20.582],[-41.501,-20.58],[-41.502,-20.547],[-41.565,-20.576],[-41.601,-20.546],[-41.64,-20.573],[-41.607,-20.623],[-41.599,-20.665],[-41.611,-20.705],[-41.597,-20.715],[-41.631,-20.777],[-41.616,-20.801],[-41.628,-20.862],[-41.611,-20.892],[-41.58,-20.911],[-41.538,-20.883],[-41.455,-20.893]]]}},{"type":"Feature","properties":{"code":"3200300"},"geometry":{"type":"Polygon","coordinates":[[[-40.839,-20.688],[-40.771,-20.706],[-40.759,-20.658],[-40.711,-20.614],[-40.672,-20.595],[-40.681,-20.557],[-40.694,-20.526],[-40.677,-20.469],[-40.656,-20.46],[-40.705,-20.435],[-40.754,-20.498],[-40.779,-20.498],[-40.809,-20.521],[-40.816,-20.483],[-40.855,-20.492],[-40.87,-20.465],[-40.912,-20.449],[-40.93,-20.437],[-40.988,-20.437],[-40.969,-20.463],[-40.959,-20.509],[-40.957,-20.562],[-40.968,-20.576],[-40.945,-20.606],[-40.91,-20.619],[-40.93,-20.678],[-40.91,-20.686],[-40.882,-20.67],[-40.839,-20.688]]]}},{"type":"Feature","properties":{"code":"3200102"},"geometry":{"type":"Polygon","coordinates":[[[-41.137,-20.288],[-41.102,-20.274],[-41.057,-20.232],[-41.003,-20.214],[-41.018,-20.15],[-41.036,-20.132],[-40.973,-20.111],[-40.948,-20.074],[-40.969,-20.039],[-40.971,-19.977],[-41.007,-19.961],[-41.068,-19.987],[-41.096,-19.97],[-41.124,-19.935],[-41.145,-19.892],[-41.187,-19.892],[-41.23,-19.907],[-41.245,-19.937],[-41.271,-19.942],[-41.239,-20.006],[-41.253,-20.028],[-41.233,-20.052],[-41.251,-20.084],[-41.226,-20.122],[-41.228,-20.152],[-41.252,-20.181],[-41.234,-20.25],[-41.239,-20.277],[-41.186,-20.259],[-41.158,-20.282],[-41.137,-20.288]]]}},{"type":"Feature","properties":{"code":"3200169"},"geometry":{"type":"Polygon","coordinates":[[[-40.941,-18.691],[-40.903,-18.686],[-40.91,-18.665],[-40.906,-18.61],[-40.929,-18.587],[-40.907,-18.549],[-40.905,-18.522],[-40.925,-18.487],[-40.926,-18.439],[-40.931,-18.401],[-40.958,-18.383],[-40.986,-18.41],[-41.041,-18.383],[-41.058,-18.351],[-41.1,-18.402],[-41.144,-18.405],[-41.182,-18.44],[-41.023,-18.457],[-41.016,-18.477],[-41.026,-18.528],[-41.051,-18.634],[-41.005,-18.667],[-40.941,-18.691]]]}},{"type":"Feature","properties":{"code":"3200136"},"geometry":{"type":"Polygon","coordinates":[[[-40.906,-18.941],[-40.858,-18.94],[-40.859,-19.022],[-40.783,-19.021],[-40.769,-18.995],[-40.73,-19.034],[-40.713,-19.108],[-40.686,-19.111],[-40.691,-19.15],[-40.684,-19.104],[-40.655,-19.09],[-40.58,-19.068],[-40.556,-19.046],[-40.572,-19.053],[-40.615,-19.041],[-40.645,-19.009],[-40.634,-18.987],[-40.656,-18.946],[-40.674,-18.936],[-40.741,-18.934],[-40.74,-18.902],[-40.715,-18.875],[-40.722,-18.849],[-40.763,-18.849],[-40.803,-18.844],[-40.863,-18.864],[-40.861,-18.896],[-40.898,-18.901],[-40.906,-18.941]]]}},{"type":"Feature","properties":{"code":"3200508"},"geometry":{"type":"Polygon","coordinates":[[[-41.645,-21.143],[-41.613,-21.157],[-41.589,-21.15],[-41.558,-21.173],[-41.546,-21.149],[-41.509,-21.148],[-41.494,-21.123],[-41.513,-21.107],[-41.503,-21.072],[-41.507,-20.991],[-41.572,-20.958],[-41.591,-21.008],[-41.572,-21.024],[-41.587,-21.056],[-41.572,-21.077],[-41.635,-21.127],[-41.645,-21.143]]]}},{"type":"Feature","properties":{"code":"3200359"},"geometry":{"type":"Polygon","coordinates":[[[-40.964,-19.122],[-40.95,-19.079],[-40.899,-19.051],[-40.896,-19.013],[-40.944,-18.998],[-40.947,-18.945],[-40.917,-18.941],[-41.065,-18.945],[-41.061,-18.968],[-41.032,-18.991],[-41.072,-19.026],[-41.061,-19.056],[-41.013,-19.076],[-41.007,-19.101],[-40.964,-19.122]]]}},{"type":"Feature","properties":{"code":"3200409"},"geometry":{"type":"Polygon","coordinates":[[[-40.701,-20.835],[-40.653,-20.806],[-40.628,-20.82],[-40.583,-20.801],[-40.571,-20.765],[-40.648,-20.628],[-40.65,-20.548],[-40.681,-20.557],[-40.672,-20.595],[-40.711,-20.614],[-40.759,-20.658],[-40.771,-20.706],[-40.839,-20.688],[-40.792,-20.717],[-40.771,-20.787],[-40.727,-20.808],[-40.701,-20.835]]]}}]}