{"type":"FeatureCollection","features":[{"type":"Feature","properties":{"code":"3305703"},"geometry":{"type":"Polygon","coordinates":[[[-42.714,-22.266],[-42.676,-22.24],[-42.669,-22.22],[-42.612,-22.196],[-42.557,-22.164],[-42.578,-22.14],[-42.611,-22.14],[-42.603,-22.084],[-42.574,-22.064],[-42.548,-22.0],[-42.691,-21.969],[-42.697,-22.001],[-42.734,-22.049],[-42.734,-22.094],[-42.756,-22.118],[-42.745,-22.128],[-42.752,-22.186],[-42.734,-22.211],[-42.744,-22.234],[-42.714,-22.266]]]}},{"type":"Feature","properties":{"code":"3305752"},"geometry":{"type":"Polygon","coordinates":[[[-42.645,-22.855],[-42.683,-22.795],[-42.675,-22.774],[-42.709,-22.723],[-42.747,-22.686],[-42.768,-22.738],[-42.796,-22.737],[-42.783,-22.775],[-42.758,-22.797],[-42.734,-22.841],[-42.716,-22.854],[-42.66,-22.859],[-42.645,-22.855]]]}},{"type":"Feature","properties":{"code":"3305604"},"geometry":{"type":"Polygon","coordinates":[[[-42.442,-22.73],[-42.42,-22.736],[-42.332,-22.704],[-42.315,-22.648],[-42.275,-22.606],[-42.247,-22.613],[-42.199,-22.576],[-42.187,-22.555],[-42.212,-22.539],[-42.25,-22.546],[-42.271,-22.486],[-42.304,-22.458],[-42.278,-22.402],[-42.315,-22.425],[-42.355,-22.429],[-42.387,-22.422],[-42.481,-22.442],[-42.512,-22.435],[-42.551,-22.456],[-42.563,-22.467],[-42.593,-22.534],[-42.603,-22.541],[-42.565,-22.62],[-42.528,-22.632],[-42.53,-22.718],[-42.442,-22.73]]]}},{"type":"Feature","properties":{"code":"3305554"},"geometry":{"type":"Polygon","coordinates":[[[-43.673,-22.864],[-43.623,-22.827],[-43.635,-22.783],[-43.645,-22.737],[-43.639,-22.72],[-43.671,-22.653],[-43.704,-22.645],[-43.738,-22.674],[-43.753,-22.7],[-43.783,-22.802],[-43.673,-22.864]]]}},{"type":"Feature","properties":{"code":"3306008"},"geometry":{"type":"Polygon","coordinates":[[[-43.048,-22.209],[-43.021,-22.162],[-42.955,-22.139],[-42.97,-22.088],[-43.016,-22.086],[-43.002,-22.033],[-43.039,-22.045],[-43.033,-22.066],[-43.075,-22.093],[-43.106,-22.083],[-43.142,-22.104],[-43.153,-22.074],[-43.131,-22.035],[-43.215,-22.071],[-43.259,-22.103],[-43.243,-22.132],[-43.201,-22.177],[-43.198,-22.201],[-43.16,-22.193],[-43.106,-22.199],[-43.055,-22.165],[-43.048,-22.209]]]}},{"type":"Feature","properties":{"code":"3305802"},"geometry":{"type":"Polygon","coordinates":[[[-43.029,-22.461],[-42.976,-22.471],[-42.918,-22.451],[-42.885,-22.453],[-42.851,-22.416],[-42.81,-22.405],[-42.794,-22.375],[-42.767,-22.384],[-42.728,-22.356],[-42.714,-22.266],[-42.744,-22.234],[-42.734,-22.211],[-42.752,-22.186],[-42.745,-22.128],[-42.777,-22.131],[-42.815,-22.163],[-42.868,-22.191],[-42.892,-22.19],[-42.907,-22.225],[-42.942,-22.234],[-42.981,-22.265],[-43.036,-22.308],[-43.023,-22.356],[-43.033,-22.433],[-43.029,-22.461]]]}},{"type":"Feature","properties":{"code":"3305901"},"geometry":{"type":"Polygon","coordinates":[[[-42.294,-22.114],[-42.298,-22.151],[-42.286,-22.201],[-42.239,-22.234],[-42.288,-22.292],[-42.251,-22.306],[-42.249,-22.295],[-42.193,-22.244],[-42.148,-22.211],[-42.092,-22.202],[-42.077,-22.164],[-42.025,-22.157],[-41.974,-22.134],[-41.958,-22.116],[-41.962,-22.078],[-41.988,-22.058],[-42.053,-22.059],[-42.104,-22.05],[-42.099,-22.03],[-42.136,-22.025],[-42.174,-22.004],[-42.219,-22.01],[-42.26,-22.045],[-42.269,-22.089],[-42.294,-22.114]]]}},{"type":"Feature","properties":{"code":"3305208"},"geometry":{"type":"Polygon","coordinates":[[[-42.122,-22.908],[-42.088,-22.865],[-42.041,-22.866],[-42.025,-22.796],[-42.132,-22.653],[-42.167,-22.68],[-42.218,-22.77],[-42.254,-22.792],[-42.209,-22.785],[-42.177,-22.828],[-42.212,-22.878],[-42.172,-22.874],[-42.122,-22.908]]]}},{"type":"Feature","properties":{"code":"3305158"},"geometry":{"type":"Polygon","coordinates":[[[-42.981,-22.265],[-42.942,-22.234],[-42.907,-22.225],[-42.892,-22.19],[-42.868,-22.191],[-42.815,-22.163],[-42.777,-22.131],[-42.745,-22.128],[-42.756,-22.118],[-42.794,-22.122],[-42.852,-22.162],[-42.874,-22.155],[-42.864,-22.127],[-42.896,-22.11],[-42.97,-22.088],[-42.955,-22.139],[-43.021,-22.162],[-43.048,-22.209],[-43.029,-22.203],[-42.998,-22.226],[-42.981,-22.265]]]}},{"type":"Feature","properties":{"code":"3305133"},"geometry":{"type":"Polygon","coordinates":[[[-42.058,-21.434],[-42.009,-21.428],[-41.993,-21.458],[-41.998,-21.489],[-41.974,-21.475],[-41.95,-21.432],[-41.904,-21.401],[-41.895,-21.382],[-41.855,-21.345],[-41.816,-21.328],[-41.839,-21.288],[-41.859,-21.303],[-41.918,-21.295],[-41.931,-21.311],[-41.985,-21.313],[-42.035,-21.343],[-42.028,-21.378],[-42.058,-21.434]]]}},{"type":"Feature","properties":{"code":"3305109"},"geometry":{"type":"Polygon","coordinates":[[[-43.391,-22.814],[-43.331,-22.803],[-43.329,-22.756],[-43.385,-22.767],[-43.397,-22.778],[-43.411,-22.792],[-43.391,-22.814]]]}},{"type":"Feature","properties":{"code":"3305505"},"geometry":{"type":"Polygon","coordinates":[[[-42.382,-22.936],[-42.387,-22.895],[-42.37,-22.835],[-42.447,-22.823],[-42.499,-22.831],[-42.569,-22.804],[-42.63,-22.834],[-42.645,-22.855],[-42.66,-22.859],[-42.679,-22.896],[-42.634,-22.92],[-42.641,-22.938],[-42.579,-22.933],[-42.382,-22.936]]]}},{"type":"Feature","properties":{"code":"3305307"},"geometry":{"type":"Polygon","coordinates":[[[-42.136,-22.025],[-42.115,-21.985],[-42.097,-21.975],[-42.094,-21.943],[-42.035,-21.887],[-41.995,-21.825],[-41.971,-21.803],[-41.937,-21.741],[-41.985,-21.733],[-42.021,-21.753],[-42.066,-21.801],[-42.088,-21.802],[-42.121,-21.835],[-42.167,-21.859],[-42.21,-21.887],[-42.243,-21.973],[-42.219,-22.01],[-42.174,-22.004],[-42.136,-22.025]]]}},{"type":"Feature","properties":{"code":"3305406"},"geometry":{"type":"Polygon","coordinates":[[[-42.97,-22.088],[-42.896,-22.11],[-42.864,-22.127],[-42.874,-22.155],[-42.852,-22.162],[-42.794,-22.122],[-42.756,-22.118],[-42.734,-22.094],[-42.734,-22.049],[-42.697,-22.001],[-42.691,-21.969],[-42.663,-21.916],[-42.665,-21.873],[-42.788,-21.93],[-42.881,-21.959],[-42.91,-21.991],[-43.002,-22.033],[-43.016,-22.086],[-42.97,-22.088]]]}},{"type":"Feature","properties":{"code":"3304706"},"geometry":{"type":"Polygon","coordinates":[[[-42.237,-21.697],[-42.184,-21.681],[-42.203,-21.643],[-42.12,-21.602],[-42.105,-21.602],[-42.053,-21.546],[-42.055,-21.526],[-41.998,-21.489],[-41.993,-21.458],[-42.009,-21.428],[-42.058,-21.434],[-42.1,-21.451],[-42.124,-21.474],[-42.202,-21.469],[-42.275,-21.427],[-42.292,-21.459],[-42.257,-21.482],[-42.286,-21.528],[-42.346,-21.583],[-42.353,-21.592],[-42.369,-21.618],[-42.365,-21.646],[-42.34,-21.66],[-42.302,-21.655],[-42.273,-21.678],[-42.267,-21.715],[-42.237,-21.697]]]}},{"type":"Feature","properties":{"code":"3304755"},"geometry":{"type":"Polygon","coordinates":[[[-41.048,-21.618],[-41.046,-21.607],[-41.073,-21.526],[-41.057,-21.479],[-41.021,-21.442],[-41.001,-21.404],[-40.961,-21.36],[-40.961,-21.301],[-40.995,-21.286],[-41.005,-21.253],[-41.04,-21.255],[-41.09,-21.22],[-41.137,-21.227],[-41.19,-21.249],[-41.241,-21.22],[-41.276,-21.24],[-41.31,-21.309],[-41.264,-21.333],[-41.264,-21.364],[-41.242,-21.367],[-41.267,-21.408],[-41.258,-21.422],[-41.256,-21.474],[-41.244,-21.501],[-41.255,-21.556],[-41.181,-21.592],[-41.197,-21.683],[-41.134,-21.678],[-41.098,-21.671],[-41.095,-21.651],[-41.048,-21.618]]]}},{"type":"Feature","properties":{"code":"3304557"},"geometry":{"type":"MultiPolygon","coordinates":[[[[-43.668,-23.053],[-43.612,-23.05],[-43.614,-23.031],[-43.667,-23.043],[-43.668,-23.053]]],[[[-43.155,-22.794],[-43.155,-22.794],[-43.155,-22.794],[-43.155,-22.794]]],[[[-43.796,-22.917],[-43.745,-22.947],[-43.691,-22.989],[-43.628,-23.007],[-43.549,-23.061],[-43.493,-23.035],[-43.42,-23.018],[-43.336,-23.011],[-43.303,-23.016],[-43.246,-23.001],[-43.185,-22.974],[-43.15,-22.951],[-43.181,-22.895],[-43.211,-22.898],[-43.245,-22.841],[-43.273,-22.81],[-43.331,-22.803],[-43.391,-22.814],[-43.431,-22.839],[-43.469,-22.84],[-43.49,-22.816],[-43.589,-22.839],[-43.596,-22.858],[-43.644,-22.856],[-43.673,-22.864],[-43.697,-22.865],[-43.766,-22.895],[-43.796,-22.917]]],[[[-43.185,-22.834],[-43.173,-22.825],[-43.187,-22.785],[-43.221,-22.785],[-43.266,-22.811],[-43.239,-22.834],[-43.217,-22.817],[-43.185,-22.834]]]]}},{"type":"Feature","properties":{"code":"3304524"},"geometry":{"type":"Polygon","coordinates":[[[-42.063,-22.423],[-42.019,-22.43],[-42.019,-22.48],[-41.991,-22.502],[-41.979,-22.562],[-41.962,-22.535],[-41.932,-22.538],[-41.897,-22.492],[-41.864,-22.477],[-41.855,-22.45],[-41.818,-22.417],[-41.828,-22.408],[-41.879,-22.418],[-41.907,-22.4],[-41.964,-22.388],[-41.996,-22.4],[-42.024,-22.388],[-42.063,-22.423]]]}},{"type":"Feature","properties":{"code":"3304607"},"geometry":{"type":"Polygon","coordinates":[[[-41.751,-22.086],[-41.767,-22.03],[-41.717,-21.982],[-41.721,-21.945],[-41.71,-21.895],[-41.776,-21.89],[-41.797,-21.879],[-41.849,-21.887],[-41.884,-21.872],[-41.937,-21.872],[-41.965,-21.828],[-41.971,-21.803],[-41.995,-21.825],[-42.035,-21.887],[-42.094,-21.943],[-42.097,-21.975],[-42.115,-21.985],[-42.136,-22.025],[-42.099,-22.03],[-42.104,-22.05],[-42.053,-22.059],[-41.988,-22.058],[-41.962,-22.078],[-41.936,-22.057],[-41.909,-22.068],[-41.888,-22.049],[-41.837,-22.072],[-41.822,-22.099],[-41.784,-22.099],[-41.751,-22.086]]]}},{"type":"Feature","properties":{"code":"3304904"},"geometry":{"type":"Polygon","coordinates":[[[-43.103,-22.856],[-42.957,-22.901],[-42.886,-22.868],[-42.906,-22.817],[-42.943,-22.795],[-42.941,-22.776],[-42.988,-22.75],[-43.027,-22.743],[-43.064,-22.765],[-43.065,-22.803],[-43.103,-22.856]]]}},{"type":"Feature","properties":{"code":"3305000"},"geometry":{"type":"Polygon","coordinates":[[[-41.134,-21.678],[-41.183,-21.724],[-41.177,-21.776],[-41.149,-21.82],[-41.153,-21.884],[-41.128,-21.912],[-40.982,-21.911],[-41.018,-21.761],[-41.025,-21.719],[-41.013,-21.623],[-41.048,-21.618],[-41.095,-21.651],[-41.098,-21.671],[-41.134,-21.678]]]}},{"type":"Feature","properties":{"code":"3304805"},"geometry":{"type":"Polygon","coordinates":[[[-41.884,-21.872],[-41.888,-21.862],[-41.797,-21.796],[-41.79,-21.782],[-41.75,-21.79],[-41.737,-21.767],[-41.705,-21.749],[-41.696,-21.714],[-41.655,-21.694],[-41.636,-21.669],[-41.592,-21.663],[-41.538,-21.622],[-41.541,-21.561],[-41.627,-21.596],[-41.679,-21.516],[-41.743,-21.464],[-41.816,-21.491],[-41.844,-21.531],[-41.896,-21.575],[-41.937,-21.597],[-41.937,-21.741],[-41.971,-21.803],[-41.965,-21.828],[-41.937,-21.872],[-41.884,-21.872]]]}},{"type":"Feature","properties":{"code":"3304151"},"geometry":{"type":"Polygon","coordinates":[[[-41.542,-22.235],[-41.451,-22.202],[-41.265,-22.154],[-41.216,-22.137],[-41.134,-22.096],[-41.257,-22.099],[-41.278,-22.065],[-41.438,-21.987],[-41.513,-22.015],[-41.551,-22.055],[-41.618,-22.046],[-41.66,-22.056],[-41.716,-22.088],[-41.694,-22.108],[-41.574,-22.138],[-41.554,-22.159],[-41.54,-22.198],[-41.542,-22.235]]]}},{"type":"Feature","properties":{"code":"3304144"},"geometry":{"type":"Polygon","coordinates":[[[-43.639,-22.72],[-43.645,-22.737],[-43.635,-22.783],[-43.614,-22.749],[-43.56,-22.758],[-43.535,-22.751],[-43.542,-22.715],[-43.521,-22.694],[-43.555,-22.68],[-43.61,-22.693],[-43.639,-22.72]]]}},{"type":"Feature","properties":{"code":"3304201"},"geometry":{"type":"Polygon","coordinates":[[[-44.646,-22.604],[-44.597,-22.61],[-44.584,-22.624],[-44.546,-22.607],[-44.511,-22.64],[-44.48,-22.611],[-44.464,-22.616],[-44.406,-22.599],[-44.382,-22.573],[-44.36,-22.581],[-44.361,-22.613],[-44.342,-22.589],[-44.321,-22.55],[-44.332,-22.494],[-44.35,-22.492],[-44.373,-22.461],[-44.314,-22.402],[-44.34,-22.382],[-44.341,-22.361],[-44.321,-22.336],[-44.273,-22.32],[-44.257,-22.292],[-44.26,-22.268],[-44.263,-22.244],[-44.291,-22.243],[-44.317,-22.259],[-44.36,-22.254],[-44.395,-22.259],[-44.433,-22.251],[-44.497,-22.304],[-44.544,-22.332],[-44.549,-22.358],[-44.589,-22.362],[-44.597,-22.398],[-44.487,-22.436],[-44.48,-22.458],[-44.577,-22.517],[-44.586,-22.561],[-44.616,-22.556],[-44.621,-22.509],[-44.657,-22.482],[-44.637,-22.433],[-44.662,-22.381],[-44.666,-22.373],[-44.73,-22.361],[-44.803,-22.394],[-44.809,-22.404],[-44.809,-22.406],[-44.755,-22.415],[-44.719,-22.463],[-44.724,-22.476],[-44.688,-22.521],[-44.668,-22.554],[-44.644,-22.556],[-44.646,-22.604]]]}},{"type":"Feature","properties":{"code":"3304128"},"geometry":{"type":"Polygon","coordinates":[[[-44.301,-22.449],[-44.253,-22.485],[-44.223,-22.478],[-44.208,-22.387],[-44.156,-22.373],[-44.148,-22.331],[-44.145,-22.299],[-44.156,-22.257],[-44.189,-22.24],[-44.237,-22.266],[-44.26,-22.268],[-44.257,-22.292],[-44.273,-22.32],[-44.321,-22.336],[-44.341,-22.361],[-44.34,-22.382],[-44.314,-22.402],[-44.276,-22.404],[-44.301,-22.449]]]}},{"type":"Feature","properties":{"code":"3304110"},"geometry":{"type":"Polygon","coordinates":[[[-44.314,-22.402],[-44.373,-22.461],[-44.35,-22.492],[-44.332,-22.494],[-44.301,-22.449],[-44.276,-22.404],[-44.314,-22.402]]]}},{"type":"Feature","properties":{"code":"3304102"},"geometry":{"type":"Polygon","coordinates":[[[-42.085,-21.023],[-42.07,-21.027],[-42.002,-21.011],[-41.999,-20.966],[-41.955,-20.957],[-41.912,-20.929],[-41.9,-20.856],[-41.87,-20.861],[-41.83,-20.845],[-41.775,-20.8],[-41.817,-20.801],[-41.845,-20.777],[-41.875,-20.766],[-41.905,-20.797],[-41.928,-20.794],[-41.93,-20.844],[-41.96,-20.883],[-41.979,-20.935],[-42.038,-20.927],[-42.138,-20.96],[-42.151,-20.974],[-42.141,-20.993],[-42.085,-21.023]]]}},{"type":"Feature","properties":{"code":"3304409"},"geometry":{"type":"Polygon","coordinates":[[[-44.193,-22.929],[-44.112,-22.865],[-44.089,-22.884],[-44.045,-22.883],[-43.99,-22.844],[-43.965,-22.886],[-43.939,-22.881],[-43.874,-22.809],[-43.891,-22.791],[-43.9,-22.752],[-43.879,-22.714],[-43.936,-22.711],[-43.957,-22.682],[-43.987,-22.669],[-44.017,-22.64],[-44.086,-22.641],[-44.147,-22.653],[-44.166,-22.673],[-44.174,-22.702],[-44.227,-22.734],[-44.258,-22.767],[-44.24,-22.791],[-44.268,-22.829],[-44.296,-22.828],[-44.318,-22.845],[-44.261,-22.848],[-44.238,-22.872],[-44.242,-22.913],[-44.215,-22.932],[-44.193,-22.929]]]}},{"type":"Feature","properties":{"code":"3304508"},"geometry":{"type":"Polygon","coordinates":[[[-43.589,-22.288],[-43.561,-22.265],[-43.525,-22.276],[-43.515,-22.236],[-43.485,-22.25],[-43.458,-22.216],[-43.426,-22.236],[-43.4,-22.216],[-43.437,-22.06],[-43.465,-22.073],[-43.526,-22.073],[-43.566,-22.087],[-43.591,-22.056],[-43.621,-22.083],[-43.646,-22.065],[-43.668,-22.086],[-43.659,-22.105],[-43.666,-22.172],[-43.658,-22.197],[-43.609,-22.225],[-43.608,-22.259],[-43.589,-22.288]]]}},{"type":"Feature","properties":{"code":"3304300"},"geometry":{"type":"Polygon","coordinates":[[[-42.747,-22.686],[-42.709,-22.723],[-42.675,-22.774],[-42.683,-22.795],[-42.645,-22.855],[-42.63,-22.834],[-42.569,-22.804],[-42.499,-22.831],[-42.447,-22.823],[-42.442,-22.73],[-42.53,-22.718],[-42.528,-22.632],[-42.565,-22.62],[-42.627,-22.657],[-42.668,-22.637],[-42.694,-22.643],[-42.709,-22.67],[-42.747,-22.686]]]}},{"type":"Feature","properties":{"code":"3303708"},"geometry":{"type":"Polygon","coordinates":[[[-43.289,-22.371],[-43.248,-22.311],[-43.182,-22.301],[-43.16,-22.193],[-43.198,-22.201],[-43.201,-22.177],[-43.243,-22.132],[-43.259,-22.103],[-43.273,-22.076],[-43.346,-22.056],[-43.347,-22.004],[-43.437,-22.06],[-43.4,-22.216],[-43.325,-22.279],[-43.289,-22.371]]]}},{"type":"Feature","properties":{"code":"3303500"},"geometry":{"type":"Polygon","coordinates":[[[-43.673,-22.864],[-43.644,-22.856],[-43.596,-22.858],[-43.589,-22.839],[-43.49,-22.816],[-43.492,-22.802],[-43.432,-22.766],[-43.411,-22.768],[-43.434,-22.724],[-43.425,-22.704],[-43.365,-22.685],[-43.401,-22.652],[-43.382,-22.63],[-43.417,-22.596],[-43.387,-22.575],[-43.401,-22.533],[-43.446,-22.526],[-43.498,-22.554],[-43.51,-22.572],[-43.541,-22.566],[-43.586,-22.583],[-43.629,-22.626],[-43.623,-22.642],[-43.593,-22.62],[-43.568,-22.624],[-43.543,-22.668],[-43.555,-22.68],[-43.521,-22.694],[-43.542,-22.715],[-43.535,-22.751],[-43.56,-22.758],[-43.614,-22.749],[-43.635,-22.783],[-43.623,-22.827],[-43.673,-22.864]]]}},{"type":"Feature","properties":{"code":"3303609"},"geometry":{"type":"Polygon","coordinates":[[[-43.753,-22.7],[-43.738,-22.674],[-43.704,-22.645],[-43.671,-22.653],[-43.661,-22.62],[-43.597,-22.568],[-43.624,-22.539],[-43.665,-22.549],[-43.675,-22.567],[-43.712,-22.549],[-43.772,-22.606],[-43.841,-22.649],[-43.82,-22.68],[-43.785,-22.693],[-43.753,-22.7]]]}},{"type":"Feature","properties":{"code":"3303906"},"geometry":{"type":"Polygon","coordinates":[[[-43.225,-22.564],[-43.183,-22.553],[-43.079,-22.513],[-43.062,-22.485],[-43.029,-22.461],[-43.033,-22.433],[-43.023,-22.356],[-43.036,-22.308],[-42.981,-22.265],[-42.998,-22.226],[-43.029,-22.203],[-43.048,-22.209],[-43.094,-22.242],[-43.106,-22.282],[-43.127,-22.276],[-43.145,-22.304],[-43.182,-22.301],[-43.248,-22.311],[-43.289,-22.371],[-43.318,-22.384],[-43.338,-22.415],[-43.361,-22.42],[-43.37,-22.452],[-43.32,-22.459],[-43.296,-22.476],[-43.239,-22.512],[-43.261,-22.555],[-43.225,-22.564]]]}},{"type":"Feature","properties":{"code":"3304003"},"geometry":{"type":"Polygon","coordinates":[[[-44.086,-22.641],[-44.017,-22.64],[-43.987,-22.669],[-43.957,-22.682],[-43.936,-22.711],[-43.879,-22.714],[-43.9,-22.752],[-43.891,-22.791],[-43.874,-22.809],[-43.833,-22.794],[-43.833,-22.73],[-43.785,-22.693],[-43.82,-22.68],[-43.841,-22.649],[-43.772,-22.606],[-43.776,-22.567],[-43.798,-22.552],[-43.819,-22.546],[-43.811,-22.513],[-43.869,-22.529],[-43.913,-22.521],[-43.955,-22.569],[-44.015,-22.586],[-44.069,-22.592],[-44.086,-22.641]]]}},{"type":"Feature","properties":{"code":"3303955"},"geometry":{"type":"Polygon","coordinates":[[[-44.069,-22.592],[-44.015,-22.586],[-43.955,-22.569],[-43.913,-22.521],[-44.002,-22.511],[-44.031,-22.497],[-44.038,-22.549],[-44.054,-22.55],[-44.069,-22.592]]]}},{"type":"Feature","properties":{"code":"3303807"},"geometry":{"type":"Polygon","coordinates":[[[-44.724,-23.368],[-44.701,-23.34],[-44.671,-23.346],[-44.639,-23.331],[-44.591,-23.362],[-44.527,-23.273],[-44.58,-23.271],[-44.587,-23.232],[-44.619,-23.242],[-44.651,-23.235],[-44.657,-23.205],[-44.695,-23.233],[-44.721,-23.202],[-44.698,-23.174],[-44.699,-23.121],[-44.684,-23.072],[-44.645,-23.047],[-44.593,-23.047],[-44.521,-23.027],[-44.547,-23.016],[-44.544,-22.981],[-44.564,-22.955],[-44.622,-22.938],[-44.639,-22.914],[-44.743,-22.947],[-44.765,-22.983],[-44.792,-22.982],[-44.802,-23.049],[-44.819,-23.091],[-44.811,-23.115],[-44.824,-23.163],[-44.875,-23.185],[-44.883,-23.203],[-44.889,-23.227],[-44.828,-23.271],[-44.825,-23.292],[-44.787,-23.299],[-44.778,-23.338],[-44.724,-23.368]]]}},{"type":"Feature","properties":{"code":"3303856"},"geometry":{"type":"Polygon","coordinates":[[[-43.492,-22.42],[-43.443,-22.443],[-43.437,-22.475],[-43.37,-22.452],[-43.361,-22.42],[-43.338,-22.415],[-43.318,-22.384],[-43.289,-22.371],[-43.325,-22.279],[-43.504,-22.311],[-43.507,-22.332],[-43.488,-22.373],[-43.508,-22.402],[-43.492,-22.42]]]}},{"type":"Feature","properties":{"code":"3303203"},"geometry":{"type":"Polygon","coordinates":[[[-43.469,-22.84],[-43.431,-22.839],[-43.391,-22.814],[-43.411,-22.792],[-43.469,-22.84]]]}},{"type":"Feature","properties":{"code":"3303005"},"geometry":{"type":"Polygon","coordinates":[[[-42.058,-21.434],[-42.028,-21.378],[-42.035,-21.343],[-42.073,-21.356],[-42.093,-21.345],[-42.143,-21.306],[-42.159,-21.317],[-42.197,-21.315],[-42.224,-21.338],[-42.236,-21.343],[-42.23,-21.366],[-42.278,-21.414],[-42.275,-21.427],[-42.202,-21.469],[-42.124,-21.474],[-42.1,-21.451],[-42.058,-21.434]]]}},{"type":"Feature","properties":{"code":"3303104"},"geometry":{"type":"Polygon","coordinates":[[[-42.08,-21.03],[-42.054,-21.039],[-42.019,-21.083],[-42.036,-21.113],[-41.975,-21.13],[-41.943,-21.152],[-41.9,-21.136],[-41.87,-21.101],[-41.839,-21.082],[-41.85,-21.062],[-41.807,-21.009],[-41.801,-20.987],[-41.822,-20.953],[-41.858,-20.955],[-41.892,-20.974],[-41.918,-20.946],[-41.912,-20.929],[-41.955,-20.957],[-41.999,-20.966],[-42.002,-21.011],[-42.07,-21.027],[-42.085,-21.023],[-42.08,-21.03]]]}},{"type":"Feature","properties":{"code":"3303401"},"geometry":{"type":"Polygon","coordinates":[[[-42.728,-22.356],[-42.684,-22.393],[-42.635,-22.393],[-42.585,-22.355],[-42.552,-22.378],[-42.557,-22.423],[-42.551,-22.456],[-42.512,-22.435],[-42.481,-22.442],[-42.387,-22.422],[-42.355,-22.429],[-42.315,-22.425],[-42.278,-22.402],[-42.24,-22.361],[-42.205,-22.369],[-42.216,-22.341],[-42.251,-22.306],[-42.288,-22.292],[-42.359,-22.302],[-42.474,-22.224],[-42.472,-22.211],[-42.522,-22.16],[-42.557,-22.164],[-42.612,-22.196],[-42.669,-22.22],[-42.676,-22.24],[-42.714,-22.266],[-42.728,-22.356]]]}},{"type":"Feature","properties":{"code":"3303302"},"geometry":{"type":"Polygon","coordinates":[[[-43.103,-22.856],[-43.134,-22.881],[-43.095,-22.921],[-43.11,-22.954],[-43.072,-22.957],[-43.014,-22.977],[-42.957,-22.901],[-43.103,-22.856]]]}},{"type":"Feature","properties":{"code":"3302601"},"geometry":{"type":"MultiPolygon","coordinates":[[[[-43.793,-23.061],[-43.881,-23.042],[-43.9,-23.069],[-43.973,-23.045],[-44.011,-23.078],[-43.988,-23.102],[-43.954,-23.087],[-43.793,-23.064],[-43.793,-23.061]]],[[[-44.166,-23.034],[-44.113,-23.023],[-44.085,-22.992],[-44.074,-22.952],[-44.047,-22.942],[-44.031,-22.964],[-44.006,-22.942],[-43.95,-22.927],[-43.91,-22.931],[-43.881,-22.916],[-43.886,-22.886],[-43.939,-22.881],[-43.965,-22.886],[-43.99,-22.844],[-44.045,-22.883],[-44.089,-22.884],[-44.112,-22.865],[-44.193,-22.929],[-44.163,-23.008],[-44.166,-23.034]]]]}},{"type":"Feature","properties":{"code":"3302700"},"geometry":{"type":"Polygon","coordinates":[[[-43.014,-22.977],[-43.002,-22.97],[-42.921,-22.975],[-42.881,-22.967],[-42.727,-22.956],[-42.641,-22.938],[-42.634,-22.92],[-42.679,-22.896],[-42.66,-22.859],[-42.716,-22.854],[-42.734,-22.841],[-42.767,-22.843],[-42.861,-22.877],[-42.886,-22.868],[-42.957,-22.901],[-43.014,-22.977]]]}},{"type":"Feature","properties":{"code":"3302502"},"geometry":{"type":"Polygon","coordinates":[[[-43.215,-22.728],[-43.161,-22.71],[-43.135,-22.715],[-43.081,-22.68],[-43.039,-22.693],[-43.01,-22.636],[-43.015,-22.56],[-43.016,-22.552],[-43.035,-22.493],[-43.062,-22.485],[-43.079,-22.513],[-43.183,-22.553],[-43.225,-22.564],[-43.194,-22.623],[-43.218,-22.653],[-43.215,-22.728]]]}},{"type":"Feature","properties":{"code":"3302908"},"geometry":{"type":"Polygon","coordinates":[[[-43.661,-22.62],[-43.623,-22.642],[-43.629,-22.626],[-43.586,-22.583],[-43.541,-22.566],[-43.51,-22.572],[-43.498,-22.554],[-43.446,-22.526],[-43.401,-22.533],[-43.331,-22.518],[-43.296,-22.476],[-43.32,-22.459],[-43.37,-22.452],[-43.437,-22.475],[-43.443,-22.443],[-43.492,-22.42],[-43.518,-22.447],[-43.54,-22.451],[-43.562,-22.5],[-43.597,-22.568],[-43.661,-22.62]]]}},{"type":"Feature","properties":{"code":"3302858"},"geometry":{"type":"Polygon","coordinates":[[[-43.469,-22.84],[-43.411,-22.792],[-43.397,-22.778],[-43.411,-22.768],[-43.432,-22.766],[-43.492,-22.802],[-43.49,-22.816],[-43.469,-22.84]]]}},{"type":"Feature","properties":{"code":"3302809"},"geometry":{"type":"Polygon","coordinates":[[[-43.712,-22.549],[-43.7,-22.537],[-43.688,-22.463],[-43.715,-22.455],[-43.734,-22.482],[-43.755,-22.46],[-43.77,-22.518],[-43.798,-22.552],[-43.776,-22.567],[-43.772,-22.606],[-43.712,-22.549]]]}},{"type":"Feature","properties":{"code":"3302106"},"geometry":{"type":"Polygon","coordinates":[[[-42.167,-21.859],[-42.121,-21.835],[-42.088,-21.802],[-42.066,-21.801],[-42.021,-21.753],[-41.985,-21.733],[-41.937,-21.741],[-41.937,-21.597],[-42.01,-21.64],[-42.057,-21.637],[-42.075,-21.658],[-42.138,-21.705],[-42.184,-21.681],[-42.237,-21.697],[-42.207,-21.784],[-42.167,-21.859]]]}},{"type":"Feature","properties":{"code":"3302205"},"geometry":{"type":"Polygon","coordinates":[[[-41.781,-21.401],[-41.681,-21.349],[-41.629,-21.356],[-41.585,-21.317],[-41.642,-21.245],[-41.686,-21.249],[-41.73,-21.168],[-41.802,-21.144],[-41.799,-21.124],[-41.839,-21.082],[-41.87,-21.101],[-41.9,-21.136],[-41.943,-21.152],[-41.975,-21.13],[-42.036,-21.113],[-42.019,-21.083],[-42.054,-21.039],[-42.08,-21.03],[-42.118,-21.075],[-42.14,-21.103],[-42.164,-21.101],[-42.175,-21.132],[-42.195,-21.16],[-42.172,-21.177],[-42.151,-21.161],[-42.12,-21.195],[-42.08,-21.177],[-42.047,-21.182],[-42.035,-21.238],[-42.076,-21.279],[-42.077,-21.325],[-42.093,-21.345],[-42.073,-21.356],[-42.035,-21.343],[-41.985,-21.313],[-41.931,-21.311],[-41.918,-21.295],[-41.859,-21.303],[-41.839,-21.288],[-41.816,-21.328],[-41.779,-21.39],[-41.781,-21.401]]]}},{"type":"Feature","properties":{"code":"3302007"},"geometry":{"type":"MultiPolygon","coordinates":[[[[-43.793,-23.061],[-43.793,-23.064],[-43.668,-23.053],[-43.667,-23.043],[-43.706,-23.053],[-43.793,-23.061]]],[[[-43.881,-22.916],[-43.832,-22.931],[-43.796,-22.917],[-43.766,-22.895],[-43.697,-22.865],[-43.673,-22.864],[-43.783,-22.802],[-43.753,-22.7],[-43.785,-22.693],[-43.833,-22.73],[-43.833,-22.794],[-43.874,-22.809],[-43.939,-22.881],[-43.886,-22.886],[-43.881,-22.916]]]]}},{"type":"Feature","properties":{"code":"3302056"},"geometry":{"type":"Polygon","coordinates":[[[-41.627,-21.596],[-41.657,-21.479],[-41.593,-21.469],[-41.551,-21.429],[-41.585,-21.317],[-41.629,-21.356],[-41.681,-21.349],[-41.781,-21.401],[-41.71,-21.456],[-41.743,-21.464],[-41.679,-21.516],[-41.627,-21.596]]]}},{"type":"Feature","properties":{"code":"3302403"},"geometry":{"type":"Polygon","coordinates":[[[-42.205,-22.369],[-42.219,-22.406],[-42.201,-22.43],[-42.163,-22.428],[-42.124,-22.405],[-42.063,-22.423],[-42.024,-22.388],[-41.996,-22.4],[-41.964,-22.388],[-41.907,-22.4],[-41.879,-22.418],[-41.828,-22.408],[-41.818,-22.417],[-41.774,-22.391],[-41.773,-22.364],[-41.689,-22.3],[-41.704,-22.252],[-41.771,-22.181],[-41.825,-22.146],[-41.819,-22.186],[-41.84,-22.199],[-41.86,-22.27],[-41.878,-22.275],[-41.917,-22.212],[-41.901,-22.191],[-41.919,-22.163],[-41.972,-22.15],[-41.974,-22.134],[-42.025,-22.157],[-42.077,-22.164],[-42.092,-22.202],[-42.148,-22.211],[-42.193,-22.244],[-42.249,-22.295],[-42.251,-22.306],[-42.216,-22.341],[-42.205,-22.369]]]}},{"type":"Feature","properties":{"code":"3302452"},"geometry":{"type":"Polygon","coordinates":[[[-42.318,-21.997],[-42.311,-22.057],[-42.298,-22.083],[-42.269,-22.089],[-42.26,-22.045],[-42.219,-22.01],[-42.243,-21.973],[-42.259,-21.988],[-42.295,-21.977],[-42.318,-21.997]]]}},{"type":"Feature","properties":{"code":"3302270"},"geometry":{"type":"Polygon","coordinates":[[[-43.639,-22.72],[-43.61,-22.693],[-43.555,-22.68],[-43.543,-22.668],[-43.568,-22.624],[-43.593,-22.62],[-43.623,-22.642],[-43.661,-22.62],[-43.671,-22.653],[-43.639,-22.72]]]}},{"type":"Feature","properties":{"code":"3302254"},"geometry":{"type":"Polygon","coordinates":[[[-44.662,-22.381],[-44.637,-22.433],[-44.657,-22.482],[-44.621,-22.509],[-44.616,-22.556],[-44.586,-22.561],[-44.577,-22.517],[-44.48,-22.458],[-44.487,-22.436],[-44.597,-22.398],[-44.589,-22.362],[-44.549,-22.358],[-44.544,-22.332],[-44.593,-22.323],[-44.628,-22.345],[-44.662,-22.381]]]}},{"type":"Feature","properties":{"code":"3302304"},"geometry":{"type":"Polygon","coordinates":[[[-42.224,-21.338],[-42.197,-21.315],[-42.159,-21.317],[-42.143,-21.306],[-42.093,-21.345],[-42.077,-21.325],[-42.076,-21.279],[-42.035,-21.238],[-42.047,-21.182],[-42.08,-21.177],[-42.12,-21.195],[-42.151,-21.161],[-42.172,-21.177],[-42.195,-21.16],[-42.208,-21.179],[-42.203,-21.221],[-42.19,-21.25],[-42.229,-21.282],[-42.238,-21.318],[-42.224,-21.338]]]}},{"type":"Feature","properties":{"code":"3301603"},"geometry":{"type":"Polygon","coordinates":[[[-42.348,-22.108],[-42.415,-22.038],[-42.509,-21.907],[-42.545,-21.929],[-42.557,-21.965],[-42.548,-22.0],[-42.574,-22.064],[-42.603,-22.084],[-42.611,-22.14],[-42.578,-22.14],[-42.557,-22.164],[-42.522,-22.16],[-42.465,-22.131],[-42.471,-22.113],[-42.397,-22.12],[-42.348,-22.108]]]}},{"type":"Feature","properties":{"code":"3301702"},"geometry":{"type":"Polygon","coordinates":[[[-43.273,-22.81],[-43.277,-22.78],[-43.258,-22.756],[-43.215,-22.728],[-43.218,-22.653],[-43.194,-22.623],[-43.225,-22.564],[-43.261,-22.555],[-43.239,-22.512],[-43.296,-22.476],[-43.331,-22.518],[-43.401,-22.533],[-43.387,-22.575],[-43.417,-22.596],[-43.382,-22.63],[-43.401,-22.652],[-43.365,-22.685],[-43.32,-22.709],[-43.329,-22.756],[-43.331,-22.803],[-43.273,-22.81]]]}},{"type":"Feature","properties":{"code":"3301504"},"geometry":{"type":"Polygon","coordinates":[[[-42.269,-22.089],[-42.298,-22.083],[-42.311,-22.057],[-42.318,-21.997],[-42.356,-22.009],[-42.384,-21.999],[-42.415,-22.038],[-42.348,-22.108],[-42.294,-22.114],[-42.269,-22.089]]]}},{"type":"Feature","properties":{"code":"3301876"},"geometry":{"type":"Polygon","coordinates":[[[-42.212,-22.878],[-42.177,-22.828],[-42.209,-22.785],[-42.254,-22.792],[-42.237,-22.863],[-42.212,-22.878]]]}},{"type":"Feature","properties":{"code":"3301850"},"geometry":{"type":"Polygon","coordinates":[[[-43.039,-22.693],[-43.026,-22.726],[-43.006,-22.715],[-42.975,-22.732],[-42.945,-22.71],[-42.907,-22.655],[-42.907,-22.601],[-42.866,-22.572],[-42.886,-22.548],[-42.923,-22.47],[-42.918,-22.451],[-42.976,-22.471],[-43.029,-22.461],[-43.062,-22.485],[-43.035,-22.493],[-43.016,-22.552],[-43.015,-22.56],[-43.01,-22.636],[-43.039,-22.693]]]}},{"type":"Feature","properties":{"code":"3301900"},"geometry":{"type":"Polygon","coordinates":[[[-42.734,-22.841],[-42.758,-22.797],[-42.783,-22.775],[-42.796,-22.737],[-42.768,-22.738],[-42.747,-22.686],[-42.79,-22.635],[-42.845,-22.636],[-42.907,-22.655],[-42.945,-22.71],[-42.975,-22.732],[-43.006,-22.715],[-43.026,-22.726],[-43.027,-22.743],[-42.988,-22.75],[-42.941,-22.776],[-42.943,-22.795],[-42.906,-22.817],[-42.886,-22.868],[-42.861,-22.877],[-42.767,-22.843],[-42.734,-22.841]]]}},{"type":"Feature","properties":{"code":"3301801"},"geometry":{"type":"Polygon","coordinates":[[[-43.712,-22.549],[-43.675,-22.567],[-43.665,-22.549],[-43.624,-22.539],[-43.597,-22.568],[-43.562,-22.5],[-43.583,-22.457],[-43.688,-22.463],[-43.7,-22.537],[-43.712,-22.549]]]}},{"type":"Feature","properties":{"code":"3301108"},"geometry":{"type":"Polygon","coordinates":[[[-42.415,-22.038],[-42.384,-21.999],[-42.356,-22.009],[-42.318,-21.997],[-42.295,-21.977],[-42.259,-21.988],[-42.243,-21.973],[-42.21,-21.887],[-42.167,-21.859],[-42.207,-21.784],[-42.237,-21.697],[-42.267,-21.715],[-42.334,-21.746],[-42.378,-21.748],[-42.396,-21.762],[-42.46,-21.785],[-42.467,-21.801],[-42.441,-21.827],[-42.458,-21.879],[-42.509,-21.907],[-42.415,-22.038]]]}},{"type":"Feature","properties":{"code":"3301157"},"geometry":{"type":"Polygon","coordinates":[[[-41.538,-21.622],[-41.49,-21.675],[-41.427,-21.616],[-41.36,-21.544],[-41.382,-21.49],[-41.412,-21.465],[-41.414,-21.437],[-41.45,-21.399],[-41.551,-21.429],[-41.593,-21.469],[-41.657,-21.479],[-41.627,-21.596],[-41.541,-21.561],[-41.538,-21.622]]]}},{"type":"Feature","properties":{"code":"3300951"},"geometry":{"type":"Polygon","coordinates":[[[-43.131,-22.029],[-43.17,-22.022],[-43.202,-22.038],[-43.228,-22.029],[-43.234,-22.014],[-43.281,-22.011],[-43.302,-22.021],[-43.327,-22.008],[-43.347,-22.004],[-43.346,-22.056],[-43.273,-22.076],[-43.259,-22.103],[-43.215,-22.071],[-43.131,-22.035],[-43.131,-22.029]]]}},{"type":"Feature","properties":{"code":"3300936"},"geometry":{"type":"Polygon","coordinates":[[[-41.771,-22.181],[-41.704,-22.252],[-41.689,-22.3],[-41.65,-22.279],[-41.542,-22.235],[-41.54,-22.198],[-41.554,-22.159],[-41.574,-22.138],[-41.694,-22.108],[-41.771,-22.181]]]}},{"type":"Feature","properties":{"code":"3301009"},"geometry":{"type":"Polygon","coordinates":[[[-41.66,-22.056],[-41.618,-22.046],[-41.551,-22.055],[-41.513,-22.015],[-41.438,-21.987],[-41.278,-22.065],[-41.257,-22.099],[-41.134,-22.096],[-41.077,-22.058],[-41.004,-22.021],[-40.98,-21.991],[-40.975,-21.948],[-40.982,-21.911],[-41.128,-21.912],[-41.153,-21.884],[-41.149,-21.82],[-41.177,-21.776],[-41.183,-21.724],[-41.134,-21.678],[-41.197,-21.683],[-41.181,-21.592],[-41.255,-21.556],[-41.244,-21.501],[-41.256,-21.474],[-41.258,-21.422],[-41.267,-21.408],[-41.242,-21.367],[-41.264,-21.364],[-41.264,-21.333],[-41.31,-21.309],[-41.276,-21.24],[-41.316,-21.213],[-41.389,-21.199],[-41.435,-21.216],[-41.47,-21.203],[-41.47,-21.231],[-41.496,-21.245],[-41.585,-21.317],[-41.551,-21.429],[-41.45,-21.399],[-41.414,-21.437],[-41.412,-21.465],[-41.382,-21.49],[-41.36,-21.544],[-41.427,-21.616],[-41.49,-21.675],[-41.538,-21.622],[-41.592,-21.663],[-41.636,-21.669],[-41.655,-21.694],[-41.696,-21.714],[-41.705,-21.749],[-41.737,-21.767],[-41.75,-21.79],[-41.79,-21.782],[-41.797,-21.796],[-41.888,-21.862],[-41.884,-21.872],[-41.849,-21.887],[-41.797,-21.879],[-41.776,-21.89],[-41.71,-21.895],[-41.721,-21.945],[-41.717,-21.982],[-41.767,-22.03],[-41.751,-22.086],[-41.702,-22.051],[-41.66,-22.056]]]}},{"type":"Feature","properties":{"code":"3301405"},"geometry":{"type":"Polygon","coordinates":[[[-41.974,-22.134],[-41.972,-22.15],[-41.919,-22.163],[-41.901,-22.191],[-41.917,-22.212],[-41.878,-22.275],[-41.86,-22.27],[-41.84,-22.199],[-41.819,-22.186],[-41.825,-22.146],[-41.771,-22.181],[-41.694,-22.108],[-41.716,-22.088],[-41.66,-22.056],[-41.702,-22.051],[-41.751,-22.086],[-41.784,-22.099],[-41.822,-22.099],[-41.837,-22.072],[-41.888,-22.049],[-41.909,-22.068],[-41.936,-22.057],[-41.962,-22.078],[-41.958,-22.116],[-41.974,-22.134]]]}},{"type":"Feature","properties":{"code":"3301207"},"geometry":{"type":"Polygon","coordinates":[[[-42.548,-22.0],[-42.557,-21.965],[-42.545,-21.929],[-42.509,-21.907],[-42.458,-21.879],[-42.441,-21.827],[-42.467,-21.801],[-42.46,-21.785],[-42.463,-21.786],[-42.606,-21.846],[-42.665,-21.873],[-42.663,-21.916],[-42.691,-21.969],[-42.548,-22.0]]]}},{"type":"Feature","properties":{"code":"3301306"},"geometry":{"type":"Polygon","coordinates":[[[-41.991,-22.598],[-41.979,-22.562],[-41.991,-22.502],[-42.019,-22.48],[-42.019,-22.43],[-42.063,-22.423],[-42.124,-22.405],[-42.163,-22.428],[-42.201,-22.43],[-42.219,-22.406],[-42.205,-22.369],[-42.24,-22.361],[-42.278,-22.402],[-42.304,-22.458],[-42.271,-22.486],[-42.25,-22.546],[-42.212,-22.539],[-42.187,-22.555],[-42.182,-22.553],[-42.134,-22.542],[-42.12,-22.559],[-42.06,-22.56],[-42.01,-22.573],[-41.991,-22.598]]]}},{"type":"Feature","properties":{"code":"3300605"},"geometry":{"type":"Polygon","coordinates":[[[-41.839,-21.082],[-41.799,-21.124],[-41.802,-21.144],[-41.73,-21.168],[-41.686,-21.249],[-41.642,-21.245],[-41.585,-21.317],[-41.496,-21.245],[-41.47,-21.231],[-41.47,-21.203],[-41.486,-21.18],[-41.52,-21.187],[-41.558,-21.173],[-41.589,-21.15],[-41.613,-21.157],[-41.645,-21.143],[-41.717,-21.105],[-41.736,-21.103],[-41.716,-21.047],[-41.722,-21.009],[-41.71,-20.991],[-41.717,-20.953],[-41.734,-20.943],[-41.722,-20.92],[-41.742,-20.873],[-41.783,-20.903],[-41.813,-20.944],[-41.789,-20.966],[-41.801,-20.987],[-41.807,-21.009],[-41.85,-21.062],[-41.839,-21.082]]]}},{"type":"Feature","properties":{"code":"3300456"},"geometry":{"type":"Polygon","coordinates":[[[-43.397,-22.778],[-43.385,-22.767],[-43.329,-22.756],[-43.32,-22.709],[-43.365,-22.685],[-43.425,-22.704],[-43.434,-22.724],[-43.411,-22.768],[-43.397,-22.778]]]}},{"type":"Feature","properties":{"code":"3300506"},"geometry":{"type":"Polygon","coordinates":[[[-42.288,-22.292],[-42.239,-22.234],[-42.286,-22.201],[-42.298,-22.151],[-42.294,-22.114],[-42.348,-22.108],[-42.397,-22.12],[-42.471,-22.113],[-42.465,-22.131],[-42.522,-22.16],[-42.472,-22.211],[-42.474,-22.224],[-42.359,-22.302],[-42.288,-22.292]]]}},{"type":"Feature","properties":{"code":"3300902"},"geometry":{"type":"Polygon","coordinates":[[[-42.057,-21.637],[-42.01,-21.64],[-41.937,-21.597],[-41.896,-21.575],[-41.844,-21.531],[-41.816,-21.491],[-41.743,-21.464],[-41.71,-21.456],[-41.781,-21.401],[-41.779,-21.39],[-41.816,-21.328],[-41.855,-21.345],[-41.895,-21.382],[-41.904,-21.401],[-41.95,-21.432],[-41.974,-21.475],[-41.998,-21.489],[-42.055,-21.526],[-42.053,-21.546],[-42.105,-21.602],[-42.12,-21.602],[-42.091,-21.629],[-42.057,-21.637]]]}},{"type":"Feature","properties":{"code":"3300704"},"geometry":{"type":"Polygon","coordinates":[[[-42.037,-22.933],[-42.02,-22.889],[-41.99,-22.883],[-41.969,-22.823],[-42.01,-22.778],[-41.974,-22.73],[-41.998,-22.668],[-41.991,-22.598],[-42.01,-22.573],[-42.06,-22.56],[-42.12,-22.559],[-42.134,-22.542],[-42.182,-22.553],[-42.132,-22.653],[-42.025,-22.796],[-42.041,-22.866],[-42.088,-22.865],[-42.122,-22.908],[-42.089,-22.933],[-42.037,-22.933]]]}},{"type":"Feature","properties":{"code":"3300803"},"geometry":{"type":"Polygon","coordinates":[[[-42.565,-22.62],[-42.603,-22.541],[-42.593,-22.534],[-42.563,-22.467],[-42.551,-22.456],[-42.557,-22.423],[-42.552,-22.378],[-42.585,-22.355],[-42.635,-22.393],[-42.684,-22.393],[-42.728,-22.356],[-42.767,-22.384],[-42.794,-22.375],[-42.81,-22.405],[-42.851,-22.416],[-42.885,-22.453],[-42.918,-22.451],[-42.923,-22.47],[-42.886,-22.548],[-42.866,-22.572],[-42.907,-22.601],[-42.907,-22.655],[-42.845,-22.636],[-42.79,-22.635],[-42.747,-22.686],[-42.709,-22.67],[-42.694,-22.643],[-42.668,-22.637],[-42.627,-22.657],[-42.565,-22.62]]]}},{"type":"Feature","properties":{"code":"3300100"},"geometry":{"type":"MultiPolygon","coordinates":[[[[-44.132,-23.187],[-44.094,-23.175],[-44.148,-23.125],[-44.202,-23.12],[-44.216,-23.09],[-44.253,-23.097],[-44.282,-23.135],[-44.306,-23.121],[-44.325,-23.154],[-44.378,-23.172],[-44.34,-23.19],[-44.272,-23.18],[-44.247,-23.201],[-44.17,-23.184],[-44.132,-23.187]]],[[[-44.521,-23.027],[-44.484,-23.009],[-44.44,-23.003],[-44.423,-22.951],[-44.366,-22.96],[-44.338,-22.923],[-44.321,-22.936],[-44.312,-22.979],[-44.345,-22.991],[-44.346,-23.027],[-44.303,-23.002],[-44.251,-22.998],[-44.23,-23.014],[-44.238,-23.056],[-44.201,-23.038],[-44.166,-23.034],[-44.163,-23.008],[-44.193,-22.929],[-44.215,-22.932],[-44.242,-22.913],[-44.238,-22.872],[-44.261,-22.848],[-44.318,-22.845],[-44.381,-22.858],[-44.423,-22.851],[-44.467,-22.885],[-44.495,-22.847],[-44.555,-22.888],[-44.607,-22.885],[-44.63,-22.905],[-44.639,-22.914],[-44.622,-22.938],[-44.564,-22.955],[-44.544,-22.981],[-44.547,-23.016],[-44.521,-23.027]]]]}},{"type":"Feature","properties":{"code":"3300159"},"geometry":{"type":"Polygon","coordinates":[[[-42.057,-21.637],[-42.091,-21.629],[-42.12,-21.602],[-42.203,-21.643],[-42.184,-21.681],[-42.138,-21.705],[-42.075,-21.658],[-42.057,-21.637]]]}},{"type":"Feature","properties":{"code":"3300308"},"geometry":{"type":"Polygon","coordinates":[[[-43.913,-22.521],[-43.869,-22.529],[-43.811,-22.513],[-43.819,-22.546],[-43.798,-22.552],[-43.77,-22.518],[-43.755,-22.46],[-43.777,-22.442],[-43.749,-22.403],[-43.785,-22.361],[-43.814,-22.356],[-43.845,-22.384],[-43.858,-22.362],[-43.854,-22.314],[-43.914,-22.355],[-43.95,-22.35],[-43.973,-22.313],[-44.026,-22.297],[-44.063,-22.334],[-44.084,-22.382],[-44.006,-22.407],[-44.072,-22.46],[-44.031,-22.497],[-44.002,-22.511],[-43.913,-22.521]]]}},{"type":"Feature","properties":{"code":"3300407"},"geometry":{"type":"Polygon","coordinates":[[[-44.166,-22.673],[-44.147,-22.653],[-44.086,-22.641],[-44.097,-22.597],[-44.09,-22.53],[-44.136,-22.538],[-44.156,-22.517],[-44.154,-22.463],[-44.142,-22.435],[-44.089,-22.406],[-44.006,-22.407],[-44.084,-22.382],[-44.063,-22.334],[-44.026,-22.297],[-44.09,-22.326],[-44.148,-22.331],[-44.156,-22.373],[-44.208,-22.387],[-44.223,-22.478],[-44.253,-22.485],[-44.301,-22.449],[-44.332,-22.494],[-44.321,-22.55],[-44.342,-22.589],[-44.246,-22.606],[-44.184,-22.637],[-44.166,-22.673]]]}},{"type":"Feature","properties":{"code":"3300225"},"geometry":{"type":"Polygon","coordinates":[[[-43.182,-22.301],[-43.145,-22.304],[-43.127,-22.276],[-43.106,-22.282],[-43.094,-22.242],[-43.048,-22.209],[-43.055,-22.165],[-43.106,-22.199],[-43.16,-22.193],[-43.182,-22.301]]]}},{"type":"Feature","properties":{"code":"3300209"},"geometry":{"type":"Polygon","coordinates":[[[-42.382,-22.936],[-42.281,-22.939],[-42.283,-22.9],[-42.237,-22.863],[-42.254,-22.792],[-42.218,-22.77],[-42.167,-22.68],[-42.132,-22.653],[-42.182,-22.553],[-42.187,-22.555],[-42.199,-22.576],[-42.247,-22.613],[-42.275,-22.606],[-42.315,-22.648],[-42.332,-22.704],[-42.42,-22.736],[-42.442,-22.73],[-42.447,-22.823],[-42.37,-22.835],[-42.387,-22.895],[-42.382,-22.936]]]}},{"type":"Feature","properties":{"code":"3300258"},"geometry":{"type":"Polygon","coordinates":[[[-42.281,-22.939],[-42.2,-22.944],[-42.074,-22.956],[-42.038,-22.967],[-42.037,-22.933],[-42.089,-22.933],[-42.122,-22.908],[-42.172,-22.874],[-42.212,-22.878],[-42.237,-22.863],[-42.283,-22.9],[-42.281,-22.939]]]}},{"type":"Feature","properties":{"code":"3300233"},"geometry":{"type":"Polygon","coordinates":[[[-41.969,-22.823],[-41.933,-22.81],[-41.908,-22.778],[-41.974,-22.73],[-42.01,-22.778],[-41.969,-22.823]]]}},{"type":"Feature","properties":{"code":"3306206"},"geometry":{"type":"Polygon","coordinates":[[[-43.562,-22.5],[-43.54,-22.451],[-43.518,-22.447],[-43.492,-22.42],[-43.508,-22.402],[-43.488,-22.373],[-43.507,-22.332],[-43.504,-22.311],[-43.325,-22.279],[-43.4,-22.216],[-43.426,-22.236],[-43.458,-22.216],[-43.485,-22.25],[-43.515,-22.236],[-43.525,-22.276],[-43.561,-22.265],[-43.589,-22.288],[-43.605,-22.307],[-43.654,-22.312],[-43.665,-22.344],[-43.72,-22.376],[-43.749,-22.403],[-43.777,-22.442],[-43.755,-22.46],[-43.734,-22.482],[-43.715,-22.455],[-43.688,-22.463],[-43.583,-22.457],[-43.562,-22.5]]]}},{"type":"Feature","properties":{"code":"3306305"},"geometry":{"type":"Polygon","coordinates":[[[-44.006,-22.407],[-44.089,-22.406],[-44.142,-22.435],[-44.154,-22.463],[-44.156,-22.517],[-44.136,-22.538],[-44.09,-22.53],[-44.097,-22.597],[-44.086,-22.641],[-44.069,-22.592],[-44.054,-22.55],[-44.038,-22.549],[-44.031,-22.497],[-44.072,-22.46],[-44.006,-22.407]]]}},{"type":"Feature","properties":{"code":"3306107"},"geometry":{"type":"Polygon","coordinates":[[[-43.749,-22.403],[-43.72,-22.376],[-43.665,-22.344],[-43.654,-22.312],[-43.605,-22.307],[-43.589,-22.288],[-43.608,-22.259],[-43.609,-22.225],[-43.658,-22.197],[-43.666,-22.172],[-43.659,-22.105],[-43.668,-22.086],[-43.709,-22.076],[-43.731,-22.096],[-43.776,-22.066],[-43.842,-22.099],[-43.892,-22.114],[-43.953,-22.142],[-43.977,-22.146],[-44.033,-22.152],[-44.101,-22.174],[-44.154,-22.227],[-44.179,-22.229],[-44.189,-22.24],[-44.156,-22.257],[-44.145,-22.299],[-44.148,-22.331],[-44.09,-22.326],[-44.026,-22.297],[-43.973,-22.313],[-43.95,-22.35],[-43.914,-22.355],[-43.854,-22.314],[-43.858,-22.362],[-43.845,-22.384],[-43.814,-22.356],[-43.785,-22.361],[-43.749,-22.403]]]}},{"type":"Feature","properties":{"code":"3306156"},"geometry":{"type":"Polygon","coordinates":[[[-41.801,-20.987],[-41.789,-20.966],[-41.813,-20.944],[-41.783,-20.903],[-41.742,-20.873],[-41.74,-20.817],[-41.775,-20.8],[-41.83,-20.845],[-41.87,-20.861],[-41.9,-20.856],[-41.912,-20.929],[-41.918,-20.946],[-41.892,-20.974],[-41.858,-20.955],[-41.822,-20.953],[-41.801,-20.987]]]}}]}