{"type":"FeatureCollection","features":[{"type":"Feature","properties":{"code":"5006903"},"geometry":{"type":"Polygon","coordinates":[[[-57.834,-20.936],[-57.818,-20.981],[-57.866,-21.039],[-57.866,-21.067],[-57.846,-21.097],[-57.865,-21.136],[-57.849,-21.188],[-57.853,-21.227],[-57.907,-21.266],[-57.92,-21.285],[-57.895,-21.307],[-57.855,-21.317],[-57.861,-21.351],[-57.892,-21.378],[-57.927,-21.45],[-57.934,-21.484],[-57.961,-21.51],[-57.962,-21.562],[-57.919,-21.582],[-57.915,-21.596],[-57.943,-21.629],[-57.93,-21.657],[-57.883,-21.689],[-57.941,-21.733],[-57.94,-21.758],[-57.908,-21.774],[-57.931,-21.825],[-57.96,-21.853],[-57.916,-21.876],[-57.948,-21.9],[-57.937,-21.928],[-57.975,-22.015],[-58.006,-22.031],[-57.988,-22.059],[-57.992,-22.09],[-57.942,-22.083],[-57.93,-22.12],[-57.864,-22.132],[-57.834,-22.12],[-57.805,-22.15],[-57.779,-22.125],[-57.748,-22.139],[-57.691,-22.088],[-57.664,-22.106],[-57.613,-22.11],[-57.586,-22.144],[-57.581,-22.175],[-57.541,-22.181],[-57.517,-22.174],[-57.494,-22.161],[-57.457,-22.088],[-57.431,-22.058],[-57.419,-22.027],[-57.39,-21.999],[-57.379,-21.97],[-57.34,-21.962],[-57.308,-21.932],[-57.279,-21.942],[-57.25,-21.934],[-57.227,-21.902],[-57.198,-21.888],[-57.191,-21.826],[-57.158,-21.784],[-57.161,-21.747],[-57.084,-21.66],[-57.068,-21.666],[-57.028,-21.636],[-56.963,-21.642],[-56.942,-21.593],[-56.907,-21.514],[-56.881,-21.503],[-56.863,-21.469],[-56.789,-21.448],[-56.815,-21.402],[-56.804,-21.35],[-56.812,-21.326],[-56.788,-21.292],[-56.797,-21.23],[-56.831,-21.152],[-56.859,-21.114],[-56.845,-21.075],[-56.867,-21.044],[-56.861,-20.983],[-56.88,-20.93],[-56.86,-20.886],[-56.874,-20.858],[-56.846,-20.792],[-56.868,-20.764],[-56.872,-20.728],[-56.893,-20.684],[-56.869,-20.639],[-56.873,-20.58],[-56.906,-20.533],[-56.924,-20.491],[-56.921,-20.464],[-56.942,-20.415],[-56.988,-20.414],[-57.007,-20.341],[-56.949,-20.333],[-56.947,-20.304],[-56.968,-20.273],[-56.957,-20.245],[-56.967,-20.223],[-57.02,-20.273],[-57.049,-20.281],[-57.084,-20.267],[-57.13,-20.273],[-57.178,-20.235],[-57.205,-20.239],[-57.249,-20.209],[-57.271,-20.179],[-57.307,-20.204],[-57.306,-20.271],[-57.338,-20.286],[-57.328,-20.31],[-57.357,-20.322],[-57.415,-20.362],[-57.423,-20.414],[-57.459,-20.471],[-57.471,-20.473],[-57.487,-20.545],[-57.45,-20.564],[-57.54,-20.623],[-57.606,-20.627],[-57.641,-20.666],[-57.646,-20.708],[-57.671,-20.729],[-57.713,-20.727],[-57.734,-20.752],[-57.745,-20.798],[-57.793,-20.807],[-57.827,-20.829],[-57.812,-20.861],[-57.847,-20.889],[-57.834,-20.936]]]}},{"type":"Feature","properties":{"code":"5006002"},"geometry":{"type":"Polygon","coordinates":[[[-53.792,-21.923],[-53.792,-21.898],[-53.749,-21.828],[-53.737,-21.789],[-53.732,-21.73],[-53.742,-21.684],[-53.729,-21.669],[-53.735,-21.621],[-53.626,-21.616],[-53.609,-21.591],[-53.62,-21.574],[-53.639,-21.58],[-53.671,-21.552],[-53.718,-21.577],[-53.763,-21.573],[-53.827,-21.557],[-53.859,-21.564],[-53.965,-21.533],[-54.006,-21.513],[-54.04,-21.474],[-54.105,-21.429],[-54.116,-21.404],[-54.157,-21.365],[-54.199,-21.335],[-54.237,-21.281],[-54.233,-21.263],[-54.266,-21.235],[-54.26,-21.205],[-54.292,-21.141],[-54.382,-21.1],[-54.413,-21.039],[-54.463,-21.009],[-54.507,-20.994],[-54.509,-21.009],[-54.482,-21.122],[-54.524,-21.128],[-54.559,-21.148],[-54.524,-21.19],[-54.53,-21.213],[-54.574,-21.239],[-54.644,-21.303],[-54.672,-21.304],[-54.681,-21.345],[-54.701,-21.355],[-54.688,-21.41],[-54.708,-21.429],[-54.668,-21.465],[-54.69,-21.491],[-54.686,-21.518],[-54.65,-21.545],[-54.601,-21.489],[-54.565,-21.501],[-54.495,-21.541],[-54.486,-21.567],[-54.46,-21.574],[-54.437,-21.599],[-54.383,-21.542],[-54.334,-21.517],[-54.337,-21.56],[-54.355,-21.578],[-54.342,-21.615],[-54.299,-21.653],[-54.185,-21.732],[-54.11,-21.753],[-54.091,-21.745],[-54.044,-21.774],[-54.008,-21.784],[-53.963,-21.816],[-53.955,-21.85],[-53.915,-21.863],[-53.899,-21.883],[-53.792,-21.923]]]}},{"type":"Feature","properties":{"code":"5006309"},"geometry":{"type":"Polygon","coordinates":[[[-51.868,-19.223],[-51.85,-19.267],[-51.863,-19.286],[-51.846,-19.312],[-51.825,-19.393],[-51.825,-19.424],[-51.779,-19.486],[-51.795,-19.569],[-51.732,-19.613],[-51.643,-19.752],[-51.612,-19.759],[-51.609,-19.791],[-51.565,-19.83],[-51.551,-19.865],[-51.511,-19.885],[-51.489,-19.952],[-51.475,-19.959],[-51.43,-19.931],[-51.382,-19.88],[-51.323,-19.85],[-51.275,-19.848],[-51.228,-19.863],[-51.19,-19.856],[-51.16,-19.863],[-51.121,-19.821],[-51.071,-19.814],[-51.033,-19.791],[-51.028,-19.757],[-51.046,-19.736],[-51.038,-19.692],[-50.99,-19.605],[-50.988,-19.59],[-50.924,-19.581],[-50.931,-19.542],[-50.963,-19.501],[-50.935,-19.468],[-50.952,-19.443],[-50.986,-19.429],[-50.988,-19.408],[-51.02,-19.387],[-51.045,-19.343],[-51.092,-19.308],[-51.169,-19.287],[-51.187,-19.27],[-51.225,-19.259],[-51.243,-19.269],[-51.277,-19.261],[-51.309,-19.218],[-51.364,-19.223],[-51.42,-19.166],[-51.448,-19.16],[-51.499,-19.161],[-51.539,-19.143],[-51.554,-19.179],[-51.554,-19.209],[-51.571,-19.246],[-51.608,-19.272],[-51.615,-19.294],[-51.653,-19.27],[-51.699,-19.264],[-51.706,-19.287],[-51.832,-19.226],[-51.868,-19.223]]]}},{"type":"Feature","properties":{"code":"5006358"},"geometry":{"type":"Polygon","coordinates":[[[-55.262,-23.992],[-55.271,-23.926],[-55.236,-23.92],[-55.249,-23.877],[-55.28,-23.826],[-55.246,-23.804],[-55.191,-23.791],[-55.132,-23.768],[-55.129,-23.749],[-55.166,-23.736],[-55.175,-23.697],[-55.201,-23.668],[-55.244,-23.641],[-55.242,-23.617],[-55.272,-23.57],[-55.297,-23.511],[-55.363,-23.505],[-55.417,-23.492],[-55.429,-23.46],[-55.456,-23.457],[-55.485,-23.482],[-55.514,-23.489],[-55.56,-23.483],[-55.526,-23.567],[-55.538,-23.592],[-55.53,-23.628],[-55.475,-23.651],[-55.467,-23.703],[-55.455,-23.717],[-55.43,-23.79],[-55.441,-23.829],[-55.436,-23.872],[-55.446,-23.917],[-55.428,-23.926],[-55.42,-23.957],[-55.388,-23.968],[-55.349,-23.994],[-55.318,-23.963],[-55.262,-23.992]]]}},{"type":"Feature","properties":{"code":"5006200"},"geometry":{"type":"Polygon","coordinates":[[[-53.588,-22.195],[-53.564,-22.229],[-53.575,-22.246],[-53.556,-22.309],[-53.534,-22.333],[-53.539,-22.375],[-53.514,-22.403],[-53.507,-22.436],[-53.485,-22.45],[-53.52,-22.536],[-53.549,-22.545],[-53.562,-22.57],[-53.5,-22.585],[-53.356,-22.334],[-53.15,-21.974],[-53.072,-21.838],[-53.081,-21.8],[-53.063,-21.767],[-53.036,-21.69],[-53.039,-21.623],[-53.025,-21.616],[-53.056,-21.61],[-53.105,-21.584],[-53.141,-21.576],[-53.183,-21.594],[-53.209,-21.571],[-53.232,-21.593],[-53.313,-21.581],[-53.343,-21.596],[-53.401,-21.561],[-53.438,-21.555],[-53.468,-21.573],[-53.549,-21.607],[-53.588,-21.607],[-53.609,-21.591],[-53.626,-21.616],[-53.735,-21.621],[-53.729,-21.669],[-53.742,-21.684],[-53.732,-21.73],[-53.737,-21.789],[-53.749,-21.828],[-53.792,-21.898],[-53.792,-21.923],[-53.791,-21.942],[-53.76,-21.963],[-53.751,-21.986],[-53.687,-22.04],[-53.664,-22.11],[-53.627,-22.122],[-53.596,-22.148],[-53.588,-22.195]]]}},{"type":"Feature","properties":{"code":"5006275"},"geometry":{"type":"Polygon","coordinates":[[[-52.576,-19.414],[-52.577,-19.4],[-52.625,-19.352],[-52.643,-19.354],[-52.682,-19.331],[-52.686,-19.304],[-52.726,-19.268],[-52.755,-19.269],[-52.847,-19.238],[-52.9,-19.249],[-52.933,-19.196],[-52.94,-19.149],[-52.968,-19.14],[-52.972,-19.109],[-52.939,-19.108],[-52.889,-19.084],[-52.875,-19.067],[-52.834,-18.962],[-52.83,-18.927],[-52.874,-18.891],[-52.899,-18.786],[-52.959,-18.786],[-52.978,-18.797],[-53.046,-18.798],[-53.062,-18.812],[-53.109,-18.881],[-53.142,-18.899],[-53.167,-18.944],[-53.167,-18.983],[-53.203,-18.955],[-53.249,-18.937],[-53.292,-18.89],[-53.318,-18.894],[-53.382,-18.944],[-53.387,-18.981],[-53.402,-19.006],[-53.369,-19.021],[-53.34,-19.05],[-53.393,-19.079],[-53.423,-19.113],[-53.428,-19.159],[-53.442,-19.177],[-53.487,-19.186],[-53.608,-19.184],[-53.612,-19.234],[-53.638,-19.267],[-53.607,-19.303],[-53.602,-19.33],[-53.578,-19.358],[-53.551,-19.462],[-53.529,-19.494],[-53.504,-19.568],[-53.486,-19.587],[-53.403,-19.517],[-53.384,-19.514],[-53.346,-19.45],[-53.328,-19.497],[-53.14,-19.457],[-53.093,-19.461],[-53.098,-19.423],[-53.073,-19.419],[-53.02,-19.43],[-52.984,-19.463],[-52.908,-19.498],[-52.861,-19.538],[-52.82,-19.538],[-52.763,-19.528],[-52.712,-19.552],[-52.656,-19.491],[-52.621,-19.421],[-52.576,-19.414]]]}},{"type":"Feature","properties":{"code":"5006259"},"geometry":{"type":"Polygon","coordinates":[[[-54.028,-22.544],[-53.982,-22.576],[-53.928,-22.657],[-53.871,-22.688],[-53.778,-22.731],[-53.628,-22.698],[-53.596,-22.663],[-53.559,-22.667],[-53.513,-22.632],[-53.525,-22.613],[-53.5,-22.585],[-53.562,-22.57],[-53.62,-22.556],[-53.663,-22.572],[-53.807,-22.532],[-53.857,-22.5],[-53.878,-22.462],[-53.919,-22.435],[-54.02,-22.542],[-54.028,-22.544]]]}},{"type":"Feature","properties":{"code":"5005608"},"geometry":{"type":"Polygon","coordinates":[[[-56.389,-20.486],[-56.358,-20.539],[-56.295,-20.594],[-56.274,-20.645],[-56.213,-20.641],[-56.151,-20.618],[-56.129,-20.605],[-56.139,-20.547],[-56.134,-20.5],[-56.152,-20.452],[-56.177,-20.43],[-56.102,-20.419],[-56.106,-20.38],[-56.161,-20.331],[-56.192,-20.322],[-56.228,-20.289],[-56.224,-20.249],[-56.239,-20.196],[-56.216,-20.174],[-56.25,-20.105],[-56.248,-20.038],[-56.261,-19.988],[-56.289,-19.978],[-56.323,-19.927],[-56.35,-19.927],[-56.409,-19.873],[-56.453,-19.854],[-56.486,-19.82],[-56.577,-19.815],[-56.632,-19.834],[-56.649,-19.791],[-56.698,-19.766],[-56.718,-19.782],[-56.758,-19.779],[-56.785,-19.797],[-56.826,-19.776],[-56.857,-19.717],[-56.876,-19.72],[-56.9,-19.683],[-56.959,-19.689],[-56.993,-19.663],[-56.995,-19.621],[-57.002,-19.668],[-57.068,-20.015],[-57.028,-20.015],[-57.002,-20.05],[-57.003,-20.112],[-56.987,-20.132],[-56.998,-20.189],[-56.947,-20.187],[-56.906,-20.236],[-56.878,-20.257],[-56.826,-20.271],[-56.833,-20.357],[-56.777,-20.417],[-56.752,-20.403],[-56.704,-20.405],[-56.683,-20.387],[-56.681,-20.358],[-56.568,-20.356],[-56.547,-20.362],[-56.472,-20.329],[-56.456,-20.314],[-56.395,-20.341],[-56.407,-20.386],[-56.403,-20.439],[-56.389,-20.486]]]}},{"type":"Feature","properties":{"code":"5005400"},"geometry":{"type":"Polygon","coordinates":[[[-54.83,-21.831],[-54.829,-21.797],[-54.87,-21.765],[-54.895,-21.759],[-54.938,-21.718],[-54.96,-21.671],[-54.986,-21.662],[-54.988,-21.623],[-55.026,-21.61],[-55.028,-21.586],[-55.058,-21.564],[-55.105,-21.553],[-55.126,-21.507],[-55.173,-21.48],[-55.167,-21.461],[-55.211,-21.442],[-55.218,-21.424],[-55.257,-21.409],[-55.297,-21.346],[-55.282,-21.317],[-55.296,-21.291],[-55.299,-21.251],[-55.319,-21.242],[-55.316,-21.204],[-55.326,-21.169],[-55.307,-21.134],[-55.307,-21.08],[-55.294,-21.068],[-55.27,-21.009],[-55.254,-21.016],[-55.266,-20.998],[-55.301,-21.021],[-55.308,-21.04],[-55.319,-21.051],[-55.362,-21.034],[-55.42,-21.054],[-55.473,-21.021],[-55.486,-21.022],[-55.502,-21.039],[-55.494,-21.075],[-55.525,-21.087],[-55.546,-21.046],[-55.569,-21.073],[-55.593,-21.065],[-55.609,-21.086],[-55.641,-21.095],[-55.618,-21.138],[-55.642,-21.212],[-55.704,-21.253],[-55.667,-21.288],[-55.695,-21.342],[-55.671,-21.342],[-55.684,-21.382],[-55.664,-21.4],[-55.683,-21.429],[-55.653,-21.467],[-55.731,-21.458],[-55.782,-21.43],[-55.796,-21.457],[-55.83,-21.461],[-55.837,-21.486],[-55.801,-21.515],[-55.815,-21.543],[-55.752,-21.621],[-55.809,-21.617],[-55.811,-21.643],[-55.83,-21.663],[-55.794,-21.694],[-55.733,-21.78],[-55.714,-21.756],[-55.677,-21.765],[-55.639,-21.788],[-55.612,-21.786],[-55.589,-21.808],[-55.57,-21.797],[-55.509,-21.831],[-55.461,-21.871],[-55.421,-21.868],[-55.412,-21.895],[-55.361,-21.882],[-55.35,-21.894],[-55.289,-21.905],[-55.227,-21.926],[-55.194,-21.915],[-55.16,-21.921],[-55.103,-21.905],[-55.034,-21.899],[-55.011,-21.887],[-54.981,-21.82],[-54.946,-21.808],[-54.923,-21.824],[-54.879,-21.825],[-54.848,-21.845],[-54.83,-21.831]]]}},{"type":"Feature","properties":{"code":"5005806"},"geometry":{"type":"Polygon","coordinates":[[[-55.837,-21.486],[-55.83,-21.461],[-55.796,-21.457],[-55.782,-21.43],[-55.731,-21.458],[-55.653,-21.467],[-55.683,-21.429],[-55.664,-21.4],[-55.684,-21.382],[-55.671,-21.342],[-55.695,-21.342],[-55.667,-21.288],[-55.704,-21.253],[-55.642,-21.212],[-55.618,-21.138],[-55.641,-21.095],[-55.609,-21.086],[-55.593,-21.065],[-55.569,-21.073],[-55.546,-21.046],[-55.525,-21.087],[-55.494,-21.075],[-55.502,-21.039],[-55.486,-21.022],[-55.517,-20.994],[-55.585,-20.997],[-55.621,-20.975],[-55.639,-20.949],[-55.687,-20.918],[-55.688,-20.887],[-55.726,-20.825],[-55.721,-20.798],[-55.74,-20.763],[-55.846,-20.733],[-55.846,-20.754],[-55.891,-20.807],[-55.938,-20.822],[-55.968,-20.82],[-56.009,-20.802],[-56.04,-20.766],[-56.085,-20.766],[-56.136,-20.788],[-56.111,-20.814],[-56.13,-20.862],[-56.186,-20.899],[-56.159,-20.949],[-56.213,-20.997],[-56.177,-21.071],[-56.215,-21.079],[-56.233,-21.104],[-56.216,-21.143],[-56.215,-21.177],[-56.195,-21.201],[-56.229,-21.222],[-56.207,-21.242],[-56.2,-21.282],[-56.191,-21.308],[-56.118,-21.349],[-56.051,-21.346],[-56.016,-21.36],[-55.962,-21.402],[-55.93,-21.409],[-55.921,-21.437],[-55.879,-21.45],[-55.837,-21.486]]]}},{"type":"Feature","properties":{"code":"5005681"},"geometry":{"type":"Polygon","coordinates":[[[-54.286,-24.068],[-54.249,-24.056],[-54.169,-23.999],[-54.14,-23.988],[-54.102,-23.952],[-54.081,-23.891],[-54.084,-23.865],[-54.115,-23.904],[-54.154,-23.926],[-54.207,-23.924],[-54.251,-23.896],[-54.274,-23.861],[-54.39,-23.814],[-54.42,-23.852],[-54.402,-23.877],[-54.369,-23.887],[-54.397,-23.921],[-54.427,-23.931],[-54.415,-23.958],[-54.352,-24.008],[-54.324,-24.004],[-54.31,-24.046],[-54.286,-24.068]]]}},{"type":"Feature","properties":{"code":"5005707"},"geometry":{"type":"Polygon","coordinates":[[[-53.96,-23.443],[-53.932,-23.446],[-53.816,-23.386],[-53.776,-23.375],[-53.762,-23.359],[-53.725,-23.31],[-53.715,-23.283],[-53.699,-23.235],[-53.669,-23.184],[-53.655,-23.144],[-53.637,-23.125],[-53.63,-23.014],[-53.634,-23.003],[-53.657,-22.981],[-53.689,-22.94],[-53.725,-22.937],[-53.765,-22.901],[-53.824,-22.899],[-53.87,-22.876],[-53.941,-22.863],[-54.025,-22.785],[-54.091,-22.758],[-54.126,-22.775],[-54.174,-22.769],[-54.426,-22.822],[-54.417,-22.867],[-54.429,-22.879],[-54.432,-22.958],[-54.468,-23.041],[-54.427,-23.059],[-54.411,-23.088],[-54.335,-23.1],[-54.322,-23.091],[-54.261,-23.13],[-54.228,-23.13],[-54.179,-23.147],[-54.181,-23.168],[-54.115,-23.166],[-54.076,-23.134],[-54.002,-23.157],[-53.947,-23.169],[-53.924,-23.186],[-53.892,-23.191],[-53.855,-23.218],[-53.83,-23.305],[-53.844,-23.328],[-53.885,-23.36],[-53.913,-23.404],[-53.96,-23.443]]]}},{"type":"Feature","properties":{"code":"5005004"},"geometry":{"type":"Polygon","coordinates":[[[-55.894,-21.811],[-55.946,-21.818],[-55.985,-21.809],[-55.981,-21.78],[-56.015,-21.732],[-56.048,-21.712],[-56.124,-21.627],[-56.135,-21.579],[-56.105,-21.544],[-56.119,-21.477],[-56.147,-21.445],[-56.197,-21.432],[-56.197,-21.407],[-56.217,-21.377],[-56.203,-21.355],[-56.227,-21.291],[-56.236,-21.334],[-56.259,-21.356],[-56.289,-21.36],[-56.308,-21.418],[-56.366,-21.411],[-56.442,-21.434],[-56.505,-21.44],[-56.563,-21.424],[-56.621,-21.44],[-56.656,-21.43],[-56.789,-21.448],[-56.863,-21.469],[-56.881,-21.503],[-56.907,-21.514],[-56.942,-21.593],[-56.894,-21.572],[-56.846,-21.562],[-56.815,-21.567],[-56.764,-21.551],[-56.703,-21.544],[-56.661,-21.589],[-56.632,-21.56],[-56.54,-21.527],[-56.528,-21.556],[-56.523,-21.607],[-56.496,-21.628],[-56.439,-21.638],[-56.364,-21.626],[-56.315,-21.657],[-56.283,-21.665],[-56.282,-21.686],[-56.251,-21.781],[-56.204,-21.78],[-56.159,-21.81],[-56.151,-21.867],[-56.113,-21.872],[-56.087,-21.894],[-56.055,-21.902],[-56.025,-21.884],[-55.996,-21.891],[-55.99,-21.837],[-55.957,-21.821],[-55.932,-21.826],[-55.894,-21.811]]]}},{"type":"Feature","properties":{"code":"5005103"},"geometry":{"type":"Polygon","coordinates":[[[-53.559,-22.667],[-53.596,-22.663],[-53.628,-22.698],[-53.778,-22.731],[-53.871,-22.688],[-53.928,-22.657],[-53.982,-22.576],[-54.028,-22.544],[-54.11,-22.563],[-54.115,-22.534],[-54.348,-22.443],[-54.43,-22.626],[-54.389,-22.632],[-54.326,-22.585],[-54.227,-22.71],[-54.19,-22.722],[-54.17,-22.713],[-54.13,-22.72],[-54.091,-22.758],[-54.025,-22.785],[-53.941,-22.863],[-53.87,-22.876],[-53.824,-22.899],[-53.765,-22.901],[-53.725,-22.937],[-53.689,-22.94],[-53.657,-22.981],[-53.652,-22.92],[-53.622,-22.902],[-53.611,-22.858],[-53.569,-22.836],[-53.56,-22.81],[-53.525,-22.793],[-53.506,-22.763],[-53.535,-22.744],[-53.535,-22.721],[-53.559,-22.667]]]}},{"type":"Feature","properties":{"code":"5004908"},"geometry":{"type":"Polygon","coordinates":[[[-54.782,-20.173],[-54.77,-20.191],[-54.706,-20.203],[-54.661,-20.226],[-54.648,-20.249],[-54.607,-20.251],[-54.517,-20.285],[-54.498,-20.333],[-54.489,-20.391],[-54.444,-20.398],[-54.418,-20.422],[-54.394,-20.425],[-54.365,-20.46],[-54.336,-20.478],[-54.265,-20.493],[-54.203,-20.48],[-54.186,-20.465],[-54.113,-20.436],[-54.049,-20.425],[-54.002,-20.398],[-53.888,-20.365],[-53.954,-20.331],[-53.99,-20.304],[-53.983,-20.282],[-54.009,-20.239],[-54.061,-20.187],[-54.069,-20.149],[-54.1,-20.118],[-54.116,-20.103],[-54.18,-20.084],[-54.184,-20.065],[-54.224,-20.043],[-54.259,-20.045],[-54.29,-20.028],[-54.318,-20.033],[-54.371,-20.023],[-54.409,-20.032],[-54.504,-20.001],[-54.523,-20.02],[-54.549,-20.011],[-54.577,-20.021],[-54.649,-20.001],[-54.71,-20.016],[-54.739,-20.046],[-54.763,-20.045],[-54.782,-20.173]]]}},{"type":"Feature","properties":{"code":"5005152"},"geometry":{"type":"Polygon","coordinates":[[[-54.468,-23.041],[-54.432,-22.958],[-54.429,-22.879],[-54.417,-22.867],[-54.426,-22.822],[-54.174,-22.769],[-54.126,-22.775],[-54.091,-22.758],[-54.13,-22.72],[-54.17,-22.713],[-54.19,-22.722],[-54.227,-22.71],[-54.326,-22.585],[-54.389,-22.632],[-54.43,-22.626],[-54.454,-22.621],[-54.477,-22.633],[-54.499,-22.609],[-54.536,-22.607],[-54.598,-22.634],[-54.648,-22.634],[-54.703,-22.617],[-54.684,-22.671],[-54.657,-22.694],[-54.714,-22.72],[-54.745,-22.771],[-54.742,-22.83],[-54.749,-22.846],[-54.737,-22.888],[-54.687,-22.89],[-54.663,-22.916],[-54.627,-22.922],[-54.582,-22.968],[-54.531,-22.974],[-54.523,-23.0],[-54.471,-23.05],[-54.468,-23.041]]]}},{"type":"Feature","properties":{"code":"5005251"},"geometry":{"type":"Polygon","coordinates":[[[-55.352,-22.708],[-55.307,-22.738],[-55.309,-22.755],[-55.278,-22.777],[-55.233,-22.847],[-55.165,-22.885],[-55.156,-22.915],[-55.132,-22.921],[-55.106,-22.893],[-55.078,-22.895],[-55.073,-22.918],[-55.033,-22.921],[-54.996,-22.907],[-54.977,-22.945],[-54.922,-22.923],[-54.907,-22.895],[-54.873,-22.882],[-54.849,-22.889],[-54.813,-22.872],[-54.822,-22.852],[-54.926,-22.795],[-54.924,-22.778],[-54.964,-22.759],[-54.967,-22.733],[-55.041,-22.675],[-55.075,-22.671],[-55.127,-22.641],[-55.128,-22.607],[-55.102,-22.582],[-55.098,-22.548],[-55.069,-22.539],[-55.048,-22.505],[-55.026,-22.504],[-54.98,-22.44],[-54.964,-22.364],[-54.985,-22.357],[-55.044,-22.369],[-55.055,-22.413],[-55.091,-22.425],[-55.122,-22.409],[-55.217,-22.465],[-55.339,-22.509],[-55.346,-22.541],[-55.365,-22.562],[-55.361,-22.64],[-55.349,-22.674],[-55.352,-22.708]]]}},{"type":"Feature","properties":{"code":"5005202"},"geometry":{"type":"Polygon","coordinates":[[[-57.678,-19.137],[-57.667,-19.167],[-57.553,-19.196],[-57.529,-19.22],[-57.508,-19.21],[-57.503,-19.122],[-57.492,-19.096],[-57.458,-19.05],[-57.466,-19.027],[-57.551,-19.016],[-57.614,-18.999],[-57.633,-19.032],[-57.64,-19.084],[-57.661,-19.088],[-57.678,-19.137]]]}},{"type":"Feature","properties":{"code":"5004502"},"geometry":{"type":"Polygon","coordinates":[[[-55.011,-21.887],[-55.021,-21.921],[-55.009,-21.937],[-55.024,-21.964],[-55.064,-21.975],[-55.099,-22.006],[-55.105,-22.035],[-55.086,-22.073],[-55.092,-22.122],[-55.042,-22.105],[-55.017,-22.142],[-54.979,-22.152],[-54.956,-22.177],[-54.922,-22.192],[-54.871,-22.201],[-54.773,-22.139],[-54.745,-22.113],[-54.706,-22.097],[-54.682,-22.066],[-54.626,-21.942],[-54.627,-21.924],[-54.664,-21.943],[-54.687,-21.941],[-54.7,-21.916],[-54.688,-21.871],[-54.733,-21.879],[-54.763,-21.903],[-54.799,-21.826],[-54.83,-21.831],[-54.848,-21.845],[-54.879,-21.825],[-54.923,-21.824],[-54.946,-21.808],[-54.981,-21.82],[-55.011,-21.887]]]}},{"type":"Feature","properties":{"code":"5004601"},"geometry":{"type":"Polygon","coordinates":[[[-54.275,-23.564],[-54.211,-23.574],[-54.189,-23.601],[-54.107,-23.64],[-54.061,-23.64],[-54.051,-23.687],[-54.031,-23.628],[-54.024,-23.586],[-54.007,-23.545],[-54.004,-23.511],[-53.987,-23.467],[-53.96,-23.443],[-53.913,-23.404],[-53.885,-23.36],[-53.844,-23.328],[-53.83,-23.305],[-53.855,-23.218],[-53.892,-23.191],[-53.924,-23.186],[-53.947,-23.169],[-54.002,-23.157],[-54.076,-23.134],[-54.115,-23.166],[-54.181,-23.168],[-54.179,-23.147],[-54.228,-23.13],[-54.261,-23.13],[-54.322,-23.091],[-54.335,-23.1],[-54.378,-23.183],[-54.377,-23.223],[-54.4,-23.257],[-54.375,-23.307],[-54.323,-23.351],[-54.286,-23.373],[-54.241,-23.418],[-54.237,-23.45],[-54.255,-23.503],[-54.254,-23.536],[-54.275,-23.564]]]}},{"type":"Feature","properties":{"code":"5004403"},"geometry":{"type":"Polygon","coordinates":[[[-52.476,-19.611],[-52.389,-19.633],[-52.341,-19.677],[-52.335,-19.728],[-52.304,-19.75],[-52.296,-19.783],[-52.213,-19.869],[-52.22,-19.919],[-52.218,-19.967],[-52.196,-20.019],[-52.201,-20.033],[-52.167,-20.059],[-52.145,-20.109],[-52.12,-20.131],[-52.096,-20.09],[-52.052,-20.069],[-52.043,-20.051],[-51.996,-20.026],[-51.896,-20.024],[-51.871,-20.003],[-51.848,-20.006],[-51.781,-19.926],[-51.747,-20.032],[-51.688,-20.047],[-51.676,-20.012],[-51.639,-19.983],[-51.555,-19.966],[-51.475,-19.959],[-51.489,-19.952],[-51.511,-19.885],[-51.551,-19.865],[-51.565,-19.83],[-51.609,-19.791],[-51.612,-19.759],[-51.643,-19.752],[-51.732,-19.613],[-51.795,-19.569],[-51.779,-19.486],[-51.825,-19.424],[-51.825,-19.393],[-51.846,-19.312],[-51.863,-19.286],[-51.85,-19.267],[-51.868,-19.223],[-51.937,-19.213],[-51.978,-19.191],[-52.02,-19.199],[-52.051,-19.227],[-52.057,-19.251],[-52.091,-19.254],[-52.107,-19.23],[-52.162,-19.198],[-52.222,-19.237],[-52.197,-19.252],[-52.162,-19.307],[-52.089,-19.305],[-52.079,-19.323],[-52.126,-19.374],[-52.151,-19.35],[-52.201,-19.347],[-52.219,-19.376],[-52.262,-19.364],[-52.329,-19.366],[-52.387,-19.336],[-52.441,-19.337],[-52.444,-19.364],[-52.467,-19.392],[-52.473,-19.421],[-52.462,-19.459],[-52.489,-19.53],[-52.516,-19.55],[-52.476,-19.611]]]}},{"type":"Feature","properties":{"code":"5004809"},"geometry":{"type":"Polygon","coordinates":[[[-54.416,-23.788],[-54.456,-23.783],[-54.47,-23.75],[-54.511,-23.739],[-54.572,-23.735],[-54.649,-23.718],[-54.71,-23.736],[-54.702,-23.783],[-54.684,-23.831],[-54.589,-23.839],[-54.515,-23.885],[-54.44,-23.904],[-54.427,-23.931],[-54.397,-23.921],[-54.369,-23.887],[-54.402,-23.877],[-54.42,-23.852],[-54.39,-23.814],[-54.416,-23.788]]]}},{"type":"Feature","properties":{"code":"5004700"},"geometry":{"type":"Polygon","coordinates":[[[-53.562,-22.57],[-53.549,-22.545],[-53.52,-22.536],[-53.485,-22.45],[-53.507,-22.436],[-53.514,-22.403],[-53.539,-22.375],[-53.534,-22.333],[-53.556,-22.309],[-53.575,-22.246],[-53.564,-22.229],[-53.588,-22.195],[-53.61,-22.191],[-53.685,-22.232],[-53.778,-22.237],[-53.832,-22.21],[-53.903,-22.197],[-53.923,-22.171],[-53.979,-22.148],[-53.998,-22.158],[-54.013,-22.165],[-54.093,-22.329],[-54.115,-22.355],[-54.117,-22.377],[-54.097,-22.44],[-54.057,-22.477],[-54.028,-22.544],[-54.02,-22.542],[-53.919,-22.435],[-53.878,-22.462],[-53.857,-22.5],[-53.807,-22.532],[-53.663,-22.572],[-53.62,-22.556],[-53.562,-22.57]]]}},{"type":"Feature","properties":{"code":"5004007"},"geometry":{"type":"Polygon","coordinates":[[[-54.028,-22.544],[-54.057,-22.477],[-54.097,-22.44],[-54.117,-22.377],[-54.115,-22.355],[-54.281,-22.292],[-54.325,-22.392],[-54.348,-22.443],[-54.115,-22.534],[-54.11,-22.563],[-54.028,-22.544]]]}},{"type":"Feature","properties":{"code":"5003900"},"geometry":{"type":"Polygon","coordinates":[[[-53.49,-18.85],[-53.489,-18.837],[-53.345,-18.775],[-53.377,-18.741],[-53.372,-18.682],[-53.415,-18.654],[-53.435,-18.631],[-53.469,-18.619],[-53.472,-18.578],[-53.501,-18.521],[-53.516,-18.515],[-53.581,-18.437],[-53.638,-18.455],[-53.711,-18.446],[-53.762,-18.454],[-53.781,-18.483],[-53.819,-18.477],[-53.84,-18.459],[-53.93,-18.523],[-53.968,-18.527],[-53.981,-18.543],[-54.044,-18.502],[-54.081,-18.516],[-54.155,-18.535],[-54.18,-18.581],[-54.228,-18.577],[-54.253,-18.585],[-54.304,-18.562],[-54.353,-18.634],[-54.359,-18.66],[-54.383,-18.678],[-54.393,-18.705],[-54.334,-18.721],[-54.298,-18.74],[-54.261,-18.791],[-54.259,-18.834],[-54.217,-18.879],[-54.19,-18.976],[-54.186,-19.023],[-54.125,-19.02],[-54.101,-19.064],[-54.084,-19.067],[-54.058,-19.102],[-54.026,-19.102],[-53.992,-19.076],[-53.986,-19.047],[-53.958,-19.005],[-53.907,-19.013],[-53.83,-18.997],[-53.791,-19.01],[-53.731,-18.989],[-53.687,-19.002],[-53.659,-18.986],[-53.595,-18.972],[-53.563,-18.928],[-53.493,-18.895],[-53.49,-18.85]]]}},{"type":"Feature","properties":{"code":"5004304"},"geometry":{"type":"Polygon","coordinates":[[[-54.416,-23.788],[-54.378,-23.723],[-54.388,-23.705],[-54.33,-23.554],[-54.275,-23.564],[-54.254,-23.536],[-54.255,-23.503],[-54.237,-23.45],[-54.241,-23.418],[-54.286,-23.373],[-54.323,-23.351],[-54.375,-23.307],[-54.4,-23.257],[-54.377,-23.223],[-54.378,-23.183],[-54.335,-23.1],[-54.411,-23.088],[-54.427,-23.059],[-54.468,-23.041],[-54.471,-23.05],[-54.498,-23.074],[-54.526,-23.114],[-54.565,-23.131],[-54.59,-23.155],[-54.634,-23.164],[-54.662,-23.212],[-54.644,-23.275],[-54.673,-23.311],[-54.707,-23.287],[-54.773,-23.291],[-54.814,-23.306],[-54.841,-23.362],[-54.839,-23.392],[-54.865,-23.409],[-54.883,-23.441],[-54.852,-23.471],[-54.813,-23.546],[-54.764,-23.579],[-54.748,-23.58],[-54.675,-23.647],[-54.649,-23.718],[-54.572,-23.735],[-54.511,-23.739],[-54.47,-23.75],[-54.456,-23.783],[-54.416,-23.788]]]}},{"type":"Feature","properties":{"code":"5004106"},"geometry":{"type":"Polygon","coordinates":[[[-56.227,-21.291],[-56.203,-21.355],[-56.217,-21.377],[-56.197,-21.407],[-56.197,-21.432],[-56.147,-21.445],[-56.119,-21.477],[-56.105,-21.544],[-56.135,-21.579],[-56.124,-21.627],[-56.048,-21.712],[-56.015,-21.732],[-55.981,-21.78],[-55.985,-21.809],[-55.946,-21.818],[-55.894,-21.811],[-55.939,-21.81],[-55.937,-21.776],[-55.893,-21.761],[-55.891,-21.74],[-55.93,-21.742],[-55.953,-21.689],[-55.904,-21.658],[-55.855,-21.674],[-55.83,-21.663],[-55.811,-21.643],[-55.809,-21.617],[-55.752,-21.621],[-55.815,-21.543],[-55.801,-21.515],[-55.837,-21.486],[-55.879,-21.45],[-55.921,-21.437],[-55.93,-21.409],[-55.962,-21.402],[-56.016,-21.36],[-56.051,-21.346],[-56.118,-21.349],[-56.191,-21.308],[-56.2,-21.282],[-56.227,-21.291]]]}},{"type":"Feature","properties":{"code":"5003504"},"geometry":{"type":"Polygon","coordinates":[[[-54.682,-22.066],[-54.679,-22.094],[-54.625,-22.093],[-54.58,-22.13],[-54.548,-22.09],[-54.543,-22.056],[-54.515,-22.019],[-54.499,-21.934],[-54.535,-21.911],[-54.585,-21.931],[-54.627,-21.924],[-54.626,-21.942],[-54.682,-22.066]]]}},{"type":"Feature","properties":{"code":"5003488"},"geometry":{"type":"Polygon","coordinates":[[[-55.254,-21.016],[-55.208,-21.035],[-55.202,-20.896],[-55.169,-20.862],[-55.151,-20.802],[-55.177,-20.735],[-55.204,-20.722],[-55.221,-20.692],[-55.218,-20.652],[-55.201,-20.61],[-55.205,-20.585],[-55.216,-20.546],[-55.234,-20.537],[-55.273,-20.473],[-55.272,-20.45],[-55.304,-20.43],[-55.325,-20.405],[-55.367,-20.442],[-55.391,-20.432],[-55.388,-20.409],[-55.355,-20.386],[-55.356,-20.348],[-55.319,-20.328],[-55.246,-20.321],[-55.248,-20.285],[-55.271,-20.287],[-55.269,-20.248],[-55.246,-20.226],[-55.345,-20.16],[-55.357,-20.174],[-55.396,-20.175],[-55.425,-20.146],[-55.487,-20.15],[-55.51,-20.198],[-55.522,-20.244],[-55.518,-20.28],[-55.489,-20.3],[-55.452,-20.308],[-55.46,-20.334],[-55.445,-20.394],[-55.45,-20.449],[-55.485,-20.468],[-55.505,-20.456],[-55.542,-20.49],[-55.587,-20.51],[-55.574,-20.521],[-55.586,-20.608],[-55.553,-20.683],[-55.527,-20.704],[-55.526,-20.74],[-55.464,-20.782],[-55.451,-20.824],[-55.419,-20.838],[-55.419,-20.863],[-55.395,-20.896],[-55.344,-20.993],[-55.322,-21.008],[-55.308,-21.04],[-55.301,-21.021],[-55.266,-20.998],[-55.254,-21.016]]]}},{"type":"Feature","properties":{"code":"5003454"},"geometry":{"type":"Polygon","coordinates":[[[-54.115,-22.355],[-54.093,-22.329],[-54.013,-22.165],[-53.998,-22.158],[-53.994,-22.12],[-54.087,-22.083],[-54.086,-22.037],[-54.094,-21.984],[-54.126,-21.946],[-54.188,-21.924],[-54.232,-21.954],[-54.221,-21.995],[-54.205,-22.009],[-54.242,-22.082],[-54.227,-22.138],[-54.275,-22.179],[-54.269,-22.195],[-54.303,-22.236],[-54.262,-22.252],[-54.281,-22.292],[-54.115,-22.355]]]}},{"type":"Feature","properties":{"code":"5003751"},"geometry":{"type":"Polygon","coordinates":[[[-54.083,-23.802],[-54.076,-23.765],[-54.052,-23.721],[-54.051,-23.687],[-54.061,-23.64],[-54.107,-23.64],[-54.189,-23.601],[-54.211,-23.574],[-54.275,-23.564],[-54.33,-23.554],[-54.388,-23.705],[-54.378,-23.723],[-54.416,-23.788],[-54.39,-23.814],[-54.274,-23.861],[-54.251,-23.896],[-54.207,-23.924],[-54.154,-23.926],[-54.115,-23.904],[-54.084,-23.865],[-54.083,-23.802]]]}},{"type":"Feature","properties":{"code":"5003801"},"geometry":{"type":"Polygon","coordinates":[[[-54.505,-22.458],[-54.463,-22.363],[-54.429,-22.352],[-54.325,-22.392],[-54.281,-22.292],[-54.262,-22.252],[-54.303,-22.236],[-54.316,-22.251],[-54.361,-22.257],[-54.406,-22.317],[-54.519,-22.349],[-54.53,-22.318],[-54.566,-22.294],[-54.642,-22.353],[-54.635,-22.367],[-54.592,-22.384],[-54.575,-22.404],[-54.532,-22.413],[-54.505,-22.458]]]}},{"type":"Feature","properties":{"code":"5003702"},"geometry":{"type":"Polygon","coordinates":[[[-54.964,-22.364],[-54.929,-22.376],[-54.89,-22.377],[-54.821,-22.398],[-54.814,-22.388],[-54.761,-22.425],[-54.721,-22.441],[-54.667,-22.419],[-54.646,-22.436],[-54.625,-22.418],[-54.575,-22.404],[-54.592,-22.384],[-54.635,-22.367],[-54.642,-22.353],[-54.566,-22.294],[-54.53,-22.318],[-54.519,-22.349],[-54.406,-22.317],[-54.361,-22.257],[-54.316,-22.251],[-54.303,-22.236],[-54.269,-22.195],[-54.275,-22.179],[-54.227,-22.138],[-54.242,-22.082],[-54.205,-22.009],[-54.221,-21.995],[-54.232,-21.954],[-54.283,-21.952],[-54.282,-21.934],[-54.363,-21.947],[-54.409,-21.934],[-54.445,-21.903],[-54.474,-21.893],[-54.499,-21.934],[-54.515,-22.019],[-54.543,-22.056],[-54.548,-22.09],[-54.58,-22.13],[-54.625,-22.093],[-54.679,-22.094],[-54.682,-22.066],[-54.706,-22.097],[-54.745,-22.113],[-54.773,-22.139],[-54.871,-22.201],[-54.922,-22.192],[-54.956,-22.177],[-54.979,-22.152],[-55.017,-22.142],[-55.042,-22.105],[-55.092,-22.122],[-55.086,-22.073],[-55.105,-22.035],[-55.099,-22.006],[-55.064,-21.975],[-55.024,-21.964],[-55.009,-21.937],[-55.021,-21.921],[-55.011,-21.887],[-55.034,-21.899],[-55.103,-21.905],[-55.16,-21.921],[-55.194,-21.915],[-55.227,-21.926],[-55.289,-21.905],[-55.35,-21.894],[-55.361,-21.882],[-55.412,-21.895],[-55.438,-21.937],[-55.523,-21.984],[-55.499,-22.035],[-55.498,-22.096],[-55.489,-22.123],[-55.464,-22.126],[-55.447,-22.148],[-55.405,-22.153],[-55.357,-22.203],[-55.293,-22.192],[-55.252,-22.227],[-55.222,-22.223],[-55.204,-22.242],[-55.149,-22.224],[-55.127,-22.243],[-55.078,-22.264],[-55.008,-22.344],[-54.985,-22.357],[-54.964,-22.364]]]}},{"type":"Feature","properties":{"code":"5002951"},"geometry":{"type":"Polygon","coordinates":[[[-52.516,-19.55],[-52.489,-19.53],[-52.462,-19.459],[-52.473,-19.421],[-52.467,-19.392],[-52.444,-19.364],[-52.441,-19.337],[-52.479,-19.307],[-52.487,-19.26],[-52.542,-19.224],[-52.528,-19.062],[-52.578,-19.024],[-52.592,-18.966],[-52.537,-18.917],[-52.518,-18.924],[-52.517,-18.957],[-52.48,-18.963],[-52.495,-18.882],[-52.47,-18.836],[-52.482,-18.786],[-52.412,-18.744],[-52.448,-18.692],[-52.502,-18.676],[-52.532,-18.657],[-52.566,-18.665],[-52.589,-18.687],[-52.635,-18.692],[-52.687,-18.678],[-52.748,-18.692],[-52.81,-18.668],[-52.846,-18.667],[-52.873,-18.646],[-52.913,-18.642],[-52.921,-18.613],[-52.991,-18.668],[-53.018,-18.671],[-53.021,-18.696],[-53.043,-18.723],[-53.038,-18.745],[-53.046,-18.798],[-52.978,-18.797],[-52.959,-18.786],[-52.899,-18.786],[-52.874,-18.891],[-52.83,-18.927],[-52.834,-18.962],[-52.875,-19.067],[-52.889,-19.084],[-52.939,-19.108],[-52.972,-19.109],[-52.968,-19.14],[-52.94,-19.149],[-52.933,-19.196],[-52.9,-19.249],[-52.847,-19.238],[-52.755,-19.269],[-52.726,-19.268],[-52.686,-19.304],[-52.682,-19.331],[-52.643,-19.354],[-52.625,-19.352],[-52.577,-19.4],[-52.576,-19.414],[-52.564,-19.451],[-52.529,-19.487],[-52.516,-19.55]]]}},{"type":"Feature","properties":{"code":"5002902"},"geometry":{"type":"Polygon","coordinates":[[[-52.441,-19.337],[-52.387,-19.336],[-52.329,-19.366],[-52.262,-19.364],[-52.219,-19.376],[-52.201,-19.347],[-52.151,-19.35],[-52.126,-19.374],[-52.079,-19.323],[-52.089,-19.305],[-52.162,-19.307],[-52.197,-19.252],[-52.222,-19.237],[-52.162,-19.198],[-52.107,-19.23],[-52.091,-19.254],[-52.057,-19.251],[-52.051,-19.227],[-52.02,-19.199],[-51.978,-19.191],[-51.937,-19.213],[-51.868,-19.223],[-51.832,-19.226],[-51.706,-19.287],[-51.699,-19.264],[-51.653,-19.27],[-51.615,-19.294],[-51.608,-19.272],[-51.571,-19.246],[-51.554,-19.209],[-51.554,-19.179],[-51.539,-19.143],[-51.592,-19.127],[-51.609,-19.141],[-51.66,-19.134],[-51.692,-19.118],[-51.727,-19.108],[-51.816,-19.055],[-51.852,-19.052],[-51.876,-19.031],[-51.897,-18.994],[-51.941,-18.968],[-51.951,-18.981],[-52.014,-18.976],[-52.044,-18.951],[-52.079,-18.951],[-52.106,-18.926],[-52.111,-18.899],[-52.151,-18.893],[-52.187,-18.846],[-52.252,-18.839],[-52.263,-18.828],[-52.305,-18.84],[-52.345,-18.823],[-52.354,-18.8],[-52.407,-18.757],[-52.412,-18.744],[-52.482,-18.786],[-52.47,-18.836],[-52.495,-18.882],[-52.48,-18.963],[-52.517,-18.957],[-52.518,-18.924],[-52.537,-18.917],[-52.592,-18.966],[-52.578,-19.024],[-52.528,-19.062],[-52.542,-19.224],[-52.487,-19.26],[-52.479,-19.307],[-52.441,-19.337]]]}},{"type":"Feature","properties":{"code":"5003256"},"geometry":{"type":"Polygon","coordinates":[[[-53.49,-18.85],[-53.382,-18.944],[-53.318,-18.894],[-53.292,-18.89],[-53.249,-18.937],[-53.203,-18.955],[-53.167,-18.983],[-53.167,-18.944],[-53.142,-18.899],[-53.109,-18.881],[-53.062,-18.812],[-53.046,-18.798],[-53.038,-18.745],[-53.043,-18.723],[-53.021,-18.696],[-53.018,-18.671],[-52.991,-18.668],[-52.921,-18.613],[-52.952,-18.577],[-52.962,-18.541],[-52.92,-18.511],[-52.881,-18.465],[-52.876,-18.431],[-52.839,-18.424],[-52.798,-18.415],[-52.759,-18.363],[-52.776,-18.329],[-52.821,-18.311],[-52.873,-18.315],[-52.935,-18.297],[-52.965,-18.299],[-53.014,-18.326],[-53.023,-18.349],[-53.072,-18.341],[-53.1,-18.314],[-53.11,-18.22],[-53.13,-18.161],[-53.143,-18.084],[-53.124,-18.059],[-53.076,-18.051],[-53.072,-18.034],[-53.174,-18.042],[-53.199,-18.02],[-53.238,-18.007],[-53.236,-18.051],[-53.221,-18.127],[-53.314,-18.209],[-53.358,-18.194],[-53.375,-18.209],[-53.33,-18.239],[-53.347,-18.257],[-53.391,-18.241],[-53.438,-18.254],[-53.461,-18.278],[-53.431,-18.327],[-53.449,-18.351],[-53.435,-18.383],[-53.462,-18.403],[-53.498,-18.401],[-53.581,-18.437],[-53.516,-18.515],[-53.501,-18.521],[-53.472,-18.578],[-53.469,-18.619],[-53.435,-18.631],[-53.415,-18.654],[-53.372,-18.682],[-53.377,-18.741],[-53.345,-18.775],[-53.489,-18.837],[-53.49,-18.85]]]}},{"type":"Feature","properties":{"code":"5003207"},"geometry":{"type":"Polygon","coordinates":[[[-57.752,-17.564],[-57.785,-17.571],[-57.783,-17.637],[-57.75,-17.696],[-57.711,-17.729],[-57.719,-17.773],[-57.684,-17.809],[-57.684,-17.829],[-57.721,-17.829],[-57.6,-18.043],[-57.574,-18.132],[-57.505,-18.199],[-57.455,-18.233],[-57.558,-18.241],[-57.767,-18.899],[-57.72,-18.899],[-57.719,-18.978],[-57.698,-19.011],[-57.71,-19.035],[-57.783,-19.035],[-58.001,-19.487],[-58.131,-19.759],[-57.859,-19.972],[-57.909,-20.041],[-57.93,-20.022],[-57.963,-20.027],[-57.979,-20.055],[-58.024,-20.059],[-58.054,-20.108],[-58.095,-20.11],[-58.117,-20.147],[-58.149,-20.152],[-58.132,-20.207],[-58.166,-20.237],[-58.145,-20.272],[-58.12,-20.25],[-58.097,-20.254],[-58.091,-20.285],[-58.103,-20.321],[-58.073,-20.388],[-58.025,-20.4],[-58.004,-20.427],[-57.999,-20.456],[-58.02,-20.514],[-57.997,-20.572],[-58.013,-20.608],[-57.97,-20.644],[-57.988,-20.687],[-57.95,-20.698],[-57.937,-20.67],[-57.914,-20.671],[-57.878,-20.714],[-57.873,-20.751],[-57.934,-20.746],[-57.959,-20.798],[-57.893,-20.791],[-57.859,-20.825],[-57.873,-20.854],[-57.929,-20.895],[-57.886,-20.909],[-57.864,-20.949],[-57.834,-20.936],[-57.847,-20.889],[-57.812,-20.861],[-57.827,-20.829],[-57.793,-20.807],[-57.745,-20.798],[-57.734,-20.752],[-57.713,-20.727],[-57.671,-20.729],[-57.646,-20.708],[-57.641,-20.666],[-57.606,-20.627],[-57.54,-20.623],[-57.45,-20.564],[-57.487,-20.545],[-57.471,-20.473],[-57.459,-20.471],[-57.423,-20.414],[-57.415,-20.362],[-57.357,-20.322],[-57.328,-20.31],[-57.338,-20.286],[-57.306,-20.271],[-57.307,-20.204],[-57.271,-20.179],[-57.249,-20.209],[-57.205,-20.239],[-57.178,-20.235],[-57.13,-20.273],[-57.084,-20.267],[-57.049,-20.281],[-57.02,-20.273],[-56.967,-20.223],[-56.998,-20.189],[-56.987,-20.132],[-57.003,-20.112],[-57.002,-20.05],[-57.028,-20.015],[-57.068,-20.015],[-57.002,-19.668],[-56.995,-19.621],[-56.922,-19.613],[-56.867,-19.62],[-56.852,-19.606],[-56.619,-19.514],[-56.58,-19.277],[-55.973,-19.279],[-55.972,-19.466],[-55.954,-19.467],[-55.923,-19.426],[-55.9,-19.42],[-55.873,-19.376],[-55.841,-19.357],[-55.82,-19.327],[-55.824,-19.287],[-55.791,-19.257],[-55.765,-19.191],[-55.734,-19.152],[-55.701,-19.086],[-55.648,-19.049],[-55.579,-18.982],[-55.528,-18.94],[-55.399,-18.582],[-55.306,-18.248],[-55.202,-17.876],[-55.139,-17.648],[-55.252,-17.592],[-55.263,-17.565],[-55.3,-17.541],[-55.332,-17.549],[-55.354,-17.532],[-55.405,-17.512],[-55.433,-17.512],[-55.483,-17.479],[-55.515,-17.484],[-55.589,-17.414],[-55.584,-17.383],[-55.603,-17.367],[-55.604,-17.367],[-55.649,-17.358],[-55.658,-17.339],[-55.72,-17.349],[-55.761,-17.323],[-55.79,-17.327],[-55.805,-17.309],[-55.845,-17.299],[-55.87,-17.275],[-55.887,-17.285],[-55.96,-17.25],[-56.012,-17.237],[-56.016,-17.19],[-56.044,-17.171],[-56.083,-17.178],[-56.112,-17.166],[-56.129,-17.179],[-56.184,-17.195],[-56.213,-17.226],[-56.251,-17.219],[-56.336,-17.29],[-56.361,-17.281],[-56.389,-17.302],[-56.451,-17.326],[-56.499,-17.29],[-56.551,-17.323],[-56.612,-17.332],[-56.62,-17.322],[-56.672,-17.335],[-56.683,-17.317],[-56.723,-17.308],[-56.758,-17.327],[-56.767,-17.365],[-56.786,-17.387],[-56.829,-17.39],[-56.824,-17.423],[-56.841,-17.442],[-56.846,-17.481],[-56.876,-17.533],[-56.91,-17.532],[-56.974,-17.58],[-56.982,-17.61],[-56.965,-17.622],[-56.988,-17.659],[-57.033,-17.695],[-57.048,-17.733],[-57.075,-17.737],[-57.102,-17.772],[-57.225,-17.783],[-57.265,-17.82],[-57.311,-17.818],[-57.35,-17.837],[-57.426,-17.856],[-57.46,-17.9],[-57.485,-17.862],[-57.516,-17.863],[-57.531,-17.839],[-57.609,-17.797],[-57.623,-17.736],[-57.64,-17.717],[-57.664,-17.73],[-57.685,-17.716],[-57.672,-17.664],[-57.693,-17.627],[-57.712,-17.543],[-57.74,-17.536],[-57.752,-17.564]],[[-57.678,-19.137],[-57.661,-19.088],[-57.64,-19.084],[-57.633,-19.032],[-57.614,-18.999],[-57.551,-19.016],[-57.466,-19.027],[-57.458,-19.05],[-57.492,-19.096],[-57.503,-19.122],[-57.508,-19.21],[-57.529,-19.22],[-57.553,-19.196],[-57.667,-19.167],[-57.678,-19.137]]]}},{"type":"Feature","properties":{"code":"5003306"},"geometry":{"type":"Polygon","coordinates":[[[-54.393,-18.705],[-54.383,-18.678],[-54.359,-18.66],[-54.353,-18.634],[-54.304,-18.562],[-54.253,-18.585],[-54.228,-18.577],[-54.18,-18.581],[-54.155,-18.535],[-54.081,-18.516],[-54.079,-18.447],[-54.092,-18.414],[-54.091,-18.357],[-54.14,-18.331],[-54.177,-18.334],[-54.13,-18.284],[-54.14,-18.252],[-54.142,-18.159],[-54.176,-18.112],[-54.203,-18.091],[-54.238,-18.096],[-54.304,-18.136],[-54.336,-18.132],[-54.388,-18.147],[-54.432,-18.136],[-54.502,-18.189],[-54.549,-18.209],[-54.584,-18.251],[-54.599,-18.237],[-54.599,-18.189],[-54.613,-18.176],[-54.654,-18.186],[-54.666,-18.16],[-54.7,-18.123],[-54.679,-18.008],[-54.677,-17.964],[-54.689,-17.915],[-54.739,-17.939],[-54.749,-17.97],[-54.845,-18.003],[-54.876,-17.996],[-54.93,-17.953],[-54.947,-17.911],[-54.965,-17.893],[-55.013,-17.879],[-55.028,-17.89],[-55.072,-17.872],[-55.135,-17.799],[-55.134,-17.758],[-55.157,-17.744],[-55.137,-17.65],[-55.139,-17.648],[-55.202,-17.876],[-55.306,-18.248],[-55.282,-18.258],[-55.234,-18.229],[-55.213,-18.238],[-55.16,-18.232],[-55.109,-18.246],[-55.091,-18.278],[-55.045,-18.29],[-55.055,-18.315],[-55.016,-18.344],[-54.988,-18.391],[-54.934,-18.438],[-54.89,-18.449],[-54.846,-18.425],[-54.757,-18.491],[-54.764,-18.505],[-54.749,-18.55],[-54.726,-18.589],[-54.626,-18.627],[-54.616,-18.666],[-54.574,-18.712],[-54.532,-18.725],[-54.441,-18.728],[-54.425,-18.71],[-54.393,-18.705]]]}},{"type":"Feature","properties":{"code":"5003108"},"geometry":{"type":"Polygon","coordinates":[[[-55.042,-20.156],[-55.029,-20.125],[-54.996,-20.125],[-54.972,-20.092],[-54.937,-20.07],[-54.929,-20.037],[-54.893,-19.978],[-54.883,-19.924],[-54.851,-19.905],[-54.838,-19.844],[-54.818,-19.84],[-54.783,-19.798],[-54.734,-19.773],[-54.73,-19.69],[-54.745,-19.678],[-54.75,-19.63],[-54.722,-19.597],[-54.743,-19.499],[-54.788,-19.47],[-54.795,-19.455],[-54.815,-19.486],[-54.812,-19.536],[-54.824,-19.594],[-54.838,-19.608],[-54.839,-19.648],[-54.893,-19.652],[-54.903,-19.68],[-54.934,-19.695],[-54.961,-19.685],[-55.027,-19.698],[-55.046,-19.665],[-55.038,-19.615],[-55.057,-19.609],[-55.085,-19.631],[-55.146,-19.614],[-55.174,-19.595],[-55.241,-19.521],[-55.266,-19.586],[-55.288,-19.607],[-55.306,-19.673],[-55.324,-19.693],[-55.347,-19.761],[-55.395,-19.802],[-55.379,-19.85],[-55.338,-19.88],[-55.331,-19.929],[-55.309,-19.955],[-55.313,-19.988],[-55.271,-20.0],[-55.223,-19.979],[-55.18,-19.993],[-55.14,-19.972],[-55.129,-19.999],[-55.098,-20.02],[-55.096,-20.046],[-55.064,-20.109],[-55.084,-20.154],[-55.042,-20.156]]]}},{"type":"Feature","properties":{"code":"5003157"},"geometry":{"type":"Polygon","coordinates":[[[-55.155,-23.381],[-55.158,-23.363],[-55.209,-23.336],[-55.25,-23.302],[-55.341,-23.262],[-55.358,-23.22],[-55.419,-23.131],[-55.434,-23.091],[-55.48,-23.129],[-55.496,-23.164],[-55.493,-23.2],[-55.52,-23.239],[-55.539,-23.241],[-55.523,-23.26],[-55.553,-23.279],[-55.556,-23.316],[-55.535,-23.333],[-55.505,-23.378],[-55.516,-23.41],[-55.56,-23.483],[-55.514,-23.489],[-55.485,-23.482],[-55.456,-23.457],[-55.429,-23.46],[-55.417,-23.492],[-55.363,-23.505],[-55.297,-23.511],[-55.272,-23.57],[-55.203,-23.4],[-55.155,-23.381]]]}},{"type":"Feature","properties":{"code":"5002407"},"geometry":{"type":"Polygon","coordinates":[[[-54.964,-22.364],[-54.98,-22.44],[-55.026,-22.504],[-55.048,-22.505],[-55.069,-22.539],[-55.098,-22.548],[-55.102,-22.582],[-55.128,-22.607],[-55.127,-22.641],[-55.075,-22.671],[-55.041,-22.675],[-54.967,-22.733],[-54.964,-22.759],[-54.924,-22.778],[-54.926,-22.795],[-54.822,-22.852],[-54.813,-22.872],[-54.768,-22.889],[-54.737,-22.888],[-54.749,-22.846],[-54.742,-22.83],[-54.745,-22.771],[-54.714,-22.72],[-54.657,-22.694],[-54.684,-22.671],[-54.703,-22.617],[-54.648,-22.634],[-54.598,-22.634],[-54.536,-22.607],[-54.499,-22.609],[-54.477,-22.633],[-54.454,-22.621],[-54.472,-22.591],[-54.472,-22.509],[-54.505,-22.458],[-54.532,-22.413],[-54.575,-22.404],[-54.625,-22.418],[-54.646,-22.436],[-54.667,-22.419],[-54.721,-22.441],[-54.761,-22.425],[-54.814,-22.388],[-54.821,-22.398],[-54.89,-22.377],[-54.929,-22.376],[-54.964,-22.364]]]}},{"type":"Feature","properties":{"code":"5002704"},"geometry":{"type":"Polygon","coordinates":[[[-53.62,-21.574],[-53.605,-21.544],[-53.607,-21.502],[-53.636,-21.447],[-53.617,-21.417],[-53.618,-21.362],[-53.638,-21.337],[-53.648,-21.289],[-53.68,-21.236],[-53.682,-21.19],[-53.726,-21.146],[-53.737,-21.108],[-53.761,-21.079],[-53.804,-21.074],[-53.848,-21.044],[-53.856,-20.99],[-53.916,-20.958],[-53.968,-20.956],[-54.005,-20.923],[-54.006,-20.892],[-54.023,-20.855],[-54.064,-20.837],[-54.092,-20.798],[-54.158,-20.772],[-54.175,-20.725],[-54.202,-20.711],[-54.207,-20.673],[-54.178,-20.603],[-54.195,-20.532],[-54.186,-20.465],[-54.203,-20.48],[-54.265,-20.493],[-54.336,-20.478],[-54.365,-20.46],[-54.394,-20.425],[-54.418,-20.422],[-54.444,-20.398],[-54.489,-20.391],[-54.498,-20.333],[-54.517,-20.285],[-54.607,-20.251],[-54.648,-20.249],[-54.661,-20.226],[-54.706,-20.203],[-54.77,-20.191],[-54.782,-20.173],[-54.858,-20.172],[-54.862,-20.2],[-54.913,-20.207],[-54.922,-20.231],[-54.889,-20.268],[-54.82,-20.284],[-54.821,-20.299],[-54.763,-20.326],[-54.763,-20.481],[-54.798,-20.51],[-54.798,-20.558],[-54.767,-20.615],[-54.797,-20.662],[-54.815,-20.661],[-54.843,-20.688],[-54.816,-20.741],[-54.772,-20.696],[-54.753,-20.692],[-54.722,-20.715],[-54.698,-20.769],[-54.708,-20.794],[-54.698,-20.848],[-54.673,-20.887],[-54.631,-20.909],[-54.602,-20.905],[-54.566,-20.95],[-54.526,-20.965],[-54.507,-20.994],[-54.463,-21.009],[-54.413,-21.039],[-54.382,-21.1],[-54.292,-21.141],[-54.26,-21.205],[-54.266,-21.235],[-54.233,-21.263],[-54.237,-21.281],[-54.199,-21.335],[-54.157,-21.365],[-54.116,-21.404],[-54.105,-21.429],[-54.04,-21.474],[-54.006,-21.513],[-53.965,-21.533],[-53.859,-21.564],[-53.827,-21.557],[-53.763,-21.573],[-53.718,-21.577],[-53.671,-21.552],[-53.639,-21.58],[-53.62,-21.574]]]}},{"type":"Feature","properties":{"code":"5002803"},"geometry":{"type":"Polygon","coordinates":[[[-57.05,-22.232],[-57.036,-22.201],[-57.038,-22.149],[-57.007,-22.138],[-57.024,-22.094],[-56.998,-22.08],[-56.981,-22.093],[-56.932,-22.054],[-56.898,-22.069],[-56.886,-22.043],[-56.854,-22.025],[-56.864,-21.988],[-56.855,-21.934],[-56.83,-21.867],[-56.806,-21.845],[-56.792,-21.811],[-56.802,-21.779],[-56.762,-21.682],[-56.804,-21.655],[-56.796,-21.626],[-56.815,-21.567],[-56.846,-21.562],[-56.894,-21.572],[-56.942,-21.593],[-56.963,-21.642],[-57.028,-21.636],[-57.068,-21.666],[-57.084,-21.66],[-57.161,-21.747],[-57.158,-21.784],[-57.191,-21.826],[-57.198,-21.888],[-57.227,-21.902],[-57.25,-21.934],[-57.279,-21.942],[-57.308,-21.932],[-57.34,-21.962],[-57.379,-21.97],[-57.39,-21.999],[-57.419,-22.027],[-57.431,-22.058],[-57.457,-22.088],[-57.494,-22.161],[-57.517,-22.174],[-57.483,-22.192],[-57.445,-22.188],[-57.389,-22.205],[-57.376,-22.229],[-57.325,-22.239],[-57.297,-22.221],[-57.238,-22.251],[-57.214,-22.224],[-57.148,-22.234],[-57.109,-22.231],[-57.101,-22.249],[-57.05,-22.232]]]}},{"type":"Feature","properties":{"code":"5002605"},"geometry":{"type":"Polygon","coordinates":[[[-53.425,-19.785],[-53.459,-19.73],[-53.468,-19.697],[-53.488,-19.691],[-53.494,-19.659],[-53.478,-19.624],[-53.486,-19.587],[-53.504,-19.568],[-53.529,-19.494],[-53.551,-19.462],[-53.578,-19.358],[-53.602,-19.33],[-53.607,-19.303],[-53.638,-19.267],[-53.612,-19.234],[-53.608,-19.184],[-53.487,-19.186],[-53.442,-19.177],[-53.428,-19.159],[-53.423,-19.113],[-53.393,-19.079],[-53.34,-19.05],[-53.369,-19.021],[-53.402,-19.006],[-53.387,-18.981],[-53.382,-18.944],[-53.49,-18.85],[-53.493,-18.895],[-53.563,-18.928],[-53.595,-18.972],[-53.659,-18.986],[-53.687,-19.002],[-53.731,-18.989],[-53.791,-19.01],[-53.83,-18.997],[-53.907,-19.013],[-53.958,-19.005],[-53.986,-19.047],[-53.992,-19.076],[-54.026,-19.102],[-54.058,-19.102],[-54.084,-19.067],[-54.101,-19.064],[-54.125,-19.02],[-54.186,-19.023],[-54.205,-19.048],[-54.245,-19.034],[-54.247,-19.068],[-54.216,-19.126],[-54.208,-19.169],[-54.208,-19.251],[-54.235,-19.251],[-54.275,-19.291],[-54.276,-19.314],[-54.318,-19.324],[-54.317,-19.411],[-54.368,-19.413],[-54.377,-19.445],[-54.401,-19.47],[-54.43,-19.476],[-54.437,-19.522],[-54.431,-19.553],[-54.399,-19.596],[-54.358,-19.599],[-54.339,-19.611],[-54.286,-19.622],[-54.209,-19.613],[-54.171,-19.627],[-54.131,-19.66],[-54.102,-19.662],[-54.065,-19.634],[-54.021,-19.634],[-53.993,-19.686],[-53.988,-19.723],[-53.904,-19.702],[-53.863,-19.53],[-53.822,-19.551],[-53.795,-19.581],[-53.783,-19.617],[-53.719,-19.666],[-53.711,-19.68],[-53.647,-19.709],[-53.639,-19.733],[-53.601,-19.77],[-53.564,-19.782],[-53.532,-19.782],[-53.455,-19.798],[-53.425,-19.785]]]}},{"type":"Feature","properties":{"code":"5002001"},"geometry":{"type":"Polygon","coordinates":[[[-53.356,-22.334],[-53.339,-22.361],[-53.335,-22.456],[-53.308,-22.538],[-53.283,-22.573],[-53.276,-22.685],[-53.295,-22.724],[-53.333,-22.731],[-53.327,-22.765],[-53.24,-22.733],[-53.185,-22.719],[-53.128,-22.652],[-53.105,-22.622],[-53.108,-22.596],[-53.074,-22.549],[-53.014,-22.521],[-52.999,-22.493],[-52.948,-22.473],[-52.995,-22.43],[-52.988,-22.42],[-53.014,-22.34],[-53.04,-22.312],[-53.048,-22.267],[-53.078,-22.216],[-53.109,-22.142],[-53.107,-22.075],[-53.116,-22.012],[-53.134,-21.975],[-53.15,-21.974],[-53.356,-22.334]]]}},{"type":"Feature","properties":{"code":"5001904"},"geometry":{"type":"Polygon","coordinates":[[[-52.161,-21.771],[-52.177,-21.729],[-52.178,-21.697],[-52.197,-21.669],[-52.257,-21.633],[-52.287,-21.645],[-52.31,-21.631],[-52.397,-21.671],[-52.492,-21.69],[-52.547,-21.713],[-52.629,-21.708],[-52.693,-21.74],[-52.735,-21.726],[-52.819,-21.668],[-52.84,-21.673],[-52.883,-21.657],[-52.938,-21.665],[-52.974,-21.654],[-52.997,-21.633],[-53.025,-21.616],[-53.039,-21.623],[-53.036,-21.69],[-53.063,-21.767],[-53.081,-21.8],[-53.072,-21.838],[-53.029,-21.856],[-52.961,-21.86],[-52.871,-21.88],[-52.634,-21.832],[-52.608,-21.917],[-52.498,-22.006],[-52.45,-22.034],[-52.404,-22.028],[-52.38,-22.035],[-52.371,-22.068],[-52.392,-22.115],[-52.377,-22.107],[-52.339,-22.048],[-52.319,-21.972],[-52.275,-21.915],[-52.248,-21.902],[-52.189,-21.844],[-52.184,-21.814],[-52.161,-21.771]]]}},{"type":"Feature","properties":{"code":"5002209"},"geometry":{"type":"Polygon","coordinates":[[[-56.2,-21.282],[-56.207,-21.242],[-56.229,-21.222],[-56.195,-21.201],[-56.215,-21.177],[-56.216,-21.143],[-56.233,-21.104],[-56.215,-21.079],[-56.177,-21.071],[-56.213,-20.997],[-56.159,-20.949],[-56.186,-20.899],[-56.13,-20.862],[-56.111,-20.814],[-56.136,-20.788],[-56.085,-20.766],[-56.128,-20.718],[-56.146,-20.671],[-56.151,-20.618],[-56.213,-20.641],[-56.274,-20.645],[-56.295,-20.594],[-56.358,-20.539],[-56.389,-20.486],[-56.395,-20.546],[-56.407,-20.586],[-56.468,-20.615],[-56.508,-20.623],[-56.498,-20.657],[-56.535,-20.673],[-56.582,-20.714],[-56.577,-20.737],[-56.616,-20.761],[-56.611,-20.794],[-56.685,-20.848],[-56.697,-20.886],[-56.86,-20.886],[-56.88,-20.93],[-56.861,-20.983],[-56.867,-21.044],[-56.845,-21.075],[-56.859,-21.114],[-56.831,-21.152],[-56.797,-21.23],[-56.788,-21.292],[-56.812,-21.326],[-56.804,-21.35],[-56.815,-21.402],[-56.789,-21.448],[-56.656,-21.43],[-56.621,-21.44],[-56.563,-21.424],[-56.505,-21.44],[-56.442,-21.434],[-56.366,-21.411],[-56.308,-21.418],[-56.289,-21.36],[-56.259,-21.356],[-56.236,-21.334],[-56.227,-21.291],[-56.2,-21.282]]]}},{"type":"Feature","properties":{"code":"5002308"},"geometry":{"type":"Polygon","coordinates":[[[-53.127,-20.69],[-53.04,-20.736],[-53.02,-20.783],[-53.021,-20.814],[-52.994,-20.862],[-52.961,-20.873],[-52.931,-20.91],[-52.886,-20.942],[-52.858,-20.951],[-52.711,-21.067],[-52.679,-21.103],[-52.613,-21.151],[-52.589,-21.191],[-52.566,-21.203],[-52.554,-21.243],[-52.528,-21.271],[-52.515,-21.303],[-52.481,-21.35],[-52.455,-21.373],[-52.384,-21.408],[-52.348,-21.453],[-52.281,-21.482],[-52.224,-21.52],[-52.224,-21.537],[-52.171,-21.563],[-52.164,-21.579],[-52.102,-21.57],[-52.078,-21.515],[-52.057,-21.504],[-52.0,-21.517],[-51.962,-21.493],[-51.929,-21.456],[-51.918,-21.412],[-51.9,-21.378],[-51.861,-21.337],[-51.849,-21.267],[-51.88,-21.198],[-51.892,-21.183],[-51.943,-21.185],[-51.994,-21.146],[-51.992,-21.128],[-52.04,-21.085],[-52.106,-21.039],[-52.159,-21.014],[-52.222,-20.972],[-52.25,-20.981],[-52.309,-20.953],[-52.364,-20.884],[-52.414,-20.856],[-52.483,-20.825],[-52.569,-20.761],[-52.602,-20.714],[-52.667,-20.674],[-52.687,-20.647],[-52.735,-20.615],[-52.761,-20.573],[-52.817,-20.541],[-52.897,-20.613],[-52.984,-20.652],[-53.038,-20.654],[-53.084,-20.681],[-53.127,-20.69]]]}},{"type":"Feature","properties":{"code":"5002100"},"geometry":{"type":"Polygon","coordinates":[[[-57.05,-22.232],[-56.997,-22.223],[-56.987,-22.243],[-56.947,-22.256],[-56.888,-22.245],[-56.881,-22.276],[-56.844,-22.301],[-56.805,-22.285],[-56.744,-22.241],[-56.72,-22.257],[-56.684,-22.221],[-56.673,-22.249],[-56.652,-22.257],[-56.603,-22.22],[-56.556,-22.195],[-56.549,-22.166],[-56.528,-22.148],[-56.519,-22.109],[-56.471,-22.08],[-56.392,-22.08],[-56.393,-22.101],[-56.346,-22.18],[-56.318,-22.19],[-56.29,-22.161],[-56.209,-22.175],[-56.17,-22.155],[-56.137,-22.152],[-56.109,-22.128],[-56.047,-22.114],[-56.02,-22.095],[-56.015,-22.061],[-56.038,-22.034],[-56.028,-21.994],[-56.047,-21.973],[-56.08,-21.972],[-56.07,-21.942],[-56.087,-21.894],[-56.113,-21.872],[-56.151,-21.867],[-56.159,-21.81],[-56.204,-21.78],[-56.251,-21.781],[-56.282,-21.686],[-56.283,-21.665],[-56.315,-21.657],[-56.364,-21.626],[-56.439,-21.638],[-56.496,-21.628],[-56.523,-21.607],[-56.528,-21.556],[-56.54,-21.527],[-56.632,-21.56],[-56.661,-21.589],[-56.703,-21.544],[-56.764,-21.551],[-56.815,-21.567],[-56.796,-21.626],[-56.804,-21.655],[-56.762,-21.682],[-56.802,-21.779],[-56.792,-21.811],[-56.806,-21.845],[-56.83,-21.867],[-56.855,-21.934],[-56.864,-21.988],[-56.854,-22.025],[-56.886,-22.043],[-56.898,-22.069],[-56.932,-22.054],[-56.981,-22.093],[-56.998,-22.08],[-57.024,-22.094],[-57.007,-22.138],[-57.038,-22.149],[-57.036,-22.201],[-57.05,-22.232]]]}},{"type":"Feature","properties":{"code":"5002159"},"geometry":{"type":"Polygon","coordinates":[[[-56.86,-20.886],[-56.697,-20.886],[-56.685,-20.848],[-56.611,-20.794],[-56.616,-20.761],[-56.577,-20.737],[-56.582,-20.714],[-56.535,-20.673],[-56.498,-20.657],[-56.508,-20.623],[-56.468,-20.615],[-56.407,-20.586],[-56.395,-20.546],[-56.389,-20.486],[-56.403,-20.439],[-56.407,-20.386],[-56.395,-20.341],[-56.456,-20.314],[-56.472,-20.329],[-56.547,-20.362],[-56.568,-20.356],[-56.681,-20.358],[-56.683,-20.387],[-56.704,-20.405],[-56.752,-20.403],[-56.777,-20.417],[-56.833,-20.357],[-56.826,-20.271],[-56.878,-20.257],[-56.906,-20.236],[-56.947,-20.187],[-56.998,-20.189],[-56.967,-20.223],[-56.957,-20.245],[-56.968,-20.273],[-56.947,-20.304],[-56.949,-20.333],[-57.007,-20.341],[-56.988,-20.414],[-56.942,-20.415],[-56.921,-20.464],[-56.924,-20.491],[-56.906,-20.533],[-56.873,-20.58],[-56.869,-20.639],[-56.893,-20.684],[-56.872,-20.728],[-56.868,-20.764],[-56.846,-20.792],[-56.874,-20.858],[-56.86,-20.886]]]}},{"type":"Feature","properties":{"code":"5001508"},"geometry":{"type":"Polygon","coordinates":[[[-54.1,-20.118],[-54.059,-20.088],[-54.054,-20.07],[-53.978,-20.049],[-53.958,-20.031],[-53.952,-19.999],[-53.897,-19.987],[-53.919,-19.913],[-53.948,-19.867],[-53.963,-19.861],[-53.981,-19.776],[-53.992,-19.765],[-53.988,-19.723],[-53.993,-19.686],[-54.021,-19.634],[-54.065,-19.634],[-54.102,-19.662],[-54.131,-19.66],[-54.171,-19.627],[-54.209,-19.613],[-54.286,-19.622],[-54.339,-19.611],[-54.358,-19.599],[-54.399,-19.596],[-54.431,-19.553],[-54.469,-19.54],[-54.485,-19.562],[-54.512,-19.538],[-54.551,-19.531],[-54.589,-19.565],[-54.627,-19.561],[-54.677,-19.597],[-54.722,-19.597],[-54.75,-19.63],[-54.745,-19.678],[-54.73,-19.69],[-54.734,-19.773],[-54.694,-19.772],[-54.685,-19.756],[-54.651,-19.776],[-54.635,-19.876],[-54.583,-19.869],[-54.545,-19.874],[-54.49,-19.868],[-54.459,-19.889],[-54.46,-19.943],[-54.449,-19.98],[-54.399,-20.009],[-54.409,-20.032],[-54.371,-20.023],[-54.318,-20.033],[-54.29,-20.028],[-54.259,-20.045],[-54.224,-20.043],[-54.184,-20.065],[-54.18,-20.084],[-54.116,-20.103],[-54.1,-20.118]]]}},{"type":"Feature","properties":{"code":"5000906"},"geometry":{"type":"Polygon","coordinates":[[[-55.767,-22.384],[-55.748,-22.346],[-55.759,-22.323],[-55.746,-22.282],[-55.709,-22.247],[-55.713,-22.229],[-55.69,-22.181],[-55.666,-22.16],[-55.65,-22.128],[-55.692,-22.132],[-55.714,-22.114],[-55.763,-22.12],[-55.773,-22.142],[-55.799,-22.151],[-55.834,-22.141],[-55.877,-22.15],[-55.94,-22.096],[-55.971,-22.099],[-56.015,-22.061],[-56.02,-22.095],[-56.047,-22.114],[-56.109,-22.128],[-56.137,-22.152],[-56.17,-22.155],[-56.209,-22.175],[-56.29,-22.161],[-56.318,-22.19],[-56.346,-22.18],[-56.318,-22.215],[-56.25,-22.238],[-56.213,-22.276],[-56.136,-22.286],[-56.124,-22.272],[-56.088,-22.285],[-56.063,-22.277],[-56.009,-22.293],[-55.936,-22.28],[-55.857,-22.281],[-55.843,-22.287],[-55.804,-22.372],[-55.767,-22.384]]]}},{"type":"Feature","properties":{"code":"5001003"},"geometry":{"type":"Polygon","coordinates":[[[-51.688,-20.047],[-51.629,-20.103],[-51.624,-20.12],[-51.581,-20.158],[-51.562,-20.189],[-51.502,-20.241],[-51.448,-20.26],[-51.417,-20.292],[-51.362,-20.32],[-51.343,-20.356],[-51.296,-20.328],[-51.161,-20.305],[-51.109,-20.28],[-51.069,-20.25],[-51.022,-20.133],[-51.001,-20.096],[-51.001,-20.085],[-51.018,-20.048],[-51.005,-19.996],[-51.021,-19.959],[-50.999,-19.906],[-51.019,-19.87],[-51.024,-19.804],[-51.033,-19.791],[-51.071,-19.814],[-51.121,-19.821],[-51.16,-19.863],[-51.19,-19.856],[-51.228,-19.863],[-51.275,-19.848],[-51.323,-19.85],[-51.382,-19.88],[-51.43,-19.931],[-51.475,-19.959],[-51.555,-19.966],[-51.639,-19.983],[-51.676,-20.012],[-51.688,-20.047]]]}},{"type":"Feature","properties":{"code":"5000807"},"geometry":{"type":"Polygon","coordinates":[[[-52.392,-22.115],[-52.371,-22.068],[-52.38,-22.035],[-52.404,-22.028],[-52.45,-22.034],[-52.498,-22.006],[-52.608,-21.917],[-52.634,-21.832],[-52.871,-21.88],[-52.961,-21.86],[-53.029,-21.856],[-53.072,-21.838],[-53.15,-21.974],[-53.134,-21.975],[-53.116,-22.012],[-53.107,-22.075],[-53.109,-22.142],[-53.078,-22.216],[-53.048,-22.267],[-53.04,-22.312],[-53.014,-22.34],[-52.988,-22.42],[-52.995,-22.43],[-52.948,-22.473],[-52.855,-22.439],[-52.84,-22.415],[-52.798,-22.378],[-52.695,-22.315],[-52.655,-22.303],[-52.587,-22.257],[-52.488,-22.217],[-52.456,-22.185],[-52.408,-22.142],[-52.392,-22.115]]]}},{"type":"Feature","properties":{"code":"5000856"},"geometry":{"type":"Polygon","coordinates":[[[-53.588,-22.195],[-53.596,-22.148],[-53.627,-22.122],[-53.664,-22.11],[-53.687,-22.04],[-53.751,-21.986],[-53.76,-21.963],[-53.791,-21.942],[-53.792,-21.923],[-53.899,-21.883],[-53.914,-21.898],[-53.974,-21.911],[-54.026,-21.897],[-54.055,-21.902],[-54.081,-21.929],[-54.097,-21.913],[-54.132,-21.93],[-54.126,-21.946],[-54.094,-21.984],[-54.086,-22.037],[-54.087,-22.083],[-53.994,-22.12],[-53.998,-22.158],[-53.979,-22.148],[-53.923,-22.171],[-53.903,-22.197],[-53.832,-22.21],[-53.778,-22.237],[-53.685,-22.232],[-53.61,-22.191],[-53.588,-22.195]]]}},{"type":"Feature","properties":{"code":"5001243"},"geometry":{"type":"Polygon","coordinates":[[[-55.614,-22.693],[-55.62,-22.753],[-55.65,-22.791],[-55.666,-22.852],[-55.651,-22.887],[-55.634,-22.992],[-55.639,-23.026],[-55.611,-23.048],[-55.611,-23.077],[-55.596,-23.119],[-55.573,-23.143],[-55.542,-23.156],[-55.543,-23.181],[-55.523,-23.198],[-55.539,-23.241],[-55.52,-23.239],[-55.493,-23.2],[-55.496,-23.164],[-55.48,-23.129],[-55.434,-23.091],[-55.413,-23.031],[-55.366,-23.012],[-55.338,-22.989],[-55.297,-22.983],[-55.278,-22.957],[-55.201,-22.943],[-55.181,-22.927],[-55.151,-22.941],[-55.073,-22.918],[-55.078,-22.895],[-55.106,-22.893],[-55.132,-22.921],[-55.156,-22.915],[-55.165,-22.885],[-55.233,-22.847],[-55.278,-22.777],[-55.309,-22.755],[-55.307,-22.738],[-55.352,-22.708],[-55.46,-22.697],[-55.511,-22.725],[-55.526,-22.764],[-55.553,-22.751],[-55.574,-22.724],[-55.614,-22.693]]]}},{"type":"Feature","properties":{"code":"5001102"},"geometry":{"type":"Polygon","coordinates":[[[-56.102,-20.419],[-55.833,-20.46],[-55.797,-20.482],[-55.752,-20.491],[-55.646,-20.481],[-55.601,-20.519],[-55.587,-20.51],[-55.542,-20.49],[-55.505,-20.456],[-55.485,-20.468],[-55.45,-20.449],[-55.445,-20.394],[-55.46,-20.334],[-55.452,-20.308],[-55.489,-20.3],[-55.518,-20.28],[-55.522,-20.244],[-55.51,-20.198],[-55.487,-20.15],[-55.425,-20.146],[-55.396,-20.175],[-55.357,-20.174],[-55.345,-20.16],[-55.246,-20.226],[-55.192,-20.173],[-55.137,-20.145],[-55.084,-20.154],[-55.064,-20.109],[-55.096,-20.046],[-55.098,-20.02],[-55.129,-19.999],[-55.14,-19.972],[-55.18,-19.993],[-55.223,-19.979],[-55.271,-20.0],[-55.313,-19.988],[-55.309,-19.955],[-55.331,-19.929],[-55.338,-19.88],[-55.379,-19.85],[-55.395,-19.802],[-55.347,-19.761],[-55.324,-19.693],[-55.306,-19.673],[-55.288,-19.607],[-55.266,-19.586],[-55.241,-19.521],[-55.226,-19.496],[-55.204,-19.417],[-55.163,-19.404],[-55.112,-19.37],[-55.102,-19.335],[-55.138,-19.345],[-55.17,-19.327],[-55.204,-19.285],[-55.224,-19.282],[-55.25,-19.252],[-55.305,-19.258],[-55.319,-19.242],[-55.375,-19.258],[-55.417,-19.261],[-55.465,-19.219],[-55.442,-19.0],[-55.399,-18.582],[-55.528,-18.94],[-55.579,-18.982],[-55.648,-19.049],[-55.701,-19.086],[-55.734,-19.152],[-55.765,-19.191],[-55.791,-19.257],[-55.824,-19.287],[-55.82,-19.327],[-55.841,-19.357],[-55.873,-19.376],[-55.9,-19.42],[-55.923,-19.426],[-55.954,-19.467],[-55.972,-19.466],[-55.973,-19.279],[-56.58,-19.277],[-56.619,-19.514],[-56.852,-19.606],[-56.867,-19.62],[-56.922,-19.613],[-56.995,-19.621],[-56.993,-19.663],[-56.959,-19.689],[-56.9,-19.683],[-56.876,-19.72],[-56.857,-19.717],[-56.826,-19.776],[-56.785,-19.797],[-56.758,-19.779],[-56.718,-19.782],[-56.698,-19.766],[-56.649,-19.791],[-56.632,-19.834],[-56.577,-19.815],[-56.486,-19.82],[-56.453,-19.854],[-56.409,-19.873],[-56.35,-19.927],[-56.323,-19.927],[-56.289,-19.978],[-56.261,-19.988],[-56.248,-20.038],[-56.25,-20.105],[-56.216,-20.174],[-56.239,-20.196],[-56.224,-20.249],[-56.228,-20.289],[-56.192,-20.322],[-56.161,-20.331],[-56.106,-20.38],[-56.102,-20.419]]]}},{"type":"Feature","properties":{"code":"5000708"},"geometry":{"type":"Polygon","coordinates":[[[-55.486,-21.022],[-55.473,-21.021],[-55.42,-21.054],[-55.362,-21.034],[-55.319,-21.051],[-55.308,-21.04],[-55.322,-21.008],[-55.344,-20.993],[-55.395,-20.896],[-55.419,-20.863],[-55.419,-20.838],[-55.451,-20.824],[-55.464,-20.782],[-55.526,-20.74],[-55.527,-20.704],[-55.553,-20.683],[-55.586,-20.608],[-55.574,-20.521],[-55.587,-20.51],[-55.601,-20.519],[-55.646,-20.481],[-55.752,-20.491],[-55.797,-20.482],[-55.833,-20.46],[-56.102,-20.419],[-56.177,-20.43],[-56.152,-20.452],[-56.134,-20.5],[-56.139,-20.547],[-56.129,-20.605],[-56.151,-20.618],[-56.146,-20.671],[-56.128,-20.718],[-56.085,-20.766],[-56.04,-20.766],[-56.009,-20.802],[-55.968,-20.82],[-55.938,-20.822],[-55.891,-20.807],[-55.846,-20.754],[-55.846,-20.733],[-55.74,-20.763],[-55.721,-20.798],[-55.726,-20.825],[-55.688,-20.887],[-55.687,-20.918],[-55.639,-20.949],[-55.621,-20.975],[-55.585,-20.997],[-55.517,-20.994],[-55.486,-21.022]]]}},{"type":"Feature","properties":{"code":"5000609"},"geometry":{"type":"Polygon","coordinates":[[[-54.813,-23.546],[-54.852,-23.471],[-54.883,-23.441],[-54.865,-23.409],[-54.839,-23.392],[-54.841,-23.362],[-54.814,-23.306],[-54.773,-23.291],[-54.707,-23.287],[-54.673,-23.311],[-54.644,-23.275],[-54.662,-23.212],[-54.634,-23.164],[-54.59,-23.155],[-54.565,-23.131],[-54.526,-23.114],[-54.498,-23.074],[-54.471,-23.05],[-54.523,-23.0],[-54.531,-22.974],[-54.582,-22.968],[-54.627,-22.922],[-54.663,-22.916],[-54.687,-22.89],[-54.737,-22.888],[-54.768,-22.889],[-54.813,-22.872],[-54.849,-22.889],[-54.873,-22.882],[-54.907,-22.895],[-54.922,-22.923],[-54.977,-22.945],[-54.996,-22.907],[-55.033,-22.921],[-55.073,-22.918],[-55.151,-22.941],[-55.181,-22.927],[-55.201,-22.943],[-55.278,-22.957],[-55.297,-22.983],[-55.338,-22.989],[-55.366,-23.012],[-55.413,-23.031],[-55.434,-23.091],[-55.419,-23.131],[-55.358,-23.22],[-55.341,-23.262],[-55.25,-23.302],[-55.209,-23.336],[-55.158,-23.363],[-55.155,-23.381],[-55.145,-23.41],[-55.103,-23.447],[-55.088,-23.471],[-55.021,-23.496],[-54.97,-23.542],[-54.921,-23.567],[-54.863,-23.549],[-54.813,-23.546]]]}},{"type":"Feature","properties":{"code":"5007976"},"geometry":{"type":"Polygon","coordinates":[[[-53.657,-22.981],[-53.634,-23.003],[-53.607,-22.951],[-53.571,-22.928],[-53.547,-22.89],[-53.485,-22.864],[-53.43,-22.833],[-53.41,-22.814],[-53.38,-22.804],[-53.364,-22.784],[-53.327,-22.765],[-53.333,-22.731],[-53.295,-22.724],[-53.276,-22.685],[-53.283,-22.573],[-53.308,-22.538],[-53.335,-22.456],[-53.339,-22.361],[-53.356,-22.334],[-53.5,-22.585],[-53.525,-22.613],[-53.513,-22.632],[-53.559,-22.667],[-53.535,-22.721],[-53.535,-22.744],[-53.506,-22.763],[-53.525,-22.793],[-53.56,-22.81],[-53.569,-22.836],[-53.611,-22.858],[-53.622,-22.902],[-53.652,-22.92],[-53.657,-22.981]]]}},{"type":"Feature","properties":{"code":"5007950"},"geometry":{"type":"Polygon","coordinates":[[[-55.132,-23.768],[-55.094,-23.804],[-55.07,-23.838],[-55.046,-23.841],[-54.997,-23.877],[-54.925,-23.844],[-54.899,-23.824],[-54.88,-23.834],[-54.768,-23.773],[-54.71,-23.736],[-54.649,-23.718],[-54.675,-23.647],[-54.748,-23.58],[-54.764,-23.579],[-54.813,-23.546],[-54.863,-23.549],[-54.921,-23.567],[-54.97,-23.542],[-55.021,-23.496],[-55.088,-23.471],[-55.103,-23.447],[-55.145,-23.41],[-55.155,-23.381],[-55.203,-23.4],[-55.272,-23.57],[-55.242,-23.617],[-55.244,-23.641],[-55.201,-23.668],[-55.175,-23.697],[-55.166,-23.736],[-55.129,-23.749],[-55.132,-23.768]]]}},{"type":"Feature","properties":{"code":"5008008"},"geometry":{"type":"Polygon","coordinates":[[[-55.205,-20.585],[-55.128,-20.625],[-55.083,-20.67],[-55.083,-20.719],[-55.066,-20.742],[-54.997,-20.759],[-54.975,-20.776],[-54.939,-20.782],[-54.823,-20.778],[-54.816,-20.741],[-54.843,-20.688],[-54.815,-20.661],[-54.797,-20.662],[-54.767,-20.615],[-54.798,-20.558],[-54.798,-20.51],[-54.763,-20.481],[-54.763,-20.326],[-54.821,-20.299],[-54.82,-20.284],[-54.889,-20.268],[-54.922,-20.231],[-54.913,-20.207],[-54.959,-20.167],[-55.009,-20.155],[-55.042,-20.156],[-55.084,-20.154],[-55.137,-20.145],[-55.192,-20.173],[-55.246,-20.226],[-55.269,-20.248],[-55.271,-20.287],[-55.248,-20.285],[-55.246,-20.321],[-55.319,-20.328],[-55.356,-20.348],[-55.355,-20.386],[-55.388,-20.409],[-55.391,-20.432],[-55.367,-20.442],[-55.325,-20.405],[-55.304,-20.43],[-55.272,-20.45],[-55.273,-20.473],[-55.234,-20.537],[-55.216,-20.546],[-55.205,-20.585]]]}},{"type":"Feature","properties":{"code":"5000252"},"geometry":{"type":"Polygon","coordinates":[[[-54.203,-18.091],[-54.176,-18.112],[-54.142,-18.159],[-54.14,-18.252],[-54.13,-18.284],[-54.177,-18.334],[-54.14,-18.331],[-54.091,-18.357],[-54.092,-18.414],[-54.079,-18.447],[-54.081,-18.516],[-54.044,-18.502],[-53.981,-18.543],[-53.968,-18.527],[-53.93,-18.523],[-53.84,-18.459],[-53.819,-18.477],[-53.781,-18.483],[-53.762,-18.454],[-53.711,-18.446],[-53.638,-18.455],[-53.581,-18.437],[-53.498,-18.401],[-53.462,-18.403],[-53.435,-18.383],[-53.449,-18.351],[-53.431,-18.327],[-53.461,-18.278],[-53.438,-18.254],[-53.391,-18.241],[-53.347,-18.257],[-53.33,-18.239],[-53.375,-18.209],[-53.358,-18.194],[-53.314,-18.209],[-53.221,-18.127],[-53.236,-18.051],[-53.238,-18.007],[-53.292,-17.996],[-53.336,-18.007],[-53.381,-18.009],[-53.404,-17.993],[-53.435,-17.985],[-53.468,-18.035],[-53.486,-18.04],[-53.518,-18.021],[-53.59,-18.01],[-53.616,-17.979],[-53.652,-17.976],[-53.693,-18.007],[-53.737,-17.995],[-53.774,-18.001],[-53.812,-17.959],[-53.854,-17.926],[-53.899,-17.909],[-53.952,-17.916],[-53.98,-17.935],[-54.033,-17.953],[-54.051,-17.98],[-54.081,-18.065],[-54.109,-18.102],[-54.203,-18.091]]]}},{"type":"Feature","properties":{"code":"5008404"},"geometry":{"type":"Polygon","coordinates":[[[-54.505,-22.458],[-54.472,-22.509],[-54.472,-22.591],[-54.454,-22.621],[-54.43,-22.626],[-54.348,-22.443],[-54.325,-22.392],[-54.429,-22.352],[-54.463,-22.363],[-54.505,-22.458]]]}},{"type":"Feature","properties":{"code":"5000203"},"geometry":{"type":"Polygon","coordinates":[[[-52.364,-20.884],[-52.355,-20.829],[-52.384,-20.76],[-52.409,-20.735],[-52.426,-20.687],[-52.441,-20.671],[-52.463,-20.611],[-52.491,-20.581],[-52.499,-20.557],[-52.528,-20.534],[-52.566,-20.473],[-52.612,-20.432],[-52.624,-20.408],[-52.677,-20.369],[-52.724,-20.292],[-52.736,-20.253],[-52.727,-20.226],[-52.702,-20.197],[-52.727,-20.155],[-52.731,-20.102],[-52.699,-20.081],[-52.718,-20.024],[-52.716,-20.002],[-52.727,-19.914],[-52.743,-19.884],[-52.782,-19.87],[-52.713,-19.811],[-52.645,-19.804],[-52.613,-19.79],[-52.597,-19.748],[-52.589,-19.694],[-52.546,-19.636],[-52.498,-19.626],[-52.476,-19.611],[-52.516,-19.55],[-52.529,-19.487],[-52.564,-19.451],[-52.576,-19.414],[-52.621,-19.421],[-52.656,-19.491],[-52.712,-19.552],[-52.763,-19.528],[-52.82,-19.538],[-52.861,-19.538],[-52.908,-19.498],[-52.984,-19.463],[-53.02,-19.43],[-53.073,-19.419],[-53.098,-19.423],[-53.093,-19.461],[-53.14,-19.457],[-53.328,-19.497],[-53.346,-19.45],[-53.384,-19.514],[-53.403,-19.517],[-53.486,-19.587],[-53.478,-19.624],[-53.494,-19.659],[-53.488,-19.691],[-53.468,-19.697],[-53.459,-19.73],[-53.425,-19.785],[-53.386,-19.821],[-53.367,-19.877],[-53.328,-19.889],[-53.275,-19.977],[-53.242,-20.018],[-53.23,-20.018],[-53.18,-20.059],[-53.151,-20.138],[-53.108,-20.171],[-53.093,-20.205],[-53.099,-20.241],[-53.068,-20.3],[-52.972,-20.363],[-52.901,-20.446],[-52.869,-20.454],[-52.839,-20.518],[-52.817,-20.541],[-52.761,-20.573],[-52.735,-20.615],[-52.687,-20.647],[-52.667,-20.674],[-52.602,-20.714],[-52.569,-20.761],[-52.483,-20.825],[-52.414,-20.856],[-52.364,-20.884]]]}},{"type":"Feature","properties":{"code":"5008305"},"geometry":{"type":"Polygon","coordinates":[[[-51.773,-21.051],[-51.76,-21.022],[-51.714,-20.971],[-51.667,-20.971],[-51.624,-20.944],[-51.615,-20.886],[-51.628,-20.869],[-51.633,-20.822],[-51.622,-20.777],[-51.635,-20.755],[-51.603,-20.662],[-51.575,-20.623],[-51.568,-20.618],[-51.615,-20.579],[-51.624,-20.554],[-51.676,-20.492],[-51.7,-20.491],[-51.722,-20.455],[-51.751,-20.436],[-51.789,-20.449],[-51.833,-20.443],[-51.873,-20.481],[-51.895,-20.48],[-51.926,-20.518],[-51.948,-20.514],[-51.967,-20.484],[-52.012,-20.457],[-52.005,-20.431],[-52.067,-20.362],[-52.07,-20.326],[-52.096,-20.253],[-52.085,-20.224],[-52.089,-20.183],[-52.12,-20.131],[-52.145,-20.109],[-52.167,-20.059],[-52.201,-20.033],[-52.196,-20.019],[-52.218,-19.967],[-52.22,-19.919],[-52.213,-19.869],[-52.296,-19.783],[-52.304,-19.75],[-52.335,-19.728],[-52.341,-19.677],[-52.389,-19.633],[-52.476,-19.611],[-52.498,-19.626],[-52.546,-19.636],[-52.589,-19.694],[-52.597,-19.748],[-52.613,-19.79],[-52.645,-19.804],[-52.713,-19.811],[-52.782,-19.87],[-52.743,-19.884],[-52.727,-19.914],[-52.716,-20.002],[-52.718,-20.024],[-52.699,-20.081],[-52.731,-20.102],[-52.727,-20.155],[-52.702,-20.197],[-52.727,-20.226],[-52.736,-20.253],[-52.724,-20.292],[-52.677,-20.369],[-52.624,-20.408],[-52.612,-20.432],[-52.566,-20.473],[-52.528,-20.534],[-52.499,-20.557],[-52.491,-20.581],[-52.463,-20.611],[-52.441,-20.671],[-52.426,-20.687],[-52.409,-20.735],[-52.384,-20.76],[-52.355,-20.829],[-52.364,-20.884],[-52.309,-20.953],[-52.25,-20.981],[-52.222,-20.972],[-52.159,-21.014],[-52.106,-21.039],[-52.04,-21.085],[-51.992,-21.128],[-51.994,-21.146],[-51.943,-21.185],[-51.892,-21.183],[-51.88,-21.198],[-51.879,-21.148],[-51.865,-21.131],[-51.824,-21.127],[-51.79,-21.102],[-51.773,-21.051]]]}},{"type":"Feature","properties":{"code":"5007554"},"geometry":{"type":"Polygon","coordinates":[[[-52.997,-21.633],[-52.974,-21.654],[-52.938,-21.665],[-52.883,-21.657],[-52.84,-21.673],[-52.819,-21.668],[-52.735,-21.726],[-52.693,-21.74],[-52.629,-21.708],[-52.547,-21.713],[-52.492,-21.69],[-52.397,-21.671],[-52.31,-21.631],[-52.287,-21.645],[-52.257,-21.633],[-52.197,-21.669],[-52.178,-21.697],[-52.177,-21.729],[-52.161,-21.771],[-52.104,-21.746],[-52.056,-21.677],[-52.05,-21.643],[-52.069,-21.598],[-52.102,-21.57],[-52.164,-21.579],[-52.171,-21.563],[-52.224,-21.537],[-52.224,-21.52],[-52.281,-21.482],[-52.348,-21.453],[-52.384,-21.408],[-52.455,-21.373],[-52.481,-21.35],[-52.515,-21.303],[-52.528,-21.271],[-52.554,-21.243],[-52.566,-21.203],[-52.589,-21.191],[-52.613,-21.151],[-52.679,-21.103],[-52.711,-21.067],[-52.858,-20.951],[-52.886,-20.942],[-52.931,-20.91],[-52.961,-20.873],[-52.994,-20.862],[-53.021,-20.814],[-53.02,-20.783],[-53.04,-20.736],[-53.127,-20.69],[-53.164,-20.687],[-53.179,-20.724],[-53.167,-20.754],[-53.176,-20.823],[-53.238,-20.88],[-53.258,-20.887],[-53.294,-20.953],[-53.27,-20.988],[-53.191,-21.069],[-53.186,-21.094],[-53.138,-21.152],[-53.133,-21.23],[-53.096,-21.351],[-53.053,-21.407],[-53.061,-21.429],[-53.047,-21.475],[-53.027,-21.496],[-53.002,-21.594],[-52.997,-21.633]]]}},{"type":"Feature","properties":{"code":"5007505"},"geometry":{"type":"Polygon","coordinates":[[[-54.782,-20.173],[-54.763,-20.045],[-54.739,-20.046],[-54.71,-20.016],[-54.649,-20.001],[-54.577,-20.021],[-54.549,-20.011],[-54.523,-20.02],[-54.504,-20.001],[-54.409,-20.032],[-54.399,-20.009],[-54.449,-19.98],[-54.46,-19.943],[-54.459,-19.889],[-54.49,-19.868],[-54.545,-19.874],[-54.583,-19.869],[-54.635,-19.876],[-54.651,-19.776],[-54.685,-19.756],[-54.694,-19.772],[-54.734,-19.773],[-54.783,-19.798],[-54.818,-19.84],[-54.838,-19.844],[-54.851,-19.905],[-54.883,-19.924],[-54.893,-19.978],[-54.929,-20.037],[-54.937,-20.07],[-54.972,-20.092],[-54.996,-20.125],[-55.029,-20.125],[-55.042,-20.156],[-55.009,-20.155],[-54.959,-20.167],[-54.913,-20.207],[-54.862,-20.2],[-54.858,-20.172],[-54.782,-20.173]]]}},{"type":"Feature","properties":{"code":"5007935"},"geometry":{"type":"Polygon","coordinates":[[[-55.137,-17.65],[-55.157,-17.744],[-55.134,-17.758],[-55.135,-17.799],[-55.072,-17.872],[-55.028,-17.89],[-55.013,-17.879],[-54.965,-17.893],[-54.947,-17.911],[-54.93,-17.953],[-54.876,-17.996],[-54.845,-18.003],[-54.749,-17.97],[-54.739,-17.939],[-54.689,-17.915],[-54.704,-17.85],[-54.746,-17.784],[-54.757,-17.732],[-54.67,-17.715],[-54.636,-17.699],[-54.536,-17.707],[-54.525,-17.758],[-54.506,-17.737],[-54.486,-17.752],[-54.448,-17.733],[-54.437,-17.764],[-54.392,-17.76],[-54.361,-17.784],[-54.314,-17.765],[-54.296,-17.811],[-54.262,-17.815],[-54.188,-17.759],[-54.141,-17.747],[-54.154,-17.712],[-54.117,-17.715],[-54.118,-17.683],[-54.09,-17.686],[-54.076,-17.651],[-54.032,-17.642],[-54.013,-17.653],[-53.989,-17.637],[-53.932,-17.65],[-53.919,-17.672],[-53.888,-17.673],[-53.844,-17.64],[-53.815,-17.662],[-53.785,-17.652],[-53.757,-17.673],[-53.704,-17.661],[-53.693,-17.5],[-53.68,-17.254],[-53.705,-17.228],[-53.763,-17.247],[-53.786,-17.288],[-53.82,-17.295],[-53.831,-17.355],[-53.869,-17.369],[-53.931,-17.439],[-53.973,-17.472],[-54.023,-17.477],[-54.058,-17.513],[-54.046,-17.537],[-54.052,-17.563],[-54.085,-17.619],[-54.134,-17.619],[-54.157,-17.605],[-54.192,-17.606],[-54.244,-17.629],[-54.275,-17.654],[-54.302,-17.662],[-54.343,-17.656],[-54.388,-17.632],[-54.377,-17.607],[-54.392,-17.571],[-54.426,-17.537],[-54.469,-17.527],[-54.474,-17.498],[-54.502,-17.481],[-54.57,-17.473],[-54.636,-17.496],[-54.69,-17.503],[-54.747,-17.52],[-54.759,-17.566],[-54.801,-17.583],[-54.825,-17.61],[-54.861,-17.624],[-54.943,-17.609],[-55.047,-17.64],[-55.073,-17.632],[-55.137,-17.65]]]}},{"type":"Feature","properties":{"code":"5007901"},"geometry":{"type":"Polygon","coordinates":[[[-54.701,-21.355],[-54.681,-21.345],[-54.672,-21.304],[-54.644,-21.303],[-54.574,-21.239],[-54.53,-21.213],[-54.524,-21.19],[-54.559,-21.148],[-54.524,-21.128],[-54.482,-21.122],[-54.509,-21.009],[-54.507,-20.994],[-54.526,-20.965],[-54.566,-20.95],[-54.602,-20.905],[-54.631,-20.909],[-54.673,-20.887],[-54.698,-20.848],[-54.708,-20.794],[-54.698,-20.769],[-54.722,-20.715],[-54.753,-20.692],[-54.772,-20.696],[-54.816,-20.741],[-54.823,-20.778],[-54.939,-20.782],[-54.975,-20.776],[-54.997,-20.759],[-55.066,-20.742],[-55.083,-20.719],[-55.083,-20.67],[-55.128,-20.625],[-55.205,-20.585],[-55.201,-20.61],[-55.218,-20.652],[-55.221,-20.692],[-55.204,-20.722],[-55.177,-20.735],[-55.151,-20.802],[-55.169,-20.862],[-55.202,-20.896],[-55.208,-21.035],[-55.254,-21.016],[-55.27,-21.009],[-55.294,-21.068],[-55.307,-21.08],[-55.307,-21.134],[-55.326,-21.169],[-55.316,-21.204],[-55.319,-21.242],[-55.299,-21.251],[-55.296,-21.291],[-55.282,-21.317],[-55.297,-21.346],[-55.257,-21.409],[-55.218,-21.424],[-55.211,-21.442],[-55.167,-21.461],[-55.173,-21.48],[-55.126,-21.507],[-55.105,-21.553],[-55.058,-21.564],[-55.028,-21.586],[-55.019,-21.564],[-55.013,-21.485],[-54.893,-21.338],[-54.864,-21.337],[-54.837,-21.353],[-54.818,-21.338],[-54.784,-21.346],[-54.77,-21.378],[-54.701,-21.355]]]}},{"type":"Feature","properties":{"code":"5007703"},"geometry":{"type":"Polygon","coordinates":[[[-55.262,-23.992],[-55.229,-24.014],[-55.179,-23.994],[-55.129,-23.984],[-55.107,-23.965],[-55.062,-23.993],[-54.999,-23.958],[-54.967,-23.966],[-54.925,-23.96],[-54.927,-23.925],[-54.909,-23.911],[-54.86,-23.905],[-54.836,-23.884],[-54.814,-23.89],[-54.793,-23.868],[-54.705,-23.865],[-54.684,-23.831],[-54.702,-23.783],[-54.71,-23.736],[-54.768,-23.773],[-54.88,-23.834],[-54.899,-23.824],[-54.925,-23.844],[-54.997,-23.877],[-55.046,-23.841],[-55.07,-23.838],[-55.094,-23.804],[-55.132,-23.768],[-55.191,-23.791],[-55.246,-23.804],[-55.28,-23.826],[-55.249,-23.877],[-55.236,-23.92],[-55.271,-23.926],[-55.262,-23.992]]]}},{"type":"Feature","properties":{"code":"5007695"},"geometry":{"type":"Polygon","coordinates":[[[-54.431,-19.553],[-54.437,-19.522],[-54.43,-19.476],[-54.401,-19.47],[-54.377,-19.445],[-54.368,-19.413],[-54.317,-19.411],[-54.318,-19.324],[-54.276,-19.314],[-54.275,-19.291],[-54.235,-19.251],[-54.208,-19.251],[-54.208,-19.169],[-54.216,-19.126],[-54.247,-19.068],[-54.245,-19.034],[-54.205,-19.048],[-54.186,-19.023],[-54.19,-18.976],[-54.217,-18.879],[-54.259,-18.834],[-54.261,-18.791],[-54.298,-18.74],[-54.334,-18.721],[-54.393,-18.705],[-54.425,-18.71],[-54.441,-18.728],[-54.532,-18.725],[-54.574,-18.712],[-54.579,-18.735],[-54.563,-18.766],[-54.529,-18.783],[-54.516,-18.82],[-54.521,-18.846],[-54.494,-18.86],[-54.428,-18.929],[-54.397,-18.95],[-54.401,-18.987],[-54.434,-18.974],[-54.486,-18.98],[-54.551,-18.954],[-54.609,-18.979],[-54.691,-19.024],[-54.724,-19.073],[-54.721,-19.096],[-54.758,-19.16],[-54.788,-19.172],[-54.805,-19.201],[-54.741,-19.229],[-54.749,-19.266],[-54.711,-19.303],[-54.724,-19.314],[-54.743,-19.364],[-54.795,-19.455],[-54.788,-19.47],[-54.743,-19.499],[-54.722,-19.597],[-54.677,-19.597],[-54.627,-19.561],[-54.589,-19.565],[-54.551,-19.531],[-54.512,-19.538],[-54.485,-19.562],[-54.469,-19.54],[-54.431,-19.553]]]}},{"type":"Feature","properties":{"code":"5007802"},"geometry":{"type":"Polygon","coordinates":[[[-51.343,-20.356],[-51.362,-20.32],[-51.417,-20.292],[-51.448,-20.26],[-51.502,-20.241],[-51.562,-20.189],[-51.581,-20.158],[-51.624,-20.12],[-51.629,-20.103],[-51.688,-20.047],[-51.747,-20.032],[-51.781,-19.926],[-51.848,-20.006],[-51.871,-20.003],[-51.896,-20.024],[-51.996,-20.026],[-52.043,-20.051],[-52.052,-20.069],[-52.096,-20.09],[-52.12,-20.131],[-52.089,-20.183],[-52.085,-20.224],[-52.096,-20.253],[-52.07,-20.326],[-52.067,-20.362],[-52.005,-20.431],[-52.012,-20.457],[-51.967,-20.484],[-51.948,-20.514],[-51.926,-20.518],[-51.895,-20.48],[-51.873,-20.481],[-51.833,-20.443],[-51.789,-20.449],[-51.751,-20.436],[-51.722,-20.455],[-51.7,-20.491],[-51.676,-20.492],[-51.624,-20.554],[-51.615,-20.579],[-51.568,-20.618],[-51.5,-20.568],[-51.493,-20.547],[-51.449,-20.483],[-51.419,-20.465],[-51.399,-20.446],[-51.378,-20.402],[-51.343,-20.356]]]}},{"type":"Feature","properties":{"code":"5007109"},"geometry":{"type":"Polygon","coordinates":[[[-54.186,-20.465],[-54.195,-20.532],[-54.178,-20.603],[-54.207,-20.673],[-54.202,-20.711],[-54.175,-20.725],[-54.158,-20.772],[-54.092,-20.798],[-54.064,-20.837],[-54.023,-20.855],[-54.006,-20.892],[-54.005,-20.923],[-53.968,-20.956],[-53.916,-20.958],[-53.856,-20.99],[-53.848,-21.044],[-53.804,-21.074],[-53.761,-21.079],[-53.737,-21.108],[-53.726,-21.146],[-53.682,-21.19],[-53.68,-21.236],[-53.648,-21.289],[-53.638,-21.337],[-53.618,-21.362],[-53.617,-21.417],[-53.636,-21.447],[-53.607,-21.502],[-53.605,-21.544],[-53.62,-21.574],[-53.609,-21.591],[-53.588,-21.607],[-53.549,-21.607],[-53.468,-21.573],[-53.438,-21.555],[-53.401,-21.561],[-53.343,-21.596],[-53.313,-21.581],[-53.232,-21.593],[-53.209,-21.571],[-53.183,-21.594],[-53.141,-21.576],[-53.105,-21.584],[-53.056,-21.61],[-53.025,-21.616],[-52.997,-21.633],[-53.002,-21.594],[-53.027,-21.496],[-53.047,-21.475],[-53.061,-21.429],[-53.053,-21.407],[-53.096,-21.351],[-53.133,-21.23],[-53.138,-21.152],[-53.186,-21.094],[-53.191,-21.069],[-53.27,-20.988],[-53.294,-20.953],[-53.258,-20.887],[-53.238,-20.88],[-53.176,-20.823],[-53.167,-20.754],[-53.179,-20.724],[-53.164,-20.687],[-53.127,-20.69],[-53.084,-20.681],[-53.038,-20.654],[-52.984,-20.652],[-52.897,-20.613],[-52.817,-20.541],[-52.839,-20.518],[-52.869,-20.454],[-52.901,-20.446],[-52.972,-20.363],[-53.068,-20.3],[-53.099,-20.241],[-53.093,-20.205],[-53.108,-20.171],[-53.151,-20.138],[-53.18,-20.059],[-53.23,-20.018],[-53.242,-20.018],[-53.275,-19.977],[-53.328,-19.889],[-53.367,-19.877],[-53.386,-19.821],[-53.425,-19.785],[-53.455,-19.798],[-53.532,-19.782],[-53.564,-19.782],[-53.601,-19.77],[-53.639,-19.733],[-53.647,-19.709],[-53.711,-19.68],[-53.719,-19.666],[-53.783,-19.617],[-53.795,-19.581],[-53.822,-19.551],[-53.863,-19.53],[-53.904,-19.702],[-53.988,-19.723],[-53.992,-19.765],[-53.981,-19.776],[-53.963,-19.861],[-53.948,-19.867],[-53.919,-19.913],[-53.897,-19.987],[-53.952,-19.999],[-53.958,-20.031],[-53.978,-20.049],[-54.054,-20.07],[-54.059,-20.088],[-54.1,-20.118],[-54.069,-20.149],[-54.061,-20.187],[-54.009,-20.239],[-53.983,-20.282],[-53.99,-20.304],[-53.954,-20.331],[-53.888,-20.365],[-54.002,-20.398],[-54.049,-20.425],[-54.113,-20.436],[-54.186,-20.465]]]}},{"type":"Feature","properties":{"code":"5007307"},"geometry":{"type":"Polygon","coordinates":[[[-55.241,-19.521],[-55.174,-19.595],[-55.146,-19.614],[-55.085,-19.631],[-55.057,-19.609],[-55.038,-19.615],[-55.046,-19.665],[-55.027,-19.698],[-54.961,-19.685],[-54.934,-19.695],[-54.903,-19.68],[-54.893,-19.652],[-54.839,-19.648],[-54.838,-19.608],[-54.824,-19.594],[-54.812,-19.536],[-54.815,-19.486],[-54.795,-19.455],[-54.743,-19.364],[-54.724,-19.314],[-54.711,-19.303],[-54.749,-19.266],[-54.741,-19.229],[-54.805,-19.201],[-54.871,-19.187],[-54.913,-19.235],[-54.994,-19.236],[-55.018,-19.3],[-55.046,-19.326],[-55.057,-19.351],[-55.102,-19.335],[-55.112,-19.37],[-55.163,-19.404],[-55.204,-19.417],[-55.226,-19.496],[-55.241,-19.521]]]}},{"type":"Feature","properties":{"code":"5007406"},"geometry":{"type":"Polygon","coordinates":[[[-54.805,-19.201],[-54.788,-19.172],[-54.758,-19.16],[-54.721,-19.096],[-54.724,-19.073],[-54.691,-19.024],[-54.609,-18.979],[-54.551,-18.954],[-54.486,-18.98],[-54.434,-18.974],[-54.401,-18.987],[-54.397,-18.95],[-54.428,-18.929],[-54.494,-18.86],[-54.521,-18.846],[-54.516,-18.82],[-54.529,-18.783],[-54.563,-18.766],[-54.579,-18.735],[-54.574,-18.712],[-54.616,-18.666],[-54.626,-18.627],[-54.726,-18.589],[-54.749,-18.55],[-54.764,-18.505],[-54.757,-18.491],[-54.846,-18.425],[-54.89,-18.449],[-54.934,-18.438],[-54.988,-18.391],[-55.016,-18.344],[-55.055,-18.315],[-55.045,-18.29],[-55.091,-18.278],[-55.109,-18.246],[-55.16,-18.232],[-55.213,-18.238],[-55.234,-18.229],[-55.282,-18.258],[-55.306,-18.248],[-55.399,-18.582],[-55.442,-19.0],[-55.465,-19.219],[-55.417,-19.261],[-55.375,-19.258],[-55.319,-19.242],[-55.305,-19.258],[-55.25,-19.252],[-55.224,-19.282],[-55.204,-19.285],[-55.17,-19.327],[-55.138,-19.345],[-55.102,-19.335],[-55.057,-19.351],[-55.046,-19.326],[-55.018,-19.3],[-54.994,-19.236],[-54.913,-19.235],[-54.871,-19.187],[-54.805,-19.201]]]}},{"type":"Feature","properties":{"code":"5007208"},"geometry":{"type":"Polygon","coordinates":[[[-54.627,-21.924],[-54.585,-21.931],[-54.535,-21.911],[-54.499,-21.934],[-54.474,-21.893],[-54.445,-21.903],[-54.409,-21.934],[-54.363,-21.947],[-54.282,-21.934],[-54.283,-21.952],[-54.232,-21.954],[-54.188,-21.924],[-54.126,-21.946],[-54.132,-21.93],[-54.097,-21.913],[-54.081,-21.929],[-54.055,-21.902],[-54.026,-21.897],[-53.974,-21.911],[-53.914,-21.898],[-53.899,-21.883],[-53.915,-21.863],[-53.955,-21.85],[-53.963,-21.816],[-54.008,-21.784],[-54.044,-21.774],[-54.091,-21.745],[-54.11,-21.753],[-54.185,-21.732],[-54.299,-21.653],[-54.342,-21.615],[-54.355,-21.578],[-54.337,-21.56],[-54.334,-21.517],[-54.383,-21.542],[-54.437,-21.599],[-54.46,-21.574],[-54.486,-21.567],[-54.495,-21.541],[-54.565,-21.501],[-54.601,-21.489],[-54.65,-21.545],[-54.686,-21.518],[-54.69,-21.491],[-54.668,-21.465],[-54.708,-21.429],[-54.688,-21.41],[-54.701,-21.355],[-54.77,-21.378],[-54.784,-21.346],[-54.818,-21.338],[-54.837,-21.353],[-54.864,-21.337],[-54.893,-21.338],[-55.013,-21.485],[-55.019,-21.564],[-55.028,-21.586],[-55.026,-21.61],[-54.988,-21.623],[-54.986,-21.662],[-54.96,-21.671],[-54.938,-21.718],[-54.895,-21.759],[-54.87,-21.765],[-54.829,-21.797],[-54.83,-21.831],[-54.799,-21.826],[-54.763,-21.903],[-54.733,-21.879],[-54.688,-21.871],[-54.7,-21.916],[-54.687,-21.941],[-54.664,-21.943],[-54.627,-21.924]]]}},{"type":"Feature","properties":{"code":"5006606"},"geometry":{"type":"Polygon","coordinates":[[[-55.614,-22.693],[-55.574,-22.724],[-55.553,-22.751],[-55.526,-22.764],[-55.511,-22.725],[-55.46,-22.697],[-55.352,-22.708],[-55.349,-22.674],[-55.361,-22.64],[-55.365,-22.562],[-55.346,-22.541],[-55.339,-22.509],[-55.217,-22.465],[-55.122,-22.409],[-55.091,-22.425],[-55.055,-22.413],[-55.044,-22.369],[-54.985,-22.357],[-55.008,-22.344],[-55.078,-22.264],[-55.127,-22.243],[-55.149,-22.224],[-55.204,-22.242],[-55.222,-22.223],[-55.252,-22.227],[-55.293,-22.192],[-55.357,-22.203],[-55.405,-22.153],[-55.447,-22.148],[-55.464,-22.126],[-55.489,-22.123],[-55.498,-22.096],[-55.499,-22.035],[-55.523,-21.984],[-55.438,-21.937],[-55.412,-21.895],[-55.421,-21.868],[-55.461,-21.871],[-55.509,-21.831],[-55.57,-21.797],[-55.589,-21.808],[-55.612,-21.786],[-55.639,-21.788],[-55.677,-21.765],[-55.714,-21.756],[-55.733,-21.78],[-55.794,-21.694],[-55.83,-21.663],[-55.855,-21.674],[-55.904,-21.658],[-55.953,-21.689],[-55.93,-21.742],[-55.891,-21.74],[-55.893,-21.761],[-55.937,-21.776],[-55.939,-21.81],[-55.894,-21.811],[-55.932,-21.826],[-55.957,-21.821],[-55.99,-21.837],[-55.996,-21.891],[-56.025,-21.884],[-56.055,-21.902],[-56.087,-21.894],[-56.07,-21.942],[-56.08,-21.972],[-56.047,-21.973],[-56.028,-21.994],[-56.038,-22.034],[-56.015,-22.061],[-55.971,-22.099],[-55.94,-22.096],[-55.877,-22.15],[-55.834,-22.141],[-55.799,-22.151],[-55.773,-22.142],[-55.763,-22.12],[-55.714,-22.114],[-55.692,-22.132],[-55.65,-22.128],[-55.666,-22.16],[-55.69,-22.181],[-55.713,-22.229],[-55.709,-22.247],[-55.746,-22.282],[-55.759,-22.323],[-55.748,-22.346],[-55.767,-22.384],[-55.749,-22.383],[-55.734,-22.442],[-55.751,-22.475],[-55.747,-22.506],[-55.724,-22.552],[-55.699,-22.563],[-55.683,-22.589],[-55.625,-22.628],[-55.614,-22.693]]]}},{"type":"Feature","properties":{"code":"5006408"},"geometry":{"type":"Polygon","coordinates":[[[-54.689,-17.915],[-54.677,-17.964],[-54.679,-18.008],[-54.7,-18.123],[-54.666,-18.16],[-54.654,-18.186],[-54.613,-18.176],[-54.599,-18.189],[-54.599,-18.237],[-54.584,-18.251],[-54.549,-18.209],[-54.502,-18.189],[-54.432,-18.136],[-54.388,-18.147],[-54.336,-18.132],[-54.304,-18.136],[-54.238,-18.096],[-54.203,-18.091],[-54.109,-18.102],[-54.081,-18.065],[-54.051,-17.98],[-54.033,-17.953],[-53.98,-17.935],[-53.952,-17.916],[-53.956,-17.883],[-53.941,-17.84],[-53.913,-17.808],[-53.888,-17.749],[-53.856,-17.703],[-53.799,-17.671],[-53.757,-17.673],[-53.785,-17.652],[-53.815,-17.662],[-53.844,-17.64],[-53.888,-17.673],[-53.919,-17.672],[-53.932,-17.65],[-53.989,-17.637],[-54.013,-17.653],[-54.032,-17.642],[-54.076,-17.651],[-54.09,-17.686],[-54.118,-17.683],[-54.117,-17.715],[-54.154,-17.712],[-54.141,-17.747],[-54.188,-17.759],[-54.262,-17.815],[-54.296,-17.811],[-54.314,-17.765],[-54.361,-17.784],[-54.392,-17.76],[-54.437,-17.764],[-54.448,-17.733],[-54.486,-17.752],[-54.506,-17.737],[-54.525,-17.758],[-54.536,-17.707],[-54.636,-17.699],[-54.67,-17.715],[-54.757,-17.732],[-54.746,-17.784],[-54.704,-17.85],[-54.689,-17.915]]]}}]}