{"type":"FeatureCollection","features":[{"type":"Feature","properties":{"code":"5300108"},"geometry":{"type":"Polygon","coordinates":[[[-47.939,-16.05],[-47.684,-16.05],[-47.309,-16.05],[-47.31,-16.036],[-47.37,-16.001],[-47.377,-15.962],[-47.362,-15.929],[-47.379,-15.887],[-47.366,-15.827],[-47.34,-15.795],[-47.315,-15.746],[-47.312,-15.697],[-47.331,-15.684],[-47.334,-15.63],[-47.322,-15.598],[-47.348,-15.579],[-47.378,-15.576],[-47.418,-15.546],[-47.418,-15.502],[-47.493,-15.502],[-48.054,-15.502],[-48.2,-15.502],[-48.2,-15.623],[-48.218,-15.623],[-48.235,-15.66],[-48.241,-15.706],[-48.208,-15.718],[-48.209,-15.75],[-48.243,-15.797],[-48.282,-15.831],[-48.275,-15.909],[-48.251,-15.938],[-48.278,-16.05],[-48.085,-16.05],[-48.018,-16.05],[-47.939,-16.05]]]}}]}